NLLOC "./3D_reloc_nonlin_latlon_calum_lfe_loc/3D_reloc_nonlin_latlon_calum_lfe.20090714.165504.grid0" "LOCATED" "Location completed."
SIGNATURE "C. Boese VUW   NLLoc:v6.00.0 17May2015 09h58m44"
COMMENT "2008-2009 SAMBA"
GRID  50 90 26  -30 -95 -2  2 2 2 PROB_DENSITY
SEARCH OCTREE nInitial 19200 nEvaluated 20024 smallestNodeSide 0.153125/0.278125/0.270833 oct_tree_integral 5.308436e+00 scatter_volume 5.308436e+00
HYPOCENTER  x 10.9609 y -50.3609 z 22.5104  OT 59.3759  ix -1 iy -1 iz -1
GEOGRAPHIC  OT 2009 07 14  16 54   59.3759  Lat -43.64802101 Long 169.98537712 Depth 22.510417 
QUALITY  Pmax 6.50658e-49 MFmin 4.49148 MFmax 6.4256 RMS 0.540966 Nphs 11 Gap 224.055 Dist 15.1298 Mamp  -9.9 0 Mdur  -9.9 0
VPVSRATIO  VpVsRatio 2.39759  Npair 3  Diff 1.16
STATISTICS  ExpectX 11.1593 Y -50.516 Z 22.222  CovXX 0.81631 XY -0.400361 XZ -0.860789 YY 0.418539 YZ 0.360859 ZZ 1.85964 EllAz1  42.2699 Dip1  10.3012 Len1  0.711123 Az2  318.616 Dip2  -31.3075 Len2  1.30005 Len3  2.954273e+00
STAT_GEOG  ExpectLat -43.6503 Long 169.985 Depth 22.222
TRANSFORM  SIMPLE LatOrig -43.301800  LongOrig 170.412000  RotCW -54.000000
QML_OriginQuality  assocPhCt 11  usedPhCt 11  assocStaCt -1  usedStaCt 8  depthPhCt -1  stdErr 0.540966  azGap 224.055  secAzGap 251.045  gtLevel -  minDist 15.1298 maxDist 41.5933 medDist 26.2012
QML_OriginUncertainty  horUnc -1  minHorUnc 0.626008  maxHorUnc 1.56469  azMaxHorUnc 121.792
FOCALMECH  Hyp  -43.648 169.985 22.5104 Mech  0 0 0 mf  0 nObs 0
PHASE ID Ins Cmp On Pha  FM Date     HrMn   Sec     Err  ErrMag    Coda      Amp       Per  >   TTpred    Res       Weight    StaLoc(X  Y         Z)        SDist    SAzim  RAz  RDip RQual    Tcorr 
mtfo   S    N    I P      ? 20090714 1655       4.4 GAU       0.1        -1        -1        -1 >    4.8632    0.1609    0.9380   -0.4173  -40.3886   -1.2140   15.1298   5.23  12.5 149.6  9     0.0000
mtfo   S    E    I S      ? 20090714 1655      7.29 GAU       0.1        -1        -1        -1 >    8.1702   -0.2561    0.9299   -0.4173  -40.3886   -1.2140   15.1298   5.23  12.5 149.6  9     0.0000
FOZ    H    N    I P      ? 20090714 1655      4.51 GAU       0.1        -1        -1        -1 >    4.9983    0.1358    1.1486   -7.3876  -54.0466   -0.0540   18.7150 312.64 307.7 143.8  9     0.0000
FOZ    H    N    I S      ? 20090714 1655      7.35 GAU       0.1        -1        -1        -1 >    8.3971   -0.4230    1.1508   -7.3876  -54.0466   -0.0540   18.7150 312.64 307.7 143.8  9     0.0000
cosa   S    Z    I P      ? 20090714 1655      5.34 GAU       0.1        -1        -1        -1 >    5.4684    0.4957    1.0075   -3.5414  -32.5734   -0.3756   22.9503  14.81  20.4 140.8  9     0.0000
cosa   S    N    E S      ? 20090714 1655      9.34 GAU       0.1        -1        -1        -1 >    9.1869    0.7772    0.7817   -3.5414  -32.5734   -0.3756   22.9503  14.81  20.4 140.8  9     0.0000
labe   S    Z    I S      ? 20090714 1655      9.18 GAU       0.1        -1        -1        -1 >    9.5467    0.2573    1.0565   14.0967  -26.8503   -1.5878   23.7189  61.60  70.2 132.5  9     0.0000
eoro   S    N    I S      ? 20090714 1655       9.7 GAU       0.1        -1        -1        -1 >   10.2761    0.0480    0.7127   -0.3007  -23.9806   -0.2316   28.6835  30.88  38.1 129.1  9     0.0000
pocr   S    E    I S      ? 20090714 1655     10.72 GAU       0.1        -1        -1        -1 >   12.4474   -1.1033    0.9805   -7.0189  -18.3619   -0.0950   36.7044  24.67  33.8 123.8  9     0.0000
whym   S    N    I S      ? 20090714 1655      12.7 GAU       0.1        -1        -1        -1 >   12.6228    0.7012    1.0928   10.6125  -11.7501   -0.9047   38.6124  53.48  60.0 119.1  9     0.0000
gova   S    E    E S      ? 20090714 1655     12.87 GAU       0.1        -1        -1        -1 >   14.0599   -0.5658    1.2009   34.5716  -16.1186   -0.8120   41.5933  88.59  91.4 112.0  9     0.0000
END_PHASE
END_NLLOC

