NLLOC "./3D_reloc_nonlin_latlon_calum_lfe_loc/3D_reloc_nonlin_latlon_calum_lfe.20090714.082719.grid0" "LOCATED" "Location completed."
SIGNATURE "C. Boese VUW   NLLoc:v6.00.0 17May2015 09h58m43"
COMMENT "2008-2009 SAMBA"
GRID  50 90 26  -30 -95 -2  2 2 2 PROB_DENSITY
SEARCH OCTREE nInitial 19200 nEvaluated 20008 smallestNodeSide 0.153125/0.278125/0.270833 oct_tree_integral 4.096192e+00 scatter_volume 4.091036e+00
HYPOCENTER  x 24.1297 y -43.1297 z 29.0104  OT 13.1553  ix -1 iy -1 iz -1
GEOGRAPHIC  OT 2009 07 14  08 27   13.1553  Lat -43.70565089 Long 170.15416844 Depth 29.010417 
QUALITY  Pmax 3.55765e-116 MFmin 6.65621 MFmax 7.50455 RMS 0.854466 Nphs 12 Gap 229.759 Dist 19.1228 Mamp  -9.9 0 Mdur  -9.9 0
VPVSRATIO  VpVsRatio 0.635261  Npair 4  Diff 1.78
STATISTICS  ExpectX 24.1722 Y -43.1021 Z 28.8844  CovXX 0.32618 XY -0.163515 XZ -0.156631 YY 0.390282 YZ 0.0672216 ZZ 0.842902 EllAz1  53.8627 Dip1  7.47915 Len1  0.800032 Az2  326.71 Dip2  -20.7271 Len2  1.28424 Len3  1.793103e+00
STAT_GEOG  ExpectLat -43.7058 Long 170.155 Depth 28.8844
TRANSFORM  SIMPLE LatOrig -43.301800  LongOrig 170.412000  RotCW -54.000000
QML_OriginQuality  assocPhCt 12  usedPhCt 12  assocStaCt -1  usedStaCt 8  depthPhCt -1  stdErr 0.854466  azGap 229.759  secAzGap 255.236  gtLevel -  minDist 19.1228 maxDist 39.7954 medDist 30.3285
QML_OriginUncertainty  horUnc -1  minHorUnc 0.663844  maxHorUnc 1.09871  azMaxHorUnc 140.545
FOCALMECH  Hyp  -43.7057 170.154 29.0104 Mech  0 0 0 mf  0 nObs 0
PHASE ID Ins Cmp On Pha  FM Date     HrMn   Sec     Err  ErrMag    Coda      Amp       Per  >   TTpred    Res       Weight    StaLoc(X  Y         Z)        SDist    SAzim  RAz  RDip RQual    Tcorr 
labe   S    Z    I P      ? 20090714 0827     19.87 GAU       0.1        -1        -1        -1 >    6.0614    0.6533    1.0726   14.0967  -26.8503   -1.5878   19.1228  22.35  20.0 147.6  9     0.0000
labe   S    N    E S      ? 20090714 0827     24.52 GAU       0.1        -1        -1        -1 >   10.1832    1.1815    1.0179   14.0967  -26.8503   -1.5878   19.1228  22.35  20.0 147.6  9     0.0000
mtfo   S    Z    I P      ? 20090714 0827     19.76 GAU       0.1        -1        -1        -1 >    6.4107    0.1940    1.1029   -0.4173  -40.3886   -1.2140   24.6996 330.37 335.3 144.1  9     0.0000
mtfo   S    N    I S      ? 20090714 0827     24.26 GAU       0.1        -1        -1        -1 >   10.7699    0.3348    0.8959   -0.4173  -40.3886   -1.2140   24.6996 330.37 335.3 144.1  9     0.0000
gova   S    Z    I P      ? 20090714 0827     21.01 GAU       0.1        -1        -1        -1 >    7.2391    0.6156    1.1604   34.5716  -16.1186   -0.8120   28.9592  75.14  77.6 132.3  9     0.0000
gova   S    N    I S      ? 20090714 0827     24.07 GAU       0.1        -1        -1        -1 >   12.1618   -1.2471    1.1570   34.5716  -16.1186   -0.8120   28.9592  75.14  77.6 132.3  9     0.0000
cosa   S    E    I S      ? 20090714 0827     25.04 GAU       0.1        -1        -1        -1 >   11.4888    0.3959    0.7531   -3.5414  -32.5734   -0.3756   29.6163 344.88 345.6 138.8  9     0.0000
eoro   S    E    I P      ? 20090714 0827     20.64 GAU       0.1        -1        -1        -1 >    6.9400    0.5447    1.0475   -0.3007  -23.9806   -0.2316   31.0408   2.09   2.1 137.8  9     0.0000
eoro   S    E    I S      ? 20090714 0827     25.48 GAU       0.1        -1        -1        -1 >   11.6592    0.6655    0.6866   -0.3007  -23.9806   -0.2316   31.0408   2.09   2.1 137.8  9     0.0000
FOZ    H    E    I S      ? 20090714 0827     23.97 GAU       0.1        -1        -1        -1 >   12.3004   -1.4857    1.1087   -7.3876  -54.0466   -0.0540   33.3544 304.90 302.3 131.5  9     0.0000
whym   S    N    I S      ? 20090714 0827     24.56 GAU       0.1        -1        -1        -1 >   12.5054   -1.1007    1.0528   10.6125  -11.7501   -0.9047   34.1671  30.70  32.0 129.0  9     0.0000
pocr   S    N    I S      ? 20090714 0827      26.7 GAU       0.1        -1        -1        -1 >   13.7654   -0.2207    0.9446   -7.0189  -18.3619   -0.0950   39.7954   2.49   2.3 128.0  9     0.0000
END_PHASE
END_NLLOC

