NLLOC "./3D_reloc_nonlin_latlon_calum_lfe_loc/3D_reloc_nonlin_latlon_calum_lfe.20130820.010007.grid0" "LOCATED" "Location completed."
SIGNATURE "C. Boese VUW   NLLoc:v6.00.0 17May2015 09h58m43"
COMMENT "2008-2009 SAMBA"
GRID  50 90 26  -30 -95 -2  2 2 2 PROB_DENSITY
SEARCH OCTREE nInitial 19200 nEvaluated 20000 smallestNodeSide 0.153125/0.278125/0.270833 oct_tree_integral 4.363891e+00 scatter_volume 4.354623e+00
HYPOCENTER  x 4.22344 y -39.7922 z 29.2812  OT 2.5247  ix -1 iy -1 iz -1
GEOGRAPHIC  OT 2013 08 20  01 00    2.5247  Lat -43.54305484 Long 170.04311238 Depth 29.281250 
QUALITY  Pmax 1.13671e-57 MFmin 4.88261 MFmax 6.17563 RMS 0.587722 Nphs 11 Gap 126.284 Dist 4.67893 Mamp  -9.9 0 Mdur  -9.9 0
VPVSRATIO  VpVsRatio 0.789871  Npair 4  Diff 0.84
STATISTICS  ExpectX 4.25931 Y -39.8964 Z 29.1564  CovXX 0.489127 XY -0.0624851 XZ -0.0672264 YY 0.248771 YZ 0.0322974 ZZ 0.805389 EllAz1  13.3062 Dip1  -1.59715 Len1  0.907044 Az2  282.94 Dip2  -12.898 Len2  1.31207 Len3  1.703976e+00
STAT_GEOG  ExpectLat -43.5439 Long 170.042 Depth 29.1564
TRANSFORM  SIMPLE LatOrig -43.301800  LongOrig 170.412000  RotCW -54.000000
QML_OriginQuality  assocPhCt 11  usedPhCt 11  assocStaCt -1  usedStaCt 7  depthPhCt -1  stdErr 0.587722  azGap 126.284  secAzGap 126.284  gtLevel -  minDist 4.67893 maxDist 28.7607 medDist 18.3849
QML_OriginUncertainty  horUnc -1  minHorUnc 0.732833  maxHorUnc 1.07709  azMaxHorUnc 103.736
FOCALMECH  Hyp  -43.5431 170.043 29.2812 Mech  0 0 0 mf  0 nObs 0
PHASE ID Ins Cmp On Pha  FM Date     HrMn   Sec     Err  ErrMag    Coda      Amp       Per  >   TTpred    Res       Weight    StaLoc(X  Y         Z)        SDist    SAzim  RAz  RDip RQual    Tcorr 
mtfo   S    Z    I P      ? 20130820 0100      8.66 GAU       0.1        -1        -1        -1 >    5.2535    0.8818    1.0613   -0.4173  -40.3886   -1.2140    4.6789 316.68 319.2 169.1  9     0.0000
mtfo   S    E    I S      ? 20130820 0100     12.07 GAU       0.1        -1        -1        -1 >    8.8259    0.7194    1.0380   -0.4173  -40.3886   -1.2140    4.6789 316.68 319.2 169.1  9     0.0000
cova   S    Z    E P      ? 20130820 0100      7.11 GAU       0.1        -1        -1        -1 >    5.4175   -0.8322    1.0756    6.9975  -49.2319   -1.4760    9.8389 217.62 211.1 159.7  9     0.0000
cova   S    E    I S      ? 20130820 0100     11.36 GAU       0.1        -1        -1        -1 >    9.1014   -0.2661    1.0783    6.9975  -49.2319   -1.4760    9.8389 217.62 211.1 159.7  9     0.0000
labe   S    Z    E P      ? 20130820 0100      8.91 GAU       0.1        -1        -1        -1 >    5.9460    0.4393    1.2620   14.0967  -26.8503   -1.5878   16.2781  91.34  93.8 149.4  9     0.0000
labe   S    E    I S      ? 20130820 0100     12.71 GAU       0.1        -1        -1        -1 >    9.9893    0.1960    1.2396   14.0967  -26.8503   -1.5878   16.2781  91.34  93.8 149.4  9     0.0000
FOZ    S    Z    E P      ? 20130820 0100      8.41 GAU       0.1        -1        -1        -1 >    5.9872   -0.1019    1.1614   -7.3876  -54.0466   -0.0540   18.3849 273.16 266.2 146.9  9     0.0000
FOZ    S    E    I S      ? 20130820 0100     12.56 GAU       0.1        -1        -1        -1 >   10.0585   -0.0232    1.1625   -7.3876  -54.0466   -0.0540   18.3849 273.16 266.2 146.9  9     0.0000
fran   S    2    I S      ? 20130820 0100     11.72 GAU       0.1        -1        -1        -1 >   10.3356   -1.1403    0.9313   -4.9003  -21.5517   -0.0310   20.3950  27.43  30.7 145.0  9     0.0000
pocr   S    2    I S      ? 20130820 0100      13.6 GAU       0.1        -1        -1        -1 >   11.1249   -0.0496    0.9718   -7.0189  -18.3619   -0.0950   24.2001  26.32  31.3 139.7  9     0.0000
whym   S    E    E S      ? 20130820 0100     11.92 GAU         1        -1        -1        -1 >   11.7272   -2.3319    0.0182   10.6125  -11.7501   -0.9047   28.7607  66.84  71.3 133.1  9     0.0000
END_PHASE
END_NLLOC

