 2013  9 1 2040 51.8 L -43.302 170.533 10.6  VUW 13 0.2 1.0LVUW                1
 GAP=131        0.56       1.6     2.1  2.5 -0.2130E+01  0.1129E+01 -0.1151E+01E
 ACTION:NEW 15- 8-12 16:30 OP:CALU STATUS:               ID:20130901204054     I
 2013-09-01-2040-11.DFDPC_039_00                                               6
 STAT SP IPHASW D HRMM SECON CODA AMPLIT PERI AZIMU VELO AIN AR TRES W  DIS CAZ7
 WZ16 EZ  IAML    2040 54.96         7.1 0.08                             5 179 
 WZ16 EN IS       2040 55.11                             147    0.1010    5 179 
 WZ02 EZ IP       2040 53.91                             144    0.1310    6 218 
 WZ02 EE IS       2040 54.91                             144   -0.2110    6 218 
 WZ02 EZ  IAML    2040 55.48         2.2 0.16                             6 218 
 WV02 SZ IP   2   2040 54.30                             132    0.14 5    9 282 
 WV02 SZ  IAML    2040 58.18        12.6 0.28                             9 282 
 WZ11 HZ IP       2040 54.39                             131    0.2210   10 274 
 WZ11 HZ  IAML    2040 58.80        16.5 0.58                            10 274 
 WZ20 EZ IP       2040 54.40                             134    0.0910   10  11 
 WZ20 EZ  IAML    2040 58.28         1.6 0.18                            10  11 
 WV03 SZ IP   2   2040 54.45                             130    0.23 5   10 275 
 WV03 SZ  IAML    2041  0.60        11.10.384                            10 275 
 WZ10 HN IS       2040 56.15                             126   -0.0910   12 355 
 WZ10 HZ  IAML    2040 59.37        17.5 0.62                            12 355 
 GCSZ SZ IP       2040 55.41                             117    0.2410   16 265 
 GCSZ S2 IS       2040 57.38                             117   -0.0710   16 265 
 GCSZ EZ  IAML    2040 57.55         1.5  0.1                            16 265 
 WHYM SZ IP   2   2040 56.01                             114    0.25 5   20 220 
 WHYM SN IS   2   2040 58.48                             114    0.03 5   20 220 
 WHYM SZ  IAML    2040 58.89         4.0 0.14                            20 220 
 WZ14 EZ IP       2040 57.86                             106    0.2210   31  48 
 WZ14 EE IS       2041  1.21                             106   -0.4010   31  48 
 WZ14 EZ  IAML    2041  1.53         0.7  0.2                            31  48 
 EORO SZ IP   1   2040 57.93                             103    0.19 7   32 245 
 EORO SZ  IAML    2041 15.42         1.2 0.32                            32 245 
 LABE SZ IP   3   2040 58.63                             103    0.28 2   35 221 
 LABE SN IS   2   2041  2.49                             103   -0.31 5   35 221 
 LABE SZ  IAML    2041  5.00        10.7  0.2                            35 221 
 MTFO SE IS       2041  6.06                              98   -0.4410   48 241 
 MTFO SZ  IAML    2041 12.91         3.4 0.57                            48 241 
                                                                                
