 2013  9 2 1958  0.7 L -43.337 170.378  9.1  VUW  8 0.2 0.7LVUW                1
 GAP= 85        0.48       1.3     1.8  3.3 -0.3960E+00  0.1555E+01  0.1793E+01E
 ACTION:NEW 15- 8-11 13:41 OP:CALU STATUS:               ID:20130902195802     I
 2013-09-02-1957-20.DFDPC_024_00                                               6
 STAT SP IPHASW D HRMM SECON CODA AMPLIT PERI AZIMU VELO AIN AR TRES W  DIS CAZ7
 GCSZ S1 IS       1958  3.32                             147   -0.0210    4 300 
 WV04 SZ IP       1958  2.15                             147   -0.1010    4  35 
 WV04 SZ  IAML    1958  4.42         8.3 0.32                             4  35 
 WV03 SZ IP       1958  2.28                             144   -0.0210    5  25 
 WV03 SZ  IAML    1958  5.57        12.80.224                             5  25 
 WZ02 EN IS       1958  3.90                             130   -0.1810    8  98 
 WZ02 EZ  IAML    1958  3.93         1.0  0.2                             8  98 
 WHYM SZ IP       1958  3.23                             124    0.0510   11 183 
 WHYM SZ  IAML    1958  5.05         3.1 0.24                            11 183 
 WHYM SN IS       1958  5.18                             124    0.3010   11 183 
 EORO SN IS       1958  6.77                             109   -0.1210   19 240 
 LABE SN IS       1958  8.44                             106   -0.2510   25 205 
 LABE SZ  IAML    1958 13.30         1.2 0.35                            25 205 
                                                                                
