 2013  9 8 0326 41.9 L -43.340 170.352  4.5  VUW 11 0.2 0.8LVUW                1
 GAP= 85        0.54       1.5     2.0  4.4 -0.1728E+01 -0.2792E+01  0.4330E+01E
 ACTION:NEW 15- 8-11 14: 9 OP:CALU STATUS:               ID:20130908032643     I
 2013-09-08-0326-01.DFDPC_033_00                                               6
 STAT SP IPHASW D HRMM SECON CODA AMPLIT PERI AZIMU VELO AIN AR TRES W  DIS CAZ7
 GCSZ SZ IP        326 42.83                             132    0.1310    3 322 
 GCSZ EZ  IAML     326 43.26         1.2 0.38                             3 322 
 GCSZ S1 IS        326 43.39                             132    0.1510    3 322 
 WV04 S2 IS   1    326 44.07                             115    0.07 7    6  49 
 WZ11 HE IS        326 44.06                             113   -0.0010    6  44 
 WV03 S2 IS   1    326 43.83                             114   -0.25 7    6  40 
 WV01 SZ IP   1    326 43.43                             112    0.13 7    7  28 
 WV01 SZ  IAML     326 43.74         4.70.264                             7  28 
 WHYM SZ IP        326 44.41                             108    0.4210   11 172 
 WHYM SZ  IAML     326 48.54         4.5 0.41                            11 172 
 EORO SN IS   1    326 46.92                             100   -0.28 7   17 237 
 LABE SE IS        326 48.93                             100   -0.3410   24 201 
                                                                                
