 2013  911 1826 19.8 L -43.326 170.402  5.7  VUW  9 0.2 1.8LVUW                1
 GAP=174        0.37       1.3     2.0  3.2  0.1363E+00  0.1662E+01  0.2226E+01E
 ACTION:NEW 15- 8-11 14:59 OP:CALU STATUS:               ID:20130911182621     I
 2013-09-11-1825-39.DFDPC_027_00                                               6
 STAT SP IPHASW D HRMM SECON CODA AMPLIT PERI AZIMU VELO AIN AR TRES W  DIS CAZ7
 WV04 SZ IP   1   1826 20.69                             146   -0.02 7    2  17 
 WV04 SZ  IAML    1826 21.74       188.70.064                             2  17 
 WZ11 HZ IP       1826 20.66                             141   -0.0910    3  11 
 WZ11 HE IS       1826 21.39                             141    0.0110    3  11 
 WZ11 HZ  IAML    1826 21.58        84.2 0.22                             3  11 
 GCSZ SZ IP       1826 21.07                             125   -0.0810    6 280 
 GCSZ S1 IS       1826 21.98                             125   -0.0810    6 280 
 GCSZ EZ  IAML    1826 22.42        10.7  0.1                             6 280 
 WZ04 HZ IP       1826 21.48                             116   -0.0310    8 316 
 WZ04 HZ  IAML    1826 22.68        84.0 0.22                             8 316 
 WZ04 HE IS       1826 22.85                             116    0.1910    8 316 
 WHYM SZ IP   2   1826 22.56                             111    0.27 5   13 191 
 WHYM SN IS   2   1826 24.38                             111    0.42 5   13 191 
 WHYM SZ  IAML    1826 25.83        23.1 0.11                            13 191 
 WZ07 HZ IP   4   1826 23.58                             103    0.54 0   17 351 
 WZ07 HZ  IAML    1826 34.40       201.1  1.2                            17 351 
 WZ08 HZ IP   4   1826 24.26                             101    0.63 0   21   3 
 WZ08 HZ  IAML    1826 33.47       143.3 1.36                            21   3 
 EORO SZ IP   3   1826 23.49                             101   -0.27 2   21 239 
 EORO SZ  IAML    1826 35.99         4.6 0.25                            21 239 
 LABE SZ IP   2   1826 24.82                             102    0.03 5   27 207 
 LABE SN IS   2   1826 27.87                             102   -0.30 5   27 207 
 LABE SZ  IAML    1826 30.37         8.4 0.31                            27 207 
                                                                                
