 2013  911 1205 27.0 L -43.336 170.382  7.5  VUW  6 0.1 1.8LVUW                1
 GAP=157        0.29       0.9     1.3  2.7 -0.2210E+00 -0.5874E+00  0.7982E+00E
 ACTION:NEW 15- 8-11 14:11 OP:CALU STATUS:               ID:20130911120528     I
 2013-09-11-1204-47.DFDPC_021_00                                               6
 STAT SP IPHASW D HRMM SECON CODA AMPLIT PERI AZIMU VELO AIN AR TRES W  DIS CAZ7
 GCSZ SZ IP       12 5 28.48                             141    0.0910    5 297 
 GCSZ S1 IS       12 5 29.35                             141    0.0110    5 297 
 GCSZ EZ  IAML    12 5 29.61        28.7 0.08                             5 297 
 WZ11 HZ IP       12 5 28.34                             140   -0.0310    5  27 
 WZ11 HZ  IAML    12 5 30.68        69.3 0.46                             5  27 
 WV03 SZ IP       12 5 28.33                             139   -0.0610    5  23 
 WV03 SZ  IAML    12 5 31.33        66.70.088                             5  23 
 WV02 SZ IP   1   12 5 28.57                             133    0.02 7    6  24 
 WV02 SZ  IAML    12 5 32.31        69.00.432                             6  24 
 WHYM SZ IP       12 5 29.44                             120    0.0610   11 184 
 WHYM SZ  IAML    12 5 30.92        40.5 0.15                            11 184 
 WHYM SE IS       12 5 30.97                             120   -0.0310   11 184 
 FRAN S3 IS       12 5 32.73                             108   -0.0510   18 255 
 FRAN S1  IAML    12 5 34.84         0.0 0.31                            18 255 
                                                                                
