 2013  911 2209 24.6 L -43.334 170.364  9.6  VUW  7 0.1 1.8LVUW                1
 GAP=130        0.36       1.1     1.8  2.5 -0.7867E+00 -0.8352E-01  0.1205E+01E
 ACTION:NEW 15- 8-11 13:44 OP:CALU STATUS:               ID:20130911220926     I
 2013-09-11-2208-44.DFDPC_024_00                                               6
 STAT SP IPHASW D HRMM SECON CODA AMPLIT PERI AZIMU VELO AIN AR TRES W  DIS CAZ7
 GCSZ S1 IS       22 9 27.29                             156    0.0910    3 303 
 WV04 SZ IP       22 9 26.21                             146   -0.0410    5  47 
 WV04 SZ  IAML    22 9 27.75        66.6 0.08                             5  47 
 WZ11 HZ IP       22 9 26.26                             145   -0.0110    5  42 
 WZ11 HZ  IAML    22 9 29.34        84.4 0.42                             5  42 
 WV03 SZ IP       22 9 26.26                             145   -0.0210    5  37 
 WV03 SZ  IAML    22 9 28.64        43.90.288                             5  37 
 WHYM SZ IP       22 9 27.36                             125    0.1910   11 177 
 WHYM SN IS       22 9 28.96                             125    0.0110   11 177 
 WHYM SZ  IAML    22 9 29.15        56.6 0.11                            11 177 
 EORO SZ IP       22 9 28.30                             111    0.1310   18 237 
 EORO SN IS       22 9 30.61                             111   -0.0210   18 237 
 EORO SZ  IAML    22 9 30.97        15.4 0.09                            18 237 
 LABE SN IS       22 9 32.44                             108   -0.1710   25 202 
 LABE SZ  IAML    22 9 32.68        11.9 0.25                            25 202 
                                                                                
