 2013  911 2209 25.0 L -43.350 170.388  7.3  VUW  9 0.2 1.7LVUW                1
 GAP=171        0.41       1.1     2.8  4.2 -0.4886E+00 -0.3437E+01  0.2383E+01E
 ACTION:NEW 15- 8-11 15:28 OP:CALU STATUS:               ID:20130911220926     I
 2013-09-11-2208-45.DFDPC_030_00                                               6
 STAT SP IPHASW D HRMM SECON CODA AMPLIT PERI AZIMU VELO AIN AR TRES W  DIS CAZ7
 WZ21 HZ IP       22 9 26.90                                                    
 WZ11 HZ IP       22 9 26.27                             133   -0.1810    6  17 
 WZ11 HZ  IAML    22 9 29.34        88.6 0.42                             6  17 
 GCSZ SZ IP       22 9 26.39                             134   -0.0810    6 307 
 GCSZ S2 IS       22 9 27.37                             134   -0.1310    6 307 
 GCSZ EZ  IAML    22 9 27.54        33.0 0.08                             6 307 
 WV02 SZ IP   2   22 9 26.49                             127   -0.16 5    7  16 
 WV02 SZ  IAML    22 9 28.96        38.6 0.08                             7  16 
 WZ04 HZ IP       22 9 27.07                             120    0.0610   10 332 
 WZ04 HZ  IAML    22 9 28.48        83.2 0.58                            10 332 
 WZ04 HE IS       22 9 28.65                             120    0.2410   10 332 
 WHYM SZ IP   1   22 9 27.35                             123    0.25 7   10 187 
 WHYM SN IS   2   22 9 28.83                             123    0.27 5   10 187 
 WHYM SZ  IAML    22 9 29.15        56.3 0.11                            10 187 
 FRAN S2 IS   2   22 9 30.66                             107   -0.11 5   18 260 
 FRAN S1  IAML    22 9 34.19         0.0 0.17                            18 260 
 EORO SZ IP   2   22 9 28.51                             107   -0.06 5   19 244 
 EORO SZ  IAML    22 9 37.63         4.9 0.23                            19 244 
 LABE SZ IP   1   22 9 29.62                             106    0.12 7   24 208 
 LABE SE IS   1   22 9 32.39                             106   -0.19 7   24 208 
 LABE SZ  IAML    22 9 32.68        11.9 0.25                            24 208 
                                                                                
