 2013  911 2239  2.5 L -43.356 170.319  8.7  VUW  8 0.1 1.7LVUW                1
 GAP=110        0.35       1.1     3.2  2.8 -0.9093E+00  0.1683E+01  0.1477E+01E
 ACTION:NEW 15- 7-15  1:29 OP:CALU STATUS:               ID:20130911223904     I
 2013-09-11-2238-22.DFDPC_027_00                                               6
 STAT SP IPHASW D HRMM SECON CODA AMPLIT PERI AZIMU VELO AIN AR TRES W  DIS CAZ7
 WZ21 HZ IP       2239  4.86                                                    
 WZ21 HN IS       2239  6.21                                                    
 WZ21 HZ  IAML    2239  6.52         1.0 0.12                                   
 GCSZ SZ IP       2239  3.81                             148   -0.1610    4   8 
 GCSZ S2 IS       2239  4.91                             148   -0.0810    4   8 
 GCSZ EZ  IAML    2239  5.09        80.4 0.08                             4   8 
 WZ04 HZ IP       2239  4.63                             125    0.0610    9   5 
 WZ04 HE IS       2239  6.20                             125    0.2010    9   5 
 WZ04 HZ  IAML    2239  6.74        27.6  0.1                             9   5 
 WV03 SZ IP   1   2239  4.45                             124   -0.17 7    9  46 
 WV03 SZ  IAML    2239  9.24        63.20.208                             9  46 
 WHYM SZ IP   2   2239  4.84                             126    0.06 5   10 156 
 WHYM SE IS   2   2239  6.49                             126    0.14 5   10 156 
 WHYM SZ  IAML    2239  7.30        50.0 0.25                            10 156 
 FRAN S3 IS   3   2239  6.79                             117   -0.11 2   13 258 
 FRAN S1  IAML    2239  8.24         0.0 0.26                            13 258 
 EORO SZ IP   1   2239  5.23                             115   -0.09 7   14 237 
 EORO SZ  IAML    2239 10.40         5.9 0.32                            14 237 
 LABE SZ IP   1   2239  6.75                             108    0.11 7   22 196 
 LABE SN IS   2   2239  9.58                             108    0.11 5   22 196 
 LABE SZ  IAML    2239 10.02        11.2  0.1                            22 196 
                                                                                
