 2013  912 0314 58.0 L -43.326 170.409  5.5  VUW  8 0.2 1.2LVUW                1
 GAP=187        0.49       1.7     2.8  4.3  0.4067E+00  0.3560E+01  0.4226E+01E
 ACTION:NEW 15- 8-11 15: 2 OP:CALU STATUS:               ID:20130912031459     I
 2013-09-12-0314-18.DFDPC_024_00                                               6
 STAT SP IPHASW D HRMM SECON CODA AMPLIT PERI AZIMU VELO AIN AR TRES W  DIS CAZ7
 WZ11 HE IS        314 59.53                             140    0.0310    3   2 
 GCSZ S1 IS        315  0.13                             121   -0.1910    6 280 
 WHYM SZ IP   2    315  0.55                             110    0.11 5   13 193 
 WHYM SZ  IAML     315  4.66        16.1 0.15                            13 193 
 WZ07 HZ IP   4    315  1.97                             102    0.75 0   17 349 
 WZ07 HZ  IAML     315 12.66        92.2 1.14                            17 349 
 EORO SZ IP   3    315  1.90                             100   -0.09 2   22 240 
 EORO SZ  IAML     315 13.83         4.8 0.32                            22 240 
                                                                                
