 2013  915 0931  8.3 L -43.360 170.327  7.0  VUW  8 0.2 0.7LVUW                1
 GAP=117        0.39       1.1     3.4  3.4 -0.8760E+00  0.1480E+01  0.1734E+01E
 ACTION:NEW 15- 7-15  1:31 OP:CALU STATUS:               ID:20130915093109     I
 2013-09-15-0930-28.DFDPC_027_00                                               6
 STAT SP IPHASW D HRMM SECON CODA AMPLIT PERI AZIMU VELO AIN AR TRES W  DIS CAZ7
 WZ21 HZ IP        931 10.32                                                    
 WZ21 HN IS        931 11.93                                                    
 WZ21 HZ  IAML     931 12.30         1.0 1.06                                   
 GCSZ SZ IP        931  9.39                             139   -0.2110    4   0 
 GCSZ S2 IS        931 10.48                             139   -0.0110    4   0 
 GCSZ EZ  IAML     931 10.65         1.1 0.08                             4   0 
 WV03 SZ IP   1    931 10.10                             119   -0.17 7    9  41 
 WV03 SZ  IAML     931 14.28        17.20.368                             9  41 
 WZ04 HE IS        931 11.88                             119    0.2110   10   1 
 FRAN S3 IS   3    931 12.25                             112   -0.40 2   13 261 
 LABE SN IS   2    931 15.17                             108    0.11 5   21 198 
                                                                                
