 2013  915 2026 57.9 L -43.338 170.372  8.6  VUW  8 0.2 0.8LVUW                1
 GAP= 86        0.57       1.5     2.0  4.0 -0.6049E+00  0.1575E+01  0.2706E+01E
 ACTION:NEW 15- 8-11 13:46 OP:CALU STATUS:               ID:20130915202659     I
 2013-09-15-2026-17.DFDPC_024_00                                               6
 STAT SP IPHASW D HRMM SECON CODA AMPLIT PERI AZIMU VELO AIN AR TRES W  DIS CAZ7
 GCSZ S1 IS       2027  0.48                             148    0.0910    4 304 
 WV03 SZ IP       2026 59.70                             140    0.2010    5  30 
 WV03 SZ  IAML    2027  1.58        17.10.232                             5  30 
 WZ02 EN IS       2027  1.06                             126   -0.2810    9  97 
 WZ02 EZ  IAML    2027  2.82         1.7 0.24                             9  97 
 EORO SZ IP       2027  1.53                             107    0.0310   19 239 
 EORO SZ  IAML    2027  4.74         1.5 0.28                            19 239 
 LABE SZ  IAML    2027  5.53         3.2 0.51                            25 204 
 LABE SN IS       2027  5.61                             105   -0.2010   25 204 
                                                                                
