 2013  916 0318 24.9 L -43.355 170.324  9.8  VUW  6 0.1 1.4LVUW                1
 GAP=104        0.33       1.2     1.7  4.0  0.3975E+00 -0.6605E+00  0.1110E+01E
 ACTION:NEW 15- 7-15  1:49 OP:CALU STATUS:               ID:20130916031827     I
 2013-09-16-0317-44.DFDPC_021_00                                               6
 STAT SP IPHASW D HRMM SECON CODA AMPLIT PERI AZIMU VELO AIN AR TRES W  DIS CAZ7
 WZ04 HZ IP        318 27.13                             130    0.0110    9   2 
 WZ04 HN IS        318 28.70                             130    0.0910    9   2 
 WZ04 HZ  IAML     318 29.67        15.2  0.2                             9   2 
 WZ11 HZ IP        318 27.02                             130   -0.1010    9  47 
 WZ11 HZ  IAML     318 32.75        27.7 0.36                             9  47 
 WHYM SZ IP   1    318 27.46                             130    0.12 7   10 158 
 WHYM SN IS   2    318 29.07                             130    0.09 5   10 158 
 WHYM SZ  IAML     318 29.37        18.4 0.21                            10 158 
 WV02 SZ IP   2    318 27.26                             126   -0.04 5   10  43 
 WV02 SZ  IAML     318 31.44        20.10.264                            10  43 
 WZ02 EZ IP        318 27.73                             121    0.1010   13  87 
 WZ02 EN IS        318 29.38                             121   -0.1010   13  87 
 WZ02 EZ  IAML     318 29.66         5.4  0.1                            13  87 
 FRAN S2 IS   2    318 29.34                             120   -0.26 5   13 258 
 FRAN S1  IAML     318 30.83         0.0 0.15                            13 258 
                                                                                
