 2013  916 2354 43.4 L -43.356 170.323 10.4  VUW  6 0.1 1.2LVUW                1
 GAP=104        0.37       1.4     2.0  4.3  0.5346E+00 -0.7411E+00  0.1263E+01E
 ACTION:NEW 15- 7-15  1:49 OP:CALU STATUS:               ID:20130916235445     I
 2013-09-16-2354-03.DFDPC_021_00                                               6
 STAT SP IPHASW D HRMM SECON CODA AMPLIT PERI AZIMU VELO AIN AR TRES W  DIS CAZ7
 WZ11 HZ IP       2354 45.61                             132   -0.1110    9  47 
 WZ11 HZ  IAML    2354 50.93        30.1 0.66                             9  47 
 WHYM SZ IP   1   2354 46.05                             132    0.15 7   10 158 
 WHYM SN IS   2   2354 47.66                             132    0.07 5   10 158 
 WHYM SZ  IAML    2354 48.07         4.3  0.2                            10 158 
 WV02 SZ IP   2   2354 46.09                             128    0.20 5   10  43 
 WV02 SZ  IAML    2354 50.96        13.7 0.28                            10  43 
 WZ02 EN IS       2354 47.96                             123   -0.1410   13  87 
 FRAN S2 IS   2   2354 47.93                             122   -0.26 5   13 258 
 FRAN S1  IAML    2354 50.31         0.0 0.15                            13 258 
                                                                                
