 2013  916 2041 14.9 L -43.355 170.324  9.9  VUW  6 0.1 1.2LVUW                1
 GAP=104        0.34       1.3     1.8  4.1  0.4282E+00 -0.6819E+00  0.1168E+01E
 ACTION:NEW 15- 7-15  1:49 OP:CALU STATUS:               ID:20130916204117     I
 2013-09-16-2040-34.DFDPC_021_00                                               6
 STAT SP IPHASW D HRMM SECON CODA AMPLIT PERI AZIMU VELO AIN AR TRES W  DIS CAZ7
 WZ04 HZ IP       2041 17.16                             131    0.0210    9   2 
 WZ04 HN IS       2041 18.74                             131    0.0910    9   2 
 WZ04 HZ  IAML    2041 19.20        21.3 0.44                             9   2 
 WHYM SZ IP   1   2041 17.48                             131    0.12 7   10 158 
 WHYM SN IS   2   2041 19.09                             131    0.07 5   10 158 
 WHYM SZ  IAML    2041 19.49         4.6 0.23                            10 158 
 WV02 SZ IP   2   2041 17.18                             127   -0.14 5   10  43 
 WV02 SZ  IAML    2041 21.36        15.5 0.52                            10  43 
 WZ02 EN IS       2041 19.41                             122   -0.1010   13  87 
 FRAN S2 IS   2   2041 19.37                             120   -0.26 5   13 258 
 FRAN S1  IAML    2041 22.66         0.0 0.22                            13 258 
                                                                                
