 2013  916 2041 15.2 L -43.347 170.325  7.9  VUW  6 0.1 1.1LVUW                1
 GAP=107        0.31       1.0     1.4  4.2 -0.3053E+00  0.1646E+01 -0.1033E+01E
 ACTION:NEW 15- 7-15  2:49 OP:CALU STATUS:               ID:20130916204117     I
 2013-09-16-2040-35.DFDPC_021_00                                               6
 STAT SP IPHASW D HRMM SECON CODA AMPLIT PERI AZIMU VELO AIN AR TRES W  DIS CAZ7
 WZ04 HZ IP       2041 17.15                             127    0.0810    8   2 
 WZ04 HZ  IAML    2041 19.20        21.4 0.44                             8   2 
 WV02 SZ IP   2   2041 17.11                             122   -0.18 5   10  46 
 WV02 SZ  IAML    2041 20.54        17.0 0.28                            10  46 
 WHYM SN IS       2041 19.13                             123    0.0110   11 160 
 WZ02 EN IS       2041 19.41                             117   -0.0510   12  91 
 FRAN S2 IS   2   2041 19.41                             115   -0.31 5   13 254 
 FRAN S1  IAML    2041 22.66         0.0 0.22                            13 254 
 LABE SE IS   2   2041 22.45                             109    0.02 5   23 196 
                                                                                
