 2013  916 2354 43.7 L -43.344 170.316  6.7  VUW  5 0.1 0.7LVUW                1
 GAP=166        0.30       2.1     1.6  8.3 -0.1617E+01  0.4107E+01 -0.6868E+01E
 ACTION:NEW 15- 7-15  2:38 OP:CALU STATUS:               ID:20130916235445     I
 2013-09-16-2354-03.DFDPC_018_00                                               6
 STAT SP IPHASW D HRMM SECON CODA AMPLIT PERI AZIMU VELO AIN AR TRES W  DIS CAZ7
 WV04 SZ IP   1   2354 45.61                             120    0.04 7    9  59 
 WV04 SZ  IAML    2354 50.00         8.90.272                             9  59 
 WHYM SZ IP   1   2354 46.05                             117    0.02 7   11 157 
 WHYM SN IS   2   2354 47.65                             117    0.05 5   11 157 
 WHYM SZ  IAML    2354 48.07         4.3  0.2                            11 157 
 FRAN S2 IS   2   2354 47.96                             112    0.02 5   13 252 
 FRAN S1  IAML    2354 50.31         0.0 0.15                            13 252 
 WZ02 EN IS       2354 47.97                             111   -0.0710   13  92 
 EORO SZ IP   2   2354 46.37                             110   -0.16 5   15 232 
 EORO SZ  IAML    2354 55.26         2.8 0.38                            15 232 
                                                                                
