 2013  917 1350 46.2 L -43.349 170.323  7.4  VUW  7 0.1 0.8LVUW                1
 GAP=108        0.31       0.8     1.3  3.3 -0.6770E-01  0.1879E+00  0.7904E-01E
 ACTION:NEW 15- 7-15  2:50 OP:CALU STATUS:               ID:20130917135047     I
 2013-09-17-1350-06.DFDPC_024_00                                               6
 STAT SP IPHASW D HRMM SECON CODA AMPLIT PERI AZIMU VELO AIN AR TRES W  DIS CAZ7
 GCSZ SZ IP       1350 47.37                             148   -0.0910    3   5 
 GCSZ S2 IS   3   1350 48.41                             148    0.10 2    3   5 
 GCSZ EZ  IAML    1350 48.59         2.9 0.08                             3   5 
 WZ04 HZ IP       1350 48.18                             124    0.0910    8   3 
 WZ04 HN IS   3   1350 49.74                             124    0.38 2    8   3 
 WZ04 HZ  IAML    1350 49.99        14.9 0.78                             8   3 
 WHYM SN IS       1350 50.03                             121    0.0010   11 159 
 FRAN S2 IS   2   1350 50.44                             113   -0.18 5   13 255 
 FRAN S1  IAML    1350 50.63         0.0  0.3                            13 255 
 LABE SE IS   2   1350 53.49                             108    0.16 5   22 196 
                                                                                
