 2013  918 2120 53.0 L -43.351 170.388  6.8  VUW  9 0.2 1.3LVUW                1
 GAP=100        0.40       1.2     1.4  3.7  0.3469E+00  0.1194E+01  0.2026E+01E
 ACTION:NEW 15- 7-15  2:10 OP:CALU STATUS:               ID:20130918212054     I
 2013-09-18-2120-13.DFDPC_027_00                                               6
 STAT SP IPHASW D HRMM SECON CODA AMPLIT PERI AZIMU VELO AIN AR TRES W  DIS CAZ7
 GCSZ SZ IP   3   2120 54.37                             130   -0.05 2    6 308 
 GCSZ S2 IS       2120 55.36                             130   -0.0610    6 308 
 GCSZ EZ  IAML    2120 55.49        11.3 0.08                             6 308 
 WZ11 HZ IP       2120 54.23                             129   -0.1810    6  16 
 WZ11 HZ  IAML    2120 56.22        14.9  0.2                             6  16 
 WV03 SZ IP   1   2120 54.21                             129   -0.24 7    6  13 
 WV03 SZ  IAML    2120 58.22        20.90.208                             6  13 
 WZ02 EZ IP       2120 54.69                             125    0.0610    7  88 
 WZ02 EN IS       2120 55.74                             125   -0.0210    7  88 
 WZ02 EZ  IAML    2120 56.08         3.3  0.1                             7  88 
 WHYM SZ IP   1   2120 55.31                             121    0.28 7   10 188 
 WHYM SN IS   3   2120 56.90                             121    0.46 2   10 188 
 WHYM SZ  IAML    2120 57.11        12.4 0.12                            10 188 
 WZ04 HZ IP       2120 55.04                             117    0.0510   10 332 
 WZ04 HZ  IAML    2120 56.44        31.8 0.52                            10 332 
 WZ04 HE IS       2120 56.61                             117    0.2410   10 332 
 EORO SZ IP   1   2120 56.48                             105   -0.06 7   19 245 
 EORO SN IS   2   2120 58.57                             105   -0.40 5   19 245 
 EORO SZ  IAML    2120 58.94         3.9 0.08                            19 245 
 WZ08 HZ IP   4   2120 58.06                             102    0.74 0   24   5 
 WZ08 HZ  IAML    2121 12.94        56.1 0.88                            24   5 
 LABE SZ IP   2   2120 57.60                             105    0.15 5   24 208 
 LABE SE IS   2   2121  0.37                             105   -0.14 5   24 208 
 LABE SZ  IAML    2121  0.68         3.0 0.16                            24 208 
                                                                                
