 2013  918 2350  7.7 L -43.346 170.318  7.6  VUW  6 0.1 0.8LVUW                1
 GAP=118        0.26       1.4     1.3  2.3 -0.3118E+00 -0.8208E+00  0.1941E+01E
 ACTION:NEW 15- 7-15  2:41 OP:CALU STATUS:               ID:20130918235009     I
 2013-09-18-2349-27.DFDPC_021_00                                               6
 STAT SP IPHASW D HRMM SECON CODA AMPLIT PERI AZIMU VELO AIN AR TRES W  DIS CAZ7
 GCSZ SZ IP       2350  8.93                             151    0.0210    3  12 
 GCSZ S2 IS       2350  9.75                             151   -0.0010    3  12 
 GCSZ EZ  IAML    2350 10.17         8.7 0.08                             3  12 
 WV04 SZ IP   1   2350  9.61                             124    0.02 7    9  57 
 WV04 SZ  IAML    2350 13.07        10.10.216                             9  57 
 WHYM SZ IP   1   2350 10.06                             121    0.05 7   11 158 
 WHYM SN IS   2   2350 11.66                             121    0.05 5   11 158 
 WHYM SZ  IAML    2350 11.95         6.9 0.24                            11 158 
 FRAN S2 IS   2   2350 11.97                             115   -0.04 5   13 253 
 FRAN S1  IAML    2350 12.70         0.0 0.29                            13 253 
 WZ02 EZ IP       2350 10.29                             115    0.0310   13  91 
 WZ02 EN IS       2350 11.98                             115   -0.0610   13  91 
 WZ02 EZ  IAML    2350 12.26         1.8  0.1                            13  91 
 EORO SZ IP   2   2350 10.39                             113   -0.13 5   15 233 
 EORO SZ  IAML    2350 16.10         2.3 0.32                            15 233 
                                                                                
