 2013  918 2120 52.5 L -43.336 170.374  9.1  VUW  8 0.1 1.2LVUW                1
 GAP= 89        0.43       1.2     1.6  3.0 -0.3672E+00  0.1055E+01  0.1489E+01E
 ACTION:NEW 15- 8-11 13:49 OP:CALU STATUS:               ID:20130918212054     I
 2013-09-18-2120-12.DFDPC_024_00                                               6
 STAT SP IPHASW D HRMM SECON CODA AMPLIT PERI AZIMU VELO AIN AR TRES W  DIS CAZ7
 GCSZ SZ IP       2120 53.93                             149   -0.1710    4 300 
 GCSZ S1 IS       2120 55.24                             149    0.0810    4 300 
 GCSZ EZ  IAML    2120 55.49        11.2 0.08                             4 300 
 WV04 SZ IP       2120 54.16                             146    0.0310    5  39 
 WV04 SZ  IAML    2120 55.76        29.6 0.16                             5  39 
 WZ11 HZ IP       2120 54.21                             144    0.0610    5  33 
 WZ11 HZ  IAML    2120 56.32        16.9  0.2                             5  33 
 WV03 SZ IP       2120 54.21                             144    0.0410    5  29 
 WV03 SZ  IAML    2120 56.38        19.60.264                             5  29 
 WZ02 EN IS       2120 55.82                             129   -0.2110    9  99 
 WZ02 EZ  IAML    2120 56.08         3.4  0.1                             9  99 
 WHYM SZ IP       2120 55.32                             124    0.2610   11 181 
 WHYM SN IS       2120 56.91                             124    0.1310   11 181 
 WHYM SZ  IAML    2120 57.11        12.5 0.12                            11 181 
 EORO SZ IP       2120 56.25                             109    0.0510   19 239 
 EORO SN IS       2120 58.57                             109   -0.1210   19 239 
 EORO SZ  IAML    2120 58.94         3.9 0.08                            19 239 
 LABE SN IS       2121  0.40                             106   -0.1510   25 204 
 LABE SZ  IAML    2121  0.68         2.9 0.16                            25 204 
                                                                                
