 2013  918 2350  7.5 L -43.355 170.324  9.8  VUW  6 0.1 0.8LVUW                1
 GAP=104        0.33       1.3     1.8  4.0  0.4036E+00 -0.6625E+00  0.1128E+01E
 ACTION:NEW 15- 7-15  1:52 OP:CALU STATUS:               ID:20130918235009     I
 2013-09-18-2349-27.DFDPC_021_00                                               6
 STAT SP IPHASW D HRMM SECON CODA AMPLIT PERI AZIMU VELO AIN AR TRES W  DIS CAZ7
 WZ04 HZ IP       2350  9.72                             130    0.0010    9   2 
 WZ04 HN IS       2350 11.30                             130    0.0910    9   2 
 WHYM SZ IP   1   2350 10.06                             130    0.12 7   10 158 
 WHYM SN IS   2   2350 11.67                             130    0.09 5   10 158 
 WHYM SZ  IAML    2350 11.95         6.6 0.24                            10 158 
 WV02 SZ IP   2   2350  9.86                             126   -0.04 5   10  43 
 WZ02 EZ IP       2350 10.33                             121    0.1010   13  87 
 WZ02 EN IS       2350 11.97                             121   -0.1110   13  87 
 WZ02 EZ  IAML    2350 12.26         1.7  0.1                            13  87 
 FRAN S2 IS   2   2350 11.94                             120   -0.27 5   13 258 
 FRAN S1  IAML    2350 12.70         0.0 0.29                            13 258 
                                                                                
