 2013  919 0926 59.1 L -43.352 170.386  5.9  VUW  9 0.2 1.1LVUW                1
 GAP=100        0.42       1.2     1.4  4.2  0.3328E+00  0.1208E+01  0.2259E+01E
 ACTION:NEW 15- 7-15  2:11 OP:CALU STATUS:               ID:20130919092700     I
 2013-09-19-0926-19.DFDPC_027_00                                               6
 STAT SP IPHASW D HRMM SECON CODA AMPLIT PERI AZIMU VELO AIN AR TRES W  DIS CAZ7
 GCSZ SZ IP   3    927  0.50                             126    0.00 2    6 310 
 GCSZ S2 IS        927  1.41                             126   -0.0110    6 310 
 GCSZ EZ  IAML     927  1.54         3.1 0.08                             6 310 
 WZ11 HZ IP        927  0.26                             124   -0.2510    6  17 
 WZ11 HZ  IAML     927  2.92        13.3 0.34                             6  17 
 WV03 SZ IP   1    927  0.49                             123   -0.06 7    6  14 
 WV03 SZ  IAML     927  2.94        13.1 0.24                             6  14 
 WZ02 EZ IP        927  0.89                             119    0.1510    7  87 
 WZ02 EN IS        927  1.75                             119   -0.0810    7  87 
 WZ02 EZ  IAML     927  2.36         1.5 0.14                             7  87 
 WHYM SN IS   3    927  2.92                             117    0.45 2   10 187 
 WZ04 HZ IP        927  1.08                             113   -0.0210   10 333 
 WZ04 HZ  IAML     927  3.48        18.1  0.5                            10 333 
 EORO SN IS   2    927  4.60                             103   -0.45 5   19 245 
 LABE SE IS   2    927  6.39                             104   -0.19 5   24 208 
                                                                                
