 2013  920 1728 18.4 L -43.330 170.501  8.6  VUW 19 0.3 1.5LVUW                1
 GAP= 84        0.66       1.6     1.9  2.2 -0.1303E+01  0.8578E+00 -0.6823E+00E
 ACTION:NEW 15- 8-11 13:58 OP:CALU STATUS:               ID:20130920172820     I
 2013-09-20-1727-38.DFDPC_057_00                                               6
 STAT SP IPHASW D HRMM SECON CODA AMPLIT PERI AZIMU VELO AIN AR TRES W  DIS CAZ7
 WZ02 EN IS       1728 20.34                             161   -0.3010    2 213 
 WV04 SZ IP   2   1728 20.42                             131    0.16 5    7 294 
 WV04 SZ  IAML    1728 23.08        11.10.248                             7 294 
 WZ11 HE IS       1728 21.66                             129    0.0610    8 297 
 WV03 SZ IP   3   1728 20.63                             128    0.26 2    8 298 
 WV03 SZ  IAML    1728 23.50        35.3 0.08                             8 298 
 WV02 SZ IP   3   1728 20.55                             128    0.17 2    8 306 
 WV02 SZ  IAML    1728 25.40        17.20.224                             8 306 
 WZ04 HZ IP   3   1728 21.69                             112    0.30 2   15 296 
 WZ04 HZ  IAML    1728 30.71        22.9 0.64                            15 296 
 WHYM SN IS       1728 23.44                             114   -0.2810   16 220 
 WZ08 HZ IP   4   1728 23.56                             103    0.97 0   22 342 
 WZ08 HZ  IAML    1728 32.69        66.2 1.04                            22 342 
 WZ09 HZ IP   4   1728 23.80                             102    0.95 0   24 356 
 WZ09 HZ  IAML    1728 36.09        83.2 1.12                            24 356 
 EORO SZ IP   1   1728 23.67                              99    0.03 7   28 248 
 EORO SZ  IAML    1728 28.68         1.8 0.23                            28 248 
 MTFO SN IS   2   1728 31.61                              94   -0.33 5   45 243 
                                                                                
