 2013  921 1512 14.4 L -43.347 170.321  7.7  VUW  7 0.1 1.0LVUW                1
 GAP=110        0.29       0.8     1.3  3.0 -0.6786E-01  0.1632E+00  0.1151E+00E
 ACTION:NEW 15- 7-15  2:56 OP:CALU STATUS:               ID:20130921151216     I
 2013-09-21-1511-34.DFDPC_024_00                                               6
 STAT SP IPHASW D HRMM SECON CODA AMPLIT PERI AZIMU VELO AIN AR TRES W  DIS CAZ7
 GCSZ SZ IP       1512 15.53                             151   -0.1010    3   7 
 GCSZ S2 IS   3   1512 16.57                             151    0.07 2    3   7 
 GCSZ EZ  IAML    1512 16.79        10.1 0.08                             3   7 
 WZ04 HZ IP       1512 16.34                             126    0.1210    8   4 
 WZ04 HN IS   3   1512 17.90                             126    0.40 2    8   4 
 WZ04 HZ  IAML    1512 18.58        11.3 0.38                             8   4 
 WV02 SZ IP   2   1512 16.49                             121    0.01 5   10  47 
 WV02 SZ  IAML    1512 20.88        22.90.272                            10  47 
 WHYM SZ IP   1   1512 16.70                             122    0.01 7   11 159 
 WHYM SN IS       1512 18.34                             122    0.0610   11 159 
 WHYM SZ  IAML    1512 18.71         9.5 0.31                            11 159 
 WZ02 EZ IP       1512 16.97                             116    0.0410   13  91 
 WZ02 EN IS       1512 18.60                             116   -0.0910   13  91 
 WZ02 EZ  IAML    1512 18.85         1.6 0.08                            13  91 
 FRAN S2 IS   2   1512 18.62                             115   -0.16 5   13 254 
 FRAN S1  IAML    1512 19.13         0.0 0.17                            13 254 
 LABE SZ IP   1   1512 18.54                             109   -0.09 7   23 196 
 LABE SE IS   2   1512 21.68                             109    0.14 5   23 196 
 LABE SZ  IAML    1512 21.83         2.2  0.1                            23 196 
                                                                                
