 2013  925 0815 25.8 L -43.348 170.323  7.9  VUW  9 0.1 1.4LVUW                1
 GAP=108        0.29       0.9     1.1  3.6 -0.3547E+00  0.5068E+00 -0.9880E+00E
 ACTION:NEW 15- 7-15  3: 9 OP:CALU STATUS:               ID:20130925081528     I
 2013-09-25-0814-45.DFDPC_030_00                                               6
 STAT SP IPHASW D HRMM SECON CODA AMPLIT PERI AZIMU VELO AIN AR TRES W  DIS CAZ7
 WZ04 HZ IP        815 27.81                             126    0.1110    8   3 
 WZ04 HZ  IAML     815 31.70        12.4 0.32                             8   3 
 WV02 SZ IP        815 27.94                             122    0.0110   10  46 
 WV02 SZ  IAML     815 32.99        16.6  0.2                            10  46 
 WHYM SZ IP   1    815 28.15                             123    0.02 7   11 159 
 WHYM SN IS   1    815 29.75                             123    0.04 7   11 159 
 WHYM SZ  IAML     815 30.33        17.9 0.28                            11 159 
 WZ02 EZ IP        815 28.37                             116    0.0110   13  90 
 WZ02 EN IS        815 30.03                             116   -0.0810   13  90 
 WZ02 EZ  IAML     815 30.46         4.6  0.1                            13  90 
 FRAN S2 IS   1    815 30.11                             115   -0.16 7   13 255 
 FRAN S1  IAML     815 30.80         0.0 0.16                            13 255 
 LABE SZ IP   1    815 29.99                             109   -0.09 7   22 196 
 LABE SN IS   1    815 33.13                             109    0.14 7   22 196 
 LABE SZ  IAML     815 33.30         6.4  0.1                            22 196 
 WZ20 EZ IP        815 30.22                             107   -0.0310   24  52 
 WZ20 EZ  IAML     815 44.97         2.3  0.5                            24  52 
 WZ08 HZ IP   4    815 31.28                             104    0.96 0   24  18 
 WZ08 HZ  IAML     815 41.92        57.4 1.06                            24  18 
 MTFO SE IS   3    815 35.52                             103    0.07 2   31 235 
 MTFO SZ  IAML     815 39.77         6.4 0.53                            31 235 
                                                                                
