 2013  925 2007 20.5 L -43.315 170.388  7.5  VUW  6 0.1 0.9LVUW                1
 GAP=123        0.36       1.3     1.5  3.4 -0.1446E+00 -0.1492E+01  0.1924E+01E
 ACTION:NEW 15- 8-12 16:39 OP:CALU STATUS:               ID:20130925200722     I
 2013-09-25-2006-40.DFDPC_018_00                                               6
 STAT SP IPHASW D HRMM SECON CODA AMPLIT PERI AZIMU VELO AIN AR TRES W  DIS CAZ7
 WV04 SZ IP       20 7 21.57                             158   -0.0710    2  54 
 WV04 SZ  IAML    20 7 22.62        20.00.072                             2  54 
 WV03 SZ IP       20 7 21.52                             155   -0.1410    2  33 
 WV03 SZ  IAML    20 7 23.06        24.20.256                             2  33 
 GCSZ S2 IS       20 7 22.84                             141    0.0210    5 269 
 WZ02 EE IS       20 7 23.75                             125    0.1210    8 116 
 WHYM SN IS       20 7 25.01                             116   -0.1210   14 185 
                                                                                
