 2013  926 0601 21.2 L -43.355 170.324  9.8  VUW  6 0.1 1.7LVUW                1
 GAP=104        0.33       1.3     1.8  4.0  0.4059E+00 -0.6702E+00  0.1105E+01E
 ACTION:NEW 15- 7-15  1:55 OP:CALU STATUS:               ID:20130926060123     I
 2013-09-26-0600-41.DFDPC_021_00                                               6
 STAT SP IPHASW D HRMM SECON CODA AMPLIT PERI AZIMU VELO AIN AR TRES W  DIS CAZ7
 WZ04 HZ IP        6 1 23.40                             130    0.0110    9   2 
 WZ04 HN IS        6 1 24.98                             130    0.0910    9   2 
 WZ04 HZ  IAML     6 1 26.25        59.8 0.28                             9   2 
 WZ11 HZ IP        6 1 23.29                             130   -0.1110    9  47 
 WZ11 HZ  IAML     6 1 27.34        33.5 0.24                             9  47 
 WHYM SZ IP   1    6 1 23.73                             130    0.13 7   10 158 
 WHYM SN IS   2    6 1 25.33                             130    0.08 5   10 158 
 WHYM SZ  IAML     6 1 25.63        38.6 0.22                            10 158 
 WV02 SZ IP   2    6 1 23.53                             126   -0.04 5   10  43 
 WV02 SZ  IAML     6 1 28.39        30.40.224                            10  43 
 WZ02 EZ IP        6 1 24.00                             121    0.1010   13  87 
 WZ02 EN IS        6 1 25.65                             121   -0.1010   13  87 
 WZ02 EZ  IAML     6 1 25.93        11.9  0.1                            13  87 
 FRAN S2 IS   2    6 1 25.60                             120   -0.27 5   13 258 
 FRAN S1  IAML     6 1 26.73         0.0 0.21                            13 258 
                                                                                
