 2013  926 1517  3.5 L -43.359 170.323 10.1  VUW  6 0.1 0.6LVUW                1
 GAP=103        0.38       1.4     2.0  4.5  0.5373E+00 -0.8038E+00  0.1001E+01E
 ACTION:NEW 15- 7-15  1:55 OP:CALU STATUS:               ID:20130926151705     I
 2013-09-26-1516-23.DFDPC_021_00                                               6
 STAT SP IPHASW D HRMM SECON CODA AMPLIT PERI AZIMU VELO AIN AR TRES W  DIS CAZ7
 WZ11 HZ IP       1517  5.61                             130   -0.1410    9  46 
 WHYM SN IS   2   1517  7.65                             132    0.16 5   10 157 
 WV02 SZ IP   2   1517  6.09                             126    0.16 5   11  42 
 WZ02 EN IS       1517  7.96                             122   -0.1410   13  85 
 FRAN S2 IS   2   1517  7.92                             121   -0.22 5   13 260 
 FRAN S1  IAML    1517 10.84         0.0 0.22                            13 260 
                                                                                
