 2013  927 1351 54.6 L -43.355 170.384  5.8  VUW  9 0.2 1.3LVUW                1
 GAP=101        0.40       1.1     1.3  4.3  0.2696E+00  0.1039E+01  0.2123E+01E
 ACTION:NEW 15- 7-15  2:14 OP:CALU STATUS:               ID:20130927135156     I
 2013-09-27-1351-14.DFDPC_027_00                                               6
 STAT SP IPHASW D HRMM SECON CODA AMPLIT PERI AZIMU VELO AIN AR TRES W  DIS CAZ7
 GCSZ S2 IS       1351 56.81                             125   -0.0210    6 313 
 WZ02 EZ IP       1351 56.30                             118    0.1210    8  85 
 WZ02 EZ  IAML    1351 57.14         2.1  0.1                             8  85 
 WZ04 HZ IP       1351 56.48                             112   -0.0610   10 335 
 WZ04 HE IS       1351 58.06                             112    0.1710   10 335 
 WZ04 HZ  IAML    1351 58.64        38.2 1.12                            10 335 
 EORO SN IS   2   1351 59.92                             103   -0.45 5   19 245 
 LABE SZ IP   2   1351 59.14                             103    0.22 5   24 208 
 LABE SZ  IAML    1352  3.29        12.9 0.32                            24 208 
                                                                                
