 2013  927 2226 19.4 L -43.349 170.387  6.8  VUW  9 0.2 1.3LVUW                1
 GAP= 97        0.48       1.5     1.7  4.4  0.5143E+00  0.1531E+01  0.3001E+01E
 ACTION:NEW 15- 7-15  2:14 OP:CALU STATUS:               ID:20130927222620     I
 2013-09-27-2225-39.DFDPC_027_00                                               6
 STAT SP IPHASW D HRMM SECON CODA AMPLIT PERI AZIMU VELO AIN AR TRES W  DIS CAZ7
 GCSZ SZ IP   3   2226 20.81                             131    0.02 2    6 307 
 GCSZ EZ  IAML    2226 21.64         5.2 0.34                             6 307 
 GCSZ S2 IS       2226 21.72                             131   -0.0510    6 307 
 WZ02 EN IS       2226 22.25                             124    0.0710    7  90 
 WZ04 HZ IP       2226 21.42                             118    0.0710   10 332 
 WZ04 HE IS       2226 22.98                             118    0.2810   10 332 
 WZ04 HZ  IAML    2226 23.65        32.6  0.7                            10 332 
 EORO SZ IP   1   2226 23.05                             105    0.10 7   19 244 
 EORO SZ  IAML    2226 25.22         5.0 0.39                            19 244 
 LABE SZ IP   2   2226 24.14                             105    0.25 5   24 208 
 LABE SE IS   2   2226 26.76                             105   -0.21 5   24 208 
 LABE SZ  IAML    2226 28.35         1.6 0.34                            24 208 
                                                                                
