 2013  929 1236 10.4 L -43.350 170.393  7.6  VUW  9 0.2 0.9LVUW                1
 GAP=177        0.43       1.2     3.0  4.4 -0.5223E+00 -0.3782E+01  0.2618E+01E
 ACTION:NEW 15- 8-11 15:40 OP:CALU STATUS:               ID:20130929123612     I
 2013-09-29-1235-30.DFDPC_030_00                                               6
 STAT SP IPHASW D HRMM SECON CODA AMPLIT PERI AZIMU VELO AIN AR TRES W  DIS CAZ7
 WZ21 HZ IP       1236 12.41                                                    
 GCSZ S2 IS       1236 12.90                             133   -0.1510    6 305 
 WHYM SN IS   2   1236 14.13                             124    0.10 5   10 190 
 WZ04 HZ IP       1236 12.47                             120   -0.0210   10 330 
 WZ04 HE IS       1236 14.19                             120    0.2610   10 330 
 WZ04 HZ  IAML    1236 15.26        19.9 0.84                            10 330 
 FRAN S2 IS   2   1236 16.18                             108   -0.15 5   19 260 
 FRAN S1  IAML    1236 16.84         0.0 0.17                            19 260 
 LABE SE IS   1   1236 17.90                             107   -0.17 7   24 209 
                                                                                
