 2013  929 1510 29.9 L -43.351 170.386  5.7  VUW  9 0.2 1.0LVUW                1
 GAP= 98        0.46       1.3     1.5  4.9  0.4170E+00  0.1418E+01  0.2891E+01E
 ACTION:NEW 15- 7-15  2:15 OP:CALU STATUS:               ID:20130929151031     I
 2013-09-29-1509-49.DFDPC_027_00                                               6
 STAT SP IPHASW D HRMM SECON CODA AMPLIT PERI AZIMU VELO AIN AR TRES W  DIS CAZ7
 GCSZ SZ IP   3   1510 31.32                             125    0.10 2    6 309 
 GCSZ S2 IS       1510 32.14                             125    0.0210    6 309 
 GCSZ EZ  IAML    1510 32.27         1.1 0.08                             6 309 
 WV03 SZ IP   1   1510 31.23                             123   -0.03 7    6  14 
 WV03 SZ  IAML    1510 34.17        14.90.088                             6  14 
 WZ02 EN IS       1510 32.45                             118   -0.1110    7  88 
 WZ04 HZ  IAML    1510 33.40        22.4  0.7                            10 332 
 WZ04 HZ IP       1510 31.92                             112    0.1010   10 332 
 EORO SZ IP   1   1510 33.36                             102   -0.05 7   19 244 
 EORO SN IS   2   1510 35.30                             102   -0.50 5   19 244 
 EORO SZ  IAML    1510 36.80         2.5  0.4                            19 244 
 LABE SE IS   2   1510 37.18                             103   -0.18 5   24 208 
                                                                                
