NLLOC "./3D_reloc_nonlin_latlon_calum_lfe_loc/3D_reloc_nonlin_latlon_calum_lfe.20090714.170030.grid0" "LOCATED" "Location completed."
SIGNATURE "C. Boese VUW   NLLoc:v6.00.0 17May2015 09h58m44"
COMMENT "2008-2009 SAMBA"
GRID  50 90 26  -30 -95 -2  2 2 2 PROB_DENSITY
SEARCH OCTREE nInitial 19200 nEvaluated 20024 smallestNodeSide 0.153125/0.278125/0.270833 oct_tree_integral 2.000140e+00 scatter_volume 2.000140e+00
HYPOCENTER  x 23.9766 y -55.6453 z 11.9479  OT 25.8057  ix -1 iy -1 iz -1
GEOGRAPHIC  OT 2009 07 14  17 00   25.8057  Lat -43.77074447 Long 170.02656975 Depth 11.947917 
QUALITY  Pmax 0 MFmin 13.3904 MFmax 14.0348 RMS 1.5139 Nphs 10 Gap 257.913 Dist 28.772 Mamp  -9.9 0 Mdur  -9.9 0
VPVSRATIO  VpVsRatio 0.0909156  Npair 3  Diff 1.66
STATISTICS  ExpectX 23.9148 Y -55.6804 Z 12.1907  CovXX 0.192772 XY -0.0857473 XZ -0.0488466 YY 0.249211 YZ -0.0501407 ZZ 0.85388 EllAz1  53.7609 Dip1  5.4049 Len1  0.662124 Az2  323.647 Dip2  1.20595 Len2  1.04779 Len3  1.743021e+00
STAT_GEOG  ExpectLat -43.7705 Long 170.026 Depth 12.1907
TRANSFORM  SIMPLE LatOrig -43.301800  LongOrig 170.412000  RotCW -54.000000
QML_OriginQuality  assocPhCt 10  usedPhCt 10  assocStaCt -1  usedStaCt 7  depthPhCt -1  stdErr 1.5139  azGap 257.913  secAzGap 257.913  gtLevel -  minDist 28.772 maxDist 45.8845 medDist 35.9103
QML_OriginUncertainty  horUnc -1  minHorUnc 0.548322  maxHorUnc 0.846112  azMaxHorUnc 144.108
FOCALMECH  Hyp  -43.7707 170.027 11.9479 Mech  0 0 0 mf  0 nObs 0
PHASE ID Ins Cmp On Pha  FM Date     HrMn   Sec     Err  ErrMag    Coda      Amp       Per  >   TTpred    Res       Weight    StaLoc(X  Y         Z)        SDist    SAzim  RAz  RDip RQual    Tcorr 
mtfo   S    E    I S      ? 20090714 1700     34.65 GAU       0.1        -1        -1        -1 >    9.2484   -0.4041    0.8560   -0.4173  -40.3886   -1.2140   28.7720 356.02 354.6 101.9  9     0.0000
labe   S    N    I S      ? 20090714 1700      35.6 GAU       0.1        -1        -1        -1 >    9.9887   -0.1945    0.9752   14.0967  -26.8503   -1.5878   30.4428  35.06  32.6  98.3  9     0.0000
FOZ    H    Z    E P      ? 20090714 1700     30.12 GAU       0.1        -1        -1        -1 >    5.7294   -1.4152    1.1159   -7.3876  -54.0466   -0.0540   31.4049 326.92 327.0 102.0  9     0.0000
FOZ    H    N    I S      ? 20090714 1700     34.65 GAU       0.1        -1        -1        -1 >    9.6254   -0.7812    1.0702   -7.3876  -54.0466   -0.0540   31.4049 326.92 327.0 102.0  9     0.0000
cosa   S    Z    E P      ? 20090714 1700     34.75 GAU       0.1        -1        -1        -1 >    6.3646    2.5797    1.1159   -3.5414  -32.5734   -0.3756   35.9103   3.98   1.8  98.2  9     0.0000
cosa   S    N    I S      ? 20090714 1700     39.74 GAU       0.1        -1        -1        -1 >   10.6926    3.2417    0.7579   -3.5414  -32.5734   -0.3756   35.9103   3.98   1.8  98.2  9     0.0000
eoro   S    E    I S      ? 20090714 1700     35.88 GAU       0.1        -1        -1        -1 >   11.6841   -1.6098    0.8374   -0.3007  -23.9806   -0.2316   39.9003  16.52  17.9  95.3  9     0.0000
gova   S    Z    E P      ? 20090714 1700     33.43 GAU       0.1        -1        -1        -1 >    7.8833   -0.2590    1.1256   34.5716  -16.1186   -0.8120   40.9221  69.01  67.9  91.7  9     0.0000
gova   S    N    I S      ? 20090714 1700     39.62 GAU       0.1        -1        -1        -1 >   13.2439    0.5704    1.1167   34.5716  -16.1186   -0.8120   40.9221  69.01  67.9  91.7  9     0.0000
whym   S    E    I S      ? 20090714 1700     38.07 GAU       0.1        -1        -1        -1 >   13.6070   -1.3427    1.0292   10.6125  -11.7501   -0.9047   45.8845  37.07  36.9  90.2  9     0.0000
END_PHASE
END_NLLOC

