NLLOC "./3D_reloc_nonlin_latlon_calum_lfe_loc/3D_reloc_nonlin_latlon_calum_lfe.20090512.151833.grid0" "LOCATED" "Location completed."
SIGNATURE "C. Boese VUW   NLLoc:v6.00.0 17May2015 09h58m43"
COMMENT "2008-2009 SAMBA"
GRID  50 90 26  -30 -95 -2  2 2 2 PROB_DENSITY
SEARCH OCTREE nInitial 19200 nEvaluated 20000 smallestNodeSide 0.306250/0.556250/0.541667 oct_tree_integral 1.238922e+01 scatter_volume 1.238922e+01
HYPOCENTER  x 17.0094 y -61.3469 z 15.0625  OT 28.8858  ix -1 iy -1 iz -1
GEOGRAPHIC  OT 2009 05 12  15 18   28.8858  Lat -43.75017696 Long 169.91820973 Depth 15.062500 
QUALITY  Pmax 7.57173e-118 MFmin 7.34412 MFmax 8.27196 RMS 0.908178 Nphs 10 Gap 265.437 Dist 25.4658 Mamp  -9.9 0 Mdur  -9.9 0
VPVSRATIO  VpVsRatio 1.51029  Npair 5  Diff 3.68
STATISTICS  ExpectX 14.6422 Y -60.2974 Z 18.944  CovXX 7.72222 XY -3.83457 XZ -11.0911 YY 2.3421 YZ 5.45022 ZZ 17.1091 EllAz1  53.4481 Dip1  18.5626 Len1  0.926139 Az2  334.789 Dip2  -30.3517 Len2  1.47937 Len3  9.637216e+00
STAT_GEOG  ExpectLat -43.7274 Long 169.912 Depth 18.944
TRANSFORM  SIMPLE LatOrig -43.301800  LongOrig 170.412000  RotCW -54.000000
QML_OriginQuality  assocPhCt 0  usedPhCt 10  assocStaCt 0  usedStaCt 0  depthPhCt 0  stdErr 0.908178  azGap 265.437  secAzGap 0  gtLevel   minDist 0 maxDist 0 medDist 0
QML_OriginUncertainty  horUnc -1  minHorUnc 0  maxHorUnc 0  azMaxHorUnc 90
FOCALMECH  Hyp  -43.7502 169.918 15.0625 Mech  0 0 0 mf  0 nObs 0
PHASE ID Ins Cmp On Pha  FM Date     HrMn   Sec     Err  ErrMag    Coda      Amp       Per       PriorWt  >   TTpred    Res       Weight    StaLoc(X  Y         Z)        SDist    SAzim  RAz  RDip RQual    Tcorr       TTerr
FOZ          H    E    I P      ? 20090512 1518   33.2600 GAU  1.00e-01 -1.00e+00 -1.00e+00 -1.00e+00    1.0000 >    5.0304   -0.6562    0.9797   -7.3876  -54.0466   -0.0540   25.4658 340.66 341.5 117.9  9     0.0000   -1.0000
FOZ          H    N    I S      ? 20090512 1518   37.4400 GAU  1.00e-01 -1.00e+00 -1.00e+00 -1.00e+00    1.0000 >    8.4510    0.1032    0.9797   -7.3876  -54.0466   -0.0540   25.4658 340.66 341.5 117.9  9     0.0000   -1.0000
mtfo         S    N    E P      ? 20090512 1518   35.3800 GAU  1.00e-01 -1.00e+00 -1.00e+00 -1.00e+00    1.0000 >    5.4465    1.0477    0.9734   -0.4173  -40.3886   -1.2140   27.2569  14.26  20.4 115.3  9     0.0000   -1.0000
mtfo         S    N    I S      ? 20090512 1518   38.5700 GAU  1.00e-01 -1.00e+00 -1.00e+00 -1.00e+00    1.0000 >    9.1501    0.5341    0.9734   -0.4173  -40.3886   -1.2140   27.2569  14.26  20.4 115.3  9     0.0000   -1.0000
gova         S    N    I P      ? 20090512 1518   37.1900 GAU  1.00e-01 -1.00e+00 -1.00e+00 -1.00e+00    1.0000 >    9.1018   -0.7976    1.0315   34.5716  -16.1186   -0.8120   48.5183  75.22  76.1  96.1  9     0.0000   -1.0000
gova         S    Z    I S      ? 20090512 1518   44.0600 GAU  1.00e-01 -1.00e+00 -1.00e+00 -1.00e+00    1.0000 >   15.2910   -0.1168    1.0315   34.5716  -16.1186   -0.8120   48.5183  75.22  76.1  96.1  9     0.0000   -1.0000
pocr         S    Z    I P      ? 20090512 1518   36.8200 GAU  1.00e-01 -1.00e+00 -1.00e+00 -1.00e+00    1.0000 >    8.6825   -0.7483    1.0068   -7.0189  -18.3619   -0.0950   49.2449  24.80  30.4 105.5  9     0.0000   -1.0000
pocr         S    E    I S      ? 20090512 1518   41.9900 GAU  1.00e-01 -1.00e+00 -1.00e+00 -1.00e+00    1.0000 >   14.5866   -1.4824    1.0068   -7.0189  -18.3619   -0.0950   49.2449  24.80  30.4 105.5  9     0.0000   -1.0000
whym         S    N    I P      ? 20090512 1518   39.3300 GAU  1.00e-01 -1.00e+00 -1.00e+00 -1.00e+00    1.0000 >    8.7933    1.6509    1.0086   10.6125  -11.7501   -0.9047   50.0076  46.65  45.3  99.7  9     0.0000   -1.0000
whym         S    E    I S      ? 20090512 1518   44.1800 GAU  1.00e-01 -1.00e+00 -1.00e+00 -1.00e+00    1.0000 >   14.7728    0.5214    1.0086   10.6125  -11.7501   -0.9047   50.0076  46.65  45.3  99.7  9     0.0000   -1.0000
END_PHASE
SCATTER Nsamples 4997
   8.2368  -59.1568   26.2624 -2.67e+02
   8.8441  -57.4342   27.8941 -2.67e+02
   8.0124  -57.2440   28.2257 -2.67e+02
   8.2425  -57.1960   28.0541 -2.67e+02
   8.9537  -58.5580   28.2020 -2.67e+02
   8.4263  -57.8114   28.1231 -2.67e+02
   8.3819  -59.0392   27.9907 -2.67e+02
   8.1918  -57.2849   27.8420 -2.67e+02
   8.5206  -59.1940   26.6004 -2.67e+02
   8.1607  -58.1564   27.1424 -2.67e+02
   9.1604  -58.2568   26.9568 -2.67e+02
   8.8241  -58.6310   27.7453 -2.67e+02
   8.2970  -59.1848   27.6339 -2.67e+02
   8.2680  -59.1754   27.0283 -2.67e+02
   8.6797  -57.2989   26.6238 -2.67e+02
   8.6011  -57.6928   28.0007 -2.67e+02
   8.5267  -57.6887   28.3056 -2.67e+02
   8.3673  -58.5281   26.5186 -2.67e+02
   7.9911  -57.9643   28.0996 -2.67e+02
   9.1840  -57.4028   27.0880 -2.67e+02
   8.5876  -59.1861   26.5543 -2.67e+02
   8.8445  -58.4582   28.1300 -2.67e+02
   8.8390  -58.9673   27.3785 -2.67e+02
   8.4562  -58.7195   26.9243 -2.67e+02
   8.6570  -59.0655   28.0953 -2.67e+02
   9.1438  -59.2884   26.7833 -2.67e+02
   8.7141  -58.8575   26.9776 -2.67e+02
   8.8876  -58.2684   27.3732 -2.67e+02
   8.7567  -57.5107   26.9381 -2.67e+02
   8.2052  -57.7261   26.8311 -2.67e+02
   9.0173  -58.0551   26.5784 -2.67e+02
   8.4502  -57.2273   28.0761 -2.67e+02
   8.8173  -58.8285   26.4392 -2.67e+02
   8.8542  -58.6210   27.5003 -2.67e+02
   8.1613  -57.3340   26.7719 -2.67e+02
   8.5996  -57.9748   26.4466 -2.67e+02
   8.4674  -57.8648   27.2311 -2.67e+02
   8.2074  -58.4333   26.3960 -2.67e+02
   8.4409  -58.2827   27.7703 -2.67e+02
   8.9486  -58.5652   26.3793 -2.67e+02
   8.6427  -59.1572   27.5927 -2.67e+02
   8.8053  -58.6617   27.4880 -2.67e+02
   8.9055  -59.0784   26.6914 -2.67e+02
   8.8851  -57.2676   26.5960 -2.67e+02
   8.5207  -57.6122   27.9612 -2.67e+02
   8.3773  -58.1313   27.3309 -2.67e+02
   8.0483  -58.1474   28.1157 -2.67e+02
   8.4034  -57.5799   27.7464 -2.67e+02
   8.6685  -58.5512   27.2177 -2.67e+02
   9.0590  -58.1710   27.9915 -2.67e+02
   7.9926  -57.7514   26.3972 -2.67e+02
   8.4191  -58.6223   26.5293 -2.67e+02
   8.1362  -59.3807   27.8630 -2.67e+02
   8.1859  -57.6770   28.0006 -2.67e+02
   8.3238  -58.6774   26.2324 -2.67e+02
   8.7150  -58.2078   28.0741 -2.67e+02
   9.0533  -58.7286   26.9997 -2.67e+02
   8.0460  -59.2330   26.7966 -2.67e+02
   8.6258  -57.5356   26.2177 -2.67e+02
   8.9221  -57.6538   28.1189 -2.67e+02
   7.9820  -57.4514   26.7151 -2.67e+02
   8.0290  -58.0523   26.7318 -2.67e+02
   7.9938  -59.3361   27.0782 -2.67e+02
   8.5854  -58.7873   27.3495 -2.67e+02
   8.6091  -59.0039   26.4515 -2.67e+02
   7.9974  -59.3412   27.0540 -2.67e+02
   8.6578  -58.0240   27.2643 -2.67e+02
   8.3594  -58.1117   26.3470 -2.67e+02
   8.4093  -59.2520   27.4560 -2.67e+02
   8.7248  -58.3764   28.2802 -2.67e+02
   8.4080  -59.2387   27.3245 -2.67e+02
   8.1268  -57.6985   27.0853 -2.67e+02
   8.9699  -59.0579   27.2910 -2.67e+02
   8.9179  -58.8834   28.2260 -2.67e+02
   8.7187  -58.4298   26.1811 -2.67e+02
   8.6963  -57.4298   27.4746 -2.67e+02
   8.4807  -59.1591   27.3354 -2.67e+02
   9.0438  -57.6914   27.4184 -2.67e+02
   8.2125  -57.3810   26.9522 -2.67e+02
   9.0580  -59.2255   27.1948 -2.67e+02
   8.9854  -58.7990   26.2235 -2.67e+02
   8.2299  -58.6321   26.1816 -2.67e+02
   8.1753  -59.0638   27.6282 -2.67e+02
   8.1074  -58.3345   27.3734 -2.67e+02
   8.6858  -58.2025   26.4987 -2.67e+02
   8.8657  -57.7454   26.6681 -2.67e+02
   8.1926  -57.6745   27.3660 -2.67e+02
   9.0850  -58.8644   26.5946 -2.67e+02
   8.7899  -58.8973   26.8034 -2.67e+02
   8.2404  -57.9918   27.5772 -2.67e+02
   8.9567  -58.7240   27.6197 -2.67e+02
  14.5427  -60.0291   20.5605 -2.65e+02
  14.2525  -59.4962   20.3064 -2.65e+02
  14.6207  -60.1293   19.6908 -2.65e+02
  14.6281  -60.2302   19.7520 -2.65e+02
  14.5009  -60.2090   20.1280 -2.65e+02
  14.6128  -59.9941   20.6736 -2.65e+02
  14.5132  -60.1109   20.5850 -2.65e+02
  14.1718  -59.7585   20.2673 -2.65e+02
  14.2575  -59.4994   20.6940 -2.65e+02
  14.2590  -60.0567   19.9311 -2.65e+02
  14.2317  -60.3430   20.5684 -2.65e+02
  14.6550  -60.1013   20.6386 -2.65e+02
  14.4179  -59.4539   20.0892 -2.65e+02
  14.6971  -60.2029   20.1237 -2.65e+02
  14.2770  -59.6046   19.8461 -2.65e+02
  14.5304  -60.1013   19.9305 -2.65e+02
  14.6332  -59.4060   20.4310 -2.65e+02
  14.2383  -59.7437   19.7661 -2.65e+02
  14.4745  -60.0645   20.5247 -2.65e+02
  14.1991  -59.7582   20.2643 -2.65e+02
  14.2336  -59.7130   20.4646 -2.65e+02
  14.4505  -59.9158   19.7411 -2.65e+02
  14.4878  -59.6639   20.0494 -2.65e+02
  14.3108  -60.1169   20.6382 -2.65e+02
  14.2236  -59.7056   19.7924 -2.65e+02
  14.5462  -59.8277   20.0320 -2.65e+02
  14.6085  -59.8048   20.4318 -2.65e+02
  14.3951  -60.0545   20.6796 -2.65e+02
  14.2370  -59.9016   20.2750 -2.65e+02
  14.6915  -60.2995   20.0202 -2.65e+02
  14.3055  -59.7429   19.9836 -2.65e+02
  14.2425  -59.7440   20.2039 -2.65e+02
  14.3499  -59.7775   19.9877 -2.65e+02
  14.4545  -60.1463   20.5978 -2.65e+02
  14.1011  -59.7268   19.7919 -2.65e+02
  14.6787  -59.7144   19.8555 -2.65e+02
  14.6164  -59.4132   20.0360 -2.65e+02
  14.3800  -59.9353   20.2449 -2.65e+02
  14.5153  -59.4562   20.2827 -2.65e+02
  14.2366  -59.8190   20.3466 -2.65e+02
  14.4408  -59.9678   20.1698 -2.65e+02
  14.6813  -60.1115   20.0632 -2.65e+02
  14.5388  -59.7499   19.9634 -2.65e+02
  14.4051  -59.6499   19.7312 -2.65e+02
  14.5661  -60.4140   20.1509 -2.65e+02
  14.2221  -59.9162   20.6268 -2.65e+02
  14.5024  -60.2815   20.4619 -2.65e+02
  14.6335  -59.7122   20.1973 -2.65e+02
  14.5310  -59.7058   19.9815 -2.65e+02
  14.2920  -60.4920   20.0142 -2.65e+02
  14.4206  -60.4024   20.0373 -2.65e+02
  14.2586  -60.3437   19.8285 -2.65e+02
  14.7092  -59.7271   20.3786 -2.65e+02
  14.5783  -60.3971   20.6803 -2.65e+02
  14.5288  -60.0192   20.4739 -2.65e+02
  14.1554  -60.2788   20.0125 -2.65e+02
  14.4456  -59.4124   20.3365 -2.65e+02
  14.5255  -60.2760   19.6986 -2.65e+02
  14.1432  -60.3219   20.3850 -2.65e+02
  14.6976  -60.3058   19.6737 -2.65e+02
  14.6900  -60.5090   20.1893 -2.65e+02
  14.5584  -60.4754   20.1782 -2.65e+02
  14.1897  -59.7125   20.2452 -2.65e+02
  14.5567  -60.0333   20.0934 -2.65e+02
  14.4256  -59.8706   20.1584 -2.65e+02
  14.5786  -59.6484   20.4051 -2.65e+02
  14.2978  -59.6205   20.5911 -2.65e+02
  14.3903  -60.1401   20.6786 -2.65e+02
  14.5722  -60.0919   19.8426 -2.65e+02
  14.6699  -60.0653   20.1306 -2.65e+02
  14.4594  -59.4255   20.6244 -2.65e+02
  14.1017  -60.4308   20.1550 -2.65e+02
  14.4952  -59.6833   20.4206 -2.65e+02
  14.3774  -59.5991   20.6131 -2.65e+02
  14.1758  -60.2394   20.4331 -2.65e+02
  14.4764  -60.2349   19.7816 -2.65e+02
  14.4178  -59.7546   20.2735 -2.65e+02
  14.5494  -59.9969   19.8884 -2.65e+02
  14.3392  -59.6707   19.8446 -2.65e+02
  14.2900  -60.1830   20.5511 -2.65e+02
  14.2685  -59.9858   20.6687 -2.65e+02
  14.5828  -59.5368   19.8088 -2.65e+02
  14.5723  -60.1129   19.6815 -2.65e+02
  14.5848  -60.3011   20.6275 -2.65e+02
  15.2149  -59.4721   18.6835 -2.65e+02
  15.0498  -59.5470   18.8531 -2.65e+02
  15.2237  -60.3149   19.1497 -2.65e+02
  14.8117  -59.5570   18.8551 -2.65e+02
  14.8486  -60.1099   18.8668 -2.65e+02
  14.9748  -59.4058   18.7155 -2.65e+02
  15.1003  -59.7671   18.7560 -2.65e+02
  15.1595  -59.4616   18.9715 -2.65e+02
  15.1305  -59.4841   18.8218 -2.65e+02
  14.9295  -60.0221   19.4836 -2.65e+02
  15.1342  -60.1576   19.5509 -2.65e+02
  15.0970  -59.7848   19.5759 -2.65e+02
  14.7443  -60.2495   18.7875 -2.65e+02
  14.9493  -59.9616   19.1370 -2.65e+02
  15.3062  -60.2816   18.9337 -2.65e+02
  14.9752  -59.8380   19.4089 -2.65e+02
  15.2567  -60.0838   19.1237 -2.65e+02
  14.8423  -60.3982   18.6872 -2.65e+02
  14.7984  -59.6538   19.3649 -2.65e+02
  15.3081  -60.2263   19.4447 -2.65e+02
  14.9034  -59.6431   19.4479 -2.65e+02
  14.8067  -60.1258   18.8892 -2.65e+02
  14.8681  -59.6162   19.0836 -2.65e+02
  15.1348  -59.8493   19.6200 -2.65e+02
  15.0970  -60.3592   19.0785 -2.65e+02
  15.0975  -59.8714   19.2961 -2.65e+02
  14.8317  -59.5786   19.1765 -2.65e+02
  14.7267  -59.4349   19.4843 -2.65e+02
  14.7330  -59.6256   19.3545 -2.65e+02
  15.3170  -59.5109   19.2996 -2.65e+02
  15.0226  -60.2167   19.4920 -2.65e+02
  14.8860  -59.9087   18.9959 -2.65e+02
  14.8217  -60.0965   18.5946 -2.65e+02
  15.1120  -60.4957   18.7266 -2.65e+02
  15.1670  -59.5367   18.9253 -2.65e+02
  14.9858  -60.4773   19.5209 -2.65e+02
  15.0446  -60.4879   19.1643 -2.65e+02
  14.9303  -60.1414   19.2856 -2.65e+02
  15.1756  -59.6470   19.0255 -2.65e+02
  14.8055  -60.0510   18.7688 -2.65e+02
  15.1817  -59.8083   19.2013 -2.65e+02
  15.0048  -60.1699   18.8844 -2.65e+02
  15.1289  -59.6959   19.6479 -2.65e+02
  14.8446  -60.2778   18.6450 -2.65e+02
  14.7942  -60.1092   19.5432 -2.65e+02
  15.1318  -60.2857   18.9410 -2.65e+02
  15.1239  -60.5116   19.5165 -2.65e+02
  15.1760  -59.5796   19.6213 -2.65e+02
  15.1723  -60.1170   19.6600 -2.65e+02
  14.9916  -59.8416   18.9300 -2.65e+02
  14.7282  -60.2196   19.2277 -2.65e+02
  14.9611  -60.2388   18.6372 -2.65e+02
  14.7964  -60.2021   18.8380 -2.65e+02
  14.9000  -60.4417   19.0872 -2.65e+02
  15.0942  -60.4504   18.8191 -2.65e+02
  14.8678  -59.7245   19.1766 -2.65e+02
  15.0593  -60.3190   18.5985 -2.65e+02
  14.9869  -59.6820   18.8974 -2.65e+02
  15.2836  -59.5741   19.4772 -2.65e+02
  14.8331  -59.9297   18.8944 -2.65e+02
  14.8010  -59.7835   18.7548 -2.65e+02
  15.2169  -60.1596   18.9683 -2.65e+02
  15.1788  -60.2649   19.2709 -2.65e+02
  15.0656  -60.1396   18.6860 -2.65e+02
  14.9074  -59.6066   18.6534 -2.65e+02
  15.3247  -59.7729   18.9322 -2.65e+02
  15.2390  -59.9887   18.8247 -2.65e+02
  14.7731  -60.4256   18.8863 -2.65e+02
  14.7957  -59.4331   18.9765 -2.65e+02
  15.1356  -60.4509   19.1335 -2.65e+02
  15.2680  -60.3523   19.5138 -2.65e+02
  14.7664  -59.6479   19.6594 -2.65e+02
  15.0437  -60.4034   18.9983 -2.65e+02
  14.9396  -60.2092   18.7431 -2.65e+02
  15.0995  -59.6990   19.1057 -2.65e+02
  15.3027  -60.3381   18.9710 -2.65e+02
  15.1568  -59.8531   19.2558 -2.65e+02
  14.7511  -59.7266   19.5909 -2.65e+02
  15.1023  -60.0062   18.6254 -2.65e+02
  15.0185  -60.4939   18.7589 -2.65e+02
  14.8927  -60.6207   19.2315 -2.65e+02
  14.8835  -61.4382   18.7048 -2.65e+02
  15.0706  -61.5555   18.9114 -2.65e+02
  14.7203  -61.5981   18.9044 -2.65e+02
  15.2871  -60.8891   19.2219 -2.65e+02
  14.7230  -61.0909   19.5110 -2.65e+02
  14.8825  -60.5512   18.8172 -2.65e+02
  15.2274  -60.8201   19.2083 -2.65e+02
  14.9625  -61.3485   19.4917 -2.65e+02
  15.2699  -61.5348   19.2550 -2.65e+02
  14.8360  -61.1539   19.2479 -2.65e+02
  15.0539  -60.8107   18.8606 -2.65e+02
  15.2568  -60.5494   19.6470 -2.65e+02
  15.0989  -61.5105   18.9701 -2.65e+02
  15.0244  -61.1630   18.5958 -2.65e+02
  15.1827  -61.3365   19.1762 -2.65e+02
  15.2020  -61.3040   19.2538 -2.65e+02
  15.0731  -61.5998   19.5425 -2.65e+02
  14.8683  -61.1366   19.4433 -2.65e+02
  14.8932  -60.6350   19.6209 -2.65e+02
  14.8342  -61.2709   19.2639 -2.65e+02
  15.2213  -61.1470   18.7442 -2.65e+02
  14.7492  -60.9813   18.8279 -2.65e+02
  14.8830  -61.2406   18.5865 -2.65e+02
  14.9315  -60.6249   19.0017 -2.65e+02
  15.1277  -61.4805   19.5202 -2.65e+02
  14.7426  -61.4990   18.6185 -2.65e+02
  15.1525  -60.6480   18.8057 -2.65e+02
  14.7487  -60.5695   19.2011 -2.65e+02
  14.7736  -61.6085   18.9515 -2.65e+02
  14.7133  -60.8671   19.2912 -2.65e+02
  14.9143  -61.4212   19.0978 -2.65e+02
  15.3107  -60.8262   18.6527 -2.65e+02
  14.8989  -60.5983   19.2557 -2.65e+02
  15.3057  -60.7016   18.6989 -2.65e+02
  14.9873  -61.5434   18.6416 -2.65e+02
  15.0130  -61.4731   19.2129 -2.65e+02
  15.1909  -60.9565   19.2342 -2.65e+02
  15.1703  -61.1077   18.8887 -2.65e+02
  14.7951  -61.2620   18.6308 -2.65e+02
  15.2172  -61.4064   18.7654 -2.65e+02
  15.0511  -61.1794   18.6436 -2.65e+02
  14.9421  -61.0032   19.6074 -2.65e+02
  14.7675  -60.7923   18.6195 -2.65e+02
  15.1861  -61.3539   18.6703 -2.65e+02
  14.8373  -61.1272   18.6907 -2.65e+02
  14.9988  -61.1230   19.4858 -2.65e+02
  14.9873  -61.6081   19.1449 -2.65e+02
  14.7509  -60.5671   19.5546 -2.65e+02
  15.0411  -61.3523   18.9282 -2.65e+02
  15.1929  -61.1597   18.9533 -2.65e+02
  14.9406  -60.5601   18.6233 -2.65e+02
  14.8204  -61.5965   19.6085 -2.65e+02
  14.9534  -60.6595   19.1648 -2.65e+02
  15.0600  -61.3176   19.6302 -2.65e+02
  14.9145  -61.2154   18.6430 -2.65e+02
  14.7402  -60.9438   19.6216 -2.65e+02
  15.0393  -61.2940   19.4760 -2.65e+02
  14.9573  -61.0981   19.1151 -2.65e+02
  14.9097  -60.9844   18.8501 -2.65e+02
  14.9511  -60.5225   18.8690 -2.65e+02
  15.2487  -61.3721   19.3149 -2.65e+02
  14.9732  -60.5587   18.5996 -2.65e+02
  14.8988  -60.9719   19.6410 -2.65e+02
  14.8823  -60.7788   18.8968 -2.65e+02
  14.7499  -61.5709   19.0528 -2.65e+02
  14.8496  -60.5241   19.2554 -2.65e+02
  14.9350  -60.9639   18.9399 -2.65e+02
  14.8293  -61.2693   19.5533 -2.65e+02
  14.8477  -60.7319   18.6502 -2.65e+02
  15.1331  -61.5852   19.1673 -2.65e+02
  15.1222  -61.2059   19.3975 -2.65e+02
  14.9046  -61.4047   19.2105 -2.65e+02
  14.8695  -60.9971   19.4629 -2.65e+02
  14.7901  -61.2048   19.5794 -2.65e+02
  11.0600  -58.7070   23.5584 -2.65e+02
  11.5281  -59.0186   23.8322 -2.65e+02
  11.4412  -58.5898   23.0177 -2.65e+02
  11.4582  -58.9639   23.3159 -2.65e+02
  11.2281  -58.5562   23.3419 -2.65e+02
  11.5342  -58.4026   23.6462 -2.65e+02
  11.2950  -59.3087   23.4385 -2.65e+02
  11.4639  -58.9423   23.1646 -2.65e+02
  11.5468  -58.8529   23.2961 -2.65e+02
  11.4280  -58.6259   23.1880 -2.65e+02
  11.4425  -59.0206   23.9180 -2.65e+02
  11.2175  -58.4290   22.9704 -2.65e+02
  11.4422  -58.7174   23.1923 -2.65e+02
  11.5807  -58.4644   23.2181 -2.65e+02
  11.4761  -59.1428   23.1737 -2.65e+02
  11.2375  -58.9445   23.1862 -2.65e+02
  11.1096  -58.5742   23.0164 -2.65e+02
  11.6160  -59.0211   23.6424 -2.65e+02
  11.3582  -58.7143   23.6784 -2.65e+02
  11.2255  -58.6926   23.2310 -2.65e+02
  11.4957  -58.9227   23.6965 -2.65e+02
  11.0780  -59.0372   23.7051 -2.65e+02
  11.3965  -58.8983   23.0414 -2.65e+02
  11.4974  -59.3779   23.4216 -2.65e+02
  11.0576  -58.5480   23.4797 -2.65e+02
  11.2822  -58.8773   23.4536 -2.65e+02
  11.1526  -59.2406   22.9373 -2.65e+02
  11.1793  -58.9414   22.9404 -2.65e+02
  11.5002  -58.8176   22.9440 -2.65e+02
  11.1538  -58.9130   23.1205 -2.65e+02
  11.4772  -59.2293   23.1363 -2.65e+02
  11.0518  -59.0761   23.6832 -2.65e+02
  11.2575  -58.6514   23.2564 -2.65e+02
  11.5771  -58.6425   22.9327 -2.65e+02
  11.2443  -59.0230   23.3694 -2.65e+02
  11.4495  -58.2995   23.3465 -2.65e+02
  11.6192  -59.0903   23.0857 -2.65e+02
  11.3768  -58.8734   23.0676 -2.65e+02
  11.1355  -59.1968   23.6650 -2.65e+02
  11.5356  -58.6038   23.3343 -2.65e+02
  11.3404  -59.0600   23.6443 -2.65e+02
  11.3171  -58.5493   23.1656 -2.65e+02
  11.2948  -59.3785   23.7171 -2.65e+02
  11.1151  -58.6893   22.9528 -2.65e+02
  11.0982  -58.9923   23.3951 -2.65e+02
  11.1697  -59.0627   23.6042 -2.65e+02
  11.2050  -58.4534   23.3658 -2.65e+02
  11.2360  -58.7984   23.1358 -2.65e+02
  11.0987  -58.8373   23.9139 -2.65e+02
  11.4698  -58.2964   23.2808 -2.65e+02
  11.6496  -58.9477   23.2264 -2.65e+02
  11.4784  -58.3222   23.3369 -2.65e+02
  11.4745  -59.0445   23.9909 -2.65e+02
  11.3734  -58.5637   23.7274 -2.65e+02
  11.1712  -59.3768   23.9430 -2.65e+02
  11.0388  -58.4804   23.4331 -2.65e+02
  11.4081  -58.7987   23.3483 -2.65e+02
  11.6315  -58.5897   23.6655 -2.65e+02
  11.1990  -59.1825   23.9411 -2.65e+02
  11.2702  -58.6849   23.8538 -2.65e+02
  11.1267  -59.3452   23.9234 -2.65e+02
  11.1748  -58.9130   23.2011 -2.65e+02
  11.0590  -58.5409   23.1820 -2.65e+02
  11.2977  -59.2936   23.0766 -2.65e+02
  11.3214  -58.9905   23.0698 -2.65e+02
  11.5081  -58.2994   23.2622 -2.65e+02
  11.0708  -59.3899   23.8010 -2.65e+02
  11.1742  -58.2889   23.9065 -2.65e+02
  11.1638  -58.8919   23.2187 -2.65e+02
  11.0621  -58.3292   23.5537 -2.65e+02
  11.2065  -58.8548   23.7255 -2.65e+02
