NLLOC "./3D_reloc_nonlin_latlon_calum_lfe_loc/3D_reloc_nonlin_latlon_calum_lfe.20090512.152000.grid0" "LOCATED" "Location completed."
SIGNATURE "C. Boese VUW   NLLoc:v6.00.0 17May2015 09h58m43"
COMMENT "2008-2009 SAMBA"
GRID  50 90 26  -30 -95 -2  2 2 2 PROB_DENSITY
SEARCH OCTREE nInitial 19200 nEvaluated 20008 smallestNodeSide 0.153125/0.278125/0.270833 oct_tree_integral 4.062584e+00 scatter_volume 4.062584e+00
HYPOCENTER  x 0.395313 y -47.8578 z 27.3854  OT 56.4788  ix -1 iy -1 iz -1
GEOGRAPHIC  OT 2009 05 12  15 19   56.4788  Lat -43.55784938 Long 169.93403828 Depth 27.385417 
QUALITY  Pmax 1.76014e-15 MFmin 2.60666 MFmax 5.00784 RMS 0.363764 Nphs 10 Gap 184.392 Dist 7.51326 Mamp  -9.9 0 Mdur  -9.9 0
VPVSRATIO  VpVsRatio 1.34703  Npair 5  Diff 1.82
STATISTICS  ExpectX 0.451474 Y -47.8095 Z 27.3291  CovXX 0.48243 XY -0.0673545 XZ -0.360651 YY 0.356391 YZ -0.153585 ZZ 0.900216 EllAz1  46.985 Dip1  26.7922 Len1  0.775833 Az2  323.016 Dip2  -11.7543 Len2  1.25632 Len3  1.989608e+00
STAT_GEOG  ExpectLat -43.558 Long 169.935 Depth 27.3291
TRANSFORM  SIMPLE LatOrig -43.301800  LongOrig 170.412000  RotCW -54.000000
QML_OriginQuality  assocPhCt 10  usedPhCt 10  assocStaCt -1  usedStaCt 5  depthPhCt -1  stdErr 0.363764  azGap 184.392  secAzGap 184.392  gtLevel -  minDist 7.51326 maxDist 46.6412 medDist 30.4135
QML_OriginUncertainty  horUnc -1  minHorUnc 0.867464  maxHorUnc 1.0848  azMaxHorUnc 113.452
FOCALMECH  Hyp  -43.5578 169.934 27.3854 Mech  0 0 0 mf  0 nObs 0
PHASE ID Ins Cmp On Pha  FM Date     HrMn   Sec     Err  ErrMag    Coda      Amp       Per  >   TTpred    Res       Weight    StaLoc(X  Y         Z)        SDist    SAzim  RAz  RDip RQual    Tcorr 
mtfo   S    N    I P      ? 20090512 1520      0.91 GAU       0.1        -1        -1        -1 >    5.0744   -0.6432    1.2580   -0.4173  -40.3886   -1.2140    7.5133  47.79 122.9 163.7  9     0.0000
mtfo   S    E    I S      ? 20090512 1520      5.33 GAU       0.1        -1        -1        -1 >    8.5250    0.3263    1.1939   -0.4173  -40.3886   -1.2140    7.5133  47.79 122.9 163.7  9     0.0000
FOZ    H    Z    E P      ? 20090512 1520      0.58 GAU       0.5        -1        -1        -1 >    5.0684   -0.9672    0.0732   -7.3876  -54.0466   -0.0540    9.9435 285.51 274.4 158.3  9     0.0000
FOZ    H    E    I S      ? 20090512 1520      5.07 GAU       0.1        -1        -1        -1 >    8.5150    0.0762    1.2016   -7.3876  -54.0466   -0.0540    9.9435 285.51 274.4 158.3  9     0.0000
pocr   S    Z    E P      ? 20090512 1520       3.8 GAU       0.1        -1        -1        -1 >    7.1700    0.1513    1.2621   -7.0189  -18.3619   -0.0950   30.4135  39.89  44.3 129.0  9     0.0000
pocr   S    N    I S      ? 20090512 1520      8.76 GAU       0.1        -1        -1        -1 >   12.0456    0.2357    1.2348   -7.0189  -18.3619   -0.0950   30.4135  39.89  44.3 129.0  9     0.0000
whym   S    Z    E P      ? 20090512 1520      3.09 GAU         2        -1        -1        -1 >    7.9225   -1.3113    0.0048   10.6125  -11.7501   -0.9047   37.5254  69.80  72.0 123.0  9     0.0000
whym   S    Z    I S      ? 20090512 1520      9.33 GAU       0.1        -1        -1        -1 >   13.3098   -0.4586    1.2370   10.6125  -11.7501   -0.9047   37.5254  69.80  72.0 123.0  9     0.0000
gova   S    Z    I P      ? 20090512 1520      6.42 GAU       0.1        -1        -1        -1 >    9.5135    0.4277    1.2694   34.5716  -16.1186   -0.8120   46.6412 101.12 105.7 112.7  9     0.0000
gova   S    N    E S      ? 20090512 1520     12.42 GAU       0.1        -1        -1        -1 >   15.9827   -0.0415    1.2651   34.5716  -16.1186   -0.8120   46.6412 101.12 105.7 112.7  9     0.0000
END_PHASE
END_NLLOC

