NLLOC "./3D_reloc_nonlin_latlon_calum_lfe_loc/3D_reloc_nonlin_latlon_calum_lfe.20091115.102613.grid0" "LOCATED" "Location completed."
SIGNATURE "C. Boese VUW   NLLoc:v6.00.0 17May2015 09h58m43"
COMMENT "2008-2009 SAMBA"
GRID  50 90 26  -30 -95 -2  2 2 2 PROB_DENSITY
SEARCH OCTREE nInitial 19200 nEvaluated 20024 smallestNodeSide 0.153125/0.278125/0.270833 oct_tree_integral 5.925946e+00 scatter_volume 5.921542e+00
HYPOCENTER  x 18.1578 y -53.6984 z 21.4271  OT 8.12626  ix -1 iy -1 iz -1
GEOGRAPHIC  OT 2009 11 15  10 26   8.12626  Lat -43.71807816 Long 170.00393242 Depth 21.427083 
QUALITY  Pmax 2.11946e-29 MFmin 3.07115 MFmax 5.19765 RMS 0.409427 Nphs 14 Gap 245.625 Dist 22.8514 Mamp  -9.9 0 Mdur  -9.9 0
VPVSRATIO  VpVsRatio 1.23372  Npair 6  Diff 2.4
STATISTICS  ExpectX 18.1806 Y -53.6819 Z 21.3289  CovXX 0.675592 XY -0.319139 XZ -1.00123 YY 0.385715 YZ 0.448905 ZZ 2.65403 EllAz1  48.0616 Dip1  10.0711 Len1  0.727188 Az2  322.409 Dip2  -23.1133 Len2  1.17274 Len3  3.348285e+00
STAT_GEOG  ExpectLat -43.7182 Long 170.004 Depth 21.3289
TRANSFORM  SIMPLE LatOrig -43.301800  LongOrig 170.412000  RotCW -54.000000
QML_OriginQuality  assocPhCt 14  usedPhCt 14  assocStaCt -1  usedStaCt 8  depthPhCt -1  stdErr 0.409427  azGap 245.625  secAzGap 245.625  gtLevel -  minDist 22.8514 maxDist 56.5604 medDist 32.6339
QML_OriginUncertainty  horUnc -1  minHorUnc 0.643686  maxHorUnc 1.42361  azMaxHorUnc 122.787
FOCALMECH  Hyp  -43.7181 170.004 21.4271 Mech  0 0 0 mf  0 nObs 0
PHASE ID Ins Cmp On Pha  FM Date     HrMn   Sec     Err  ErrMag    Coda      Amp       Per  >   TTpred    Res       Weight    StaLoc(X  Y         Z)        SDist    SAzim  RAz  RDip RQual    Tcorr 
mtfo   S    E    I S      ? 20091115 1026      16.9 GAU       0.1        -1        -1        -1 >    9.0929   -0.3192    0.9873   -0.4173  -40.3886   -1.2140   22.8514 359.62   5.1 137.6  9     0.0000
FOZ    H    Z    E P      ? 20091115 1026     13.54 GAU       0.1        -1        -1        -1 >    5.5808   -0.1671    1.2872   -7.3876  -54.0466   -0.0540   25.5478 323.22 321.4 129.9  9     0.0000
FOZ    H    E    E S      ? 20091115 1026     17.57 GAU       0.1        -1        -1        -1 >    9.3758    0.0680    1.2343   -7.3876  -54.0466   -0.0540   25.5478 323.22 321.4 129.9  9     0.0000
labe   S    Z    I P      ? 20091115 1026      14.4 GAU       0.1        -1        -1        -1 >    5.9816    0.2921    1.2604   14.0967  -26.8503   -1.5878   27.1536  45.40  42.4 124.5  9     0.0000
labe   S    N    I S      ? 20091115 1026      18.5 GAU       0.1        -1        -1        -1 >   10.0491    0.3246    1.1269   14.0967  -26.8503   -1.5878   27.1536  45.40  42.4 124.5  9     0.0000
cosa   S    Z    I P      ? 20091115 1026      14.1 GAU       0.1        -1        -1        -1 >    6.1151   -0.1414    1.2564   -3.5414  -32.5734   -0.3756   30.2840   8.23  11.9 128.5  9     0.0000
cosa   S    N    I S      ? 20091115 1026      18.8 GAU       0.1        -1        -1        -1 >   10.2734    0.4004    0.8752   -3.5414  -32.5734   -0.3756   30.2840   8.23  11.9 128.5  9     0.0000
eoro   S    N    I S      ? 20091115 1026      19.5 GAU       0.1        -1        -1        -1 >   11.3071    0.0666    0.9585   -0.3007  -23.9806   -0.2316   34.9838  22.15  28.5 121.1  9     0.0000
gova   S    Z    E P      ? 20091115 1026     16.55 GAU       0.1        -1        -1        -1 >    8.1964    0.2273    1.2913   34.5716  -16.1186   -0.8120   41.0080  77.59  77.2 112.1  9     0.0000
gova   S    N    I S      ? 20091115 1026      21.5 GAU       0.1        -1        -1        -1 >   13.7700   -0.3962    1.2880   34.5716  -16.1186   -0.8120   41.0080  77.59  77.2 112.1  9     0.0000
whym   S    Z    E P      ? 20091115 1026     15.77 GAU         2        -1        -1        -1 >    7.9635   -0.3197    0.0048   10.6125  -11.7501   -0.9047   42.6215  43.80  44.8 114.0  9     0.0000
whym   S    N    I S      ? 20091115 1026      22.2 GAU       0.1        -1        -1        -1 >   13.3786    0.6951    1.1512   10.6125  -11.7501   -0.9047   42.6215  43.80  44.8 114.0  9     0.0000
what   S    Z    E P      ? 20091115 1026     18.46 GAU         1        -1        -1        -1 >   10.0756    0.2581    0.0202   -4.3858   -1.8249   -0.1036   56.5604  30.51  37.0 112.8  9     0.0000
what   S    E    E S      ? 20091115 1026     24.17 GAU       0.1        -1        -1        -1 >   16.9270   -0.8833    1.2584   -4.3858   -1.8249   -0.1036   56.5604  30.51  37.0 112.8  9     0.0000
END_PHASE
END_NLLOC

