NLLOC "./3D_reloc_nonlin_latlon_calum_lfe_loc/3D_reloc_nonlin_latlon_calum_lfe.20090714.165726.grid0" "LOCATED" "Location completed."
SIGNATURE "C. Boese VUW   NLLoc:v6.00.0 17May2015 09h58m44"
COMMENT "2008-2009 SAMBA"
GRID  50 90 26  -30 -95 -2  2 2 2 PROB_DENSITY
SEARCH OCTREE nInitial 19200 nEvaluated 20008 smallestNodeSide 0.153125/0.278125/0.270833 oct_tree_integral 7.476435e+00 scatter_volume 7.476435e+00
HYPOCENTER  x 27.1156 y -63.5719 z 13.9792  OT 19.025  ix -1 iy -1 iz -1
GEOGRAPHIC  OT 2009 07 14  16 57    19.025  Lat -43.83553251 Long 169.96916151 Depth 13.979167 
QUALITY  Pmax 9.72907e-76 MFmin 6.19536 MFmax 7.55081 RMS 0.742975 Nphs 9 Gap 276.504 Dist 35.7939 Mamp  -9.9 0 Mdur  -9.9 0
VPVSRATIO  VpVsRatio 0.5  Npair 2  Diff 0.41
STATISTICS  ExpectX 27.0878 Y -63.3409 Z 14.2862  CovXX 0.446362 XY -0.266771 XZ -0.313044 YY 0.726032 YZ -0.0722024 ZZ 2.38049 EllAz1  60.1082 Dip1  8.17627 Len1  0.922604 Az2  330.606 Dip2  -3.46356 Len2  1.76383 Len3  2.929064e+00
STAT_GEOG  ExpectLat -43.8341 Long 169.971 Depth 14.2862
TRANSFORM  SIMPLE LatOrig -43.301800  LongOrig 170.412000  RotCW -54.000000
QML_OriginQuality  assocPhCt 0  usedPhCt 9  assocStaCt 0  usedStaCt 0  depthPhCt 0  stdErr 0.742975  azGap 276.504  secAzGap 0  gtLevel   minDist 0 maxDist 0 medDist 0
QML_OriginUncertainty  horUnc -1  minHorUnc 0  maxHorUnc 0  azMaxHorUnc 90
FOCALMECH  Hyp  -43.8355 169.969 13.9792 Mech  0 0 0 mf  0 nObs 0
PHASE ID Ins Cmp On Pha  FM Date     HrMn   Sec     Err  ErrMag    Coda      Amp       Per       PriorWt  >   TTpred    Res       Weight    StaLoc(X  Y         Z)        SDist    SAzim  RAz  RDip RQual    Tcorr       TTerr
FOZ          H    N    I S      ? 20090714 1657   28.9500 GAU  1.00e-01 -1.00e+00 -1.00e+00 -1.00e+00    1.0000 >   10.9175   -0.9925    1.0875   -7.3876  -54.0466   -0.0540   35.7939 339.43 339.8 102.7  9     0.0000   -1.0000
mtfo         S    E    E P      ? 20090714 1657   26.1700 GAU  1.00e-01 -1.00e+00 -1.00e+00 -1.00e+00    1.0000 >    6.6718    0.4732    1.1252   -0.4173  -40.3886   -1.2140   35.9934   4.10   3.0 100.8  9     0.0000   -1.0000
mtfo         S    E    I S      ? 20090714 1657   30.5600 GAU  1.00e-01 -1.00e+00 -1.00e+00 -1.00e+00    1.0000 >   11.2087    0.3263    0.8698   -0.4173  -40.3886   -1.2140   35.9934   4.10   3.0 100.8  9     0.0000   -1.0000
labe         S    N    E P      ? 20090714 1657   26.4800 GAU  1.00e-01 -1.00e+00 -1.00e+00 -1.00e+00    1.0000 >    7.3223    0.1327    1.1252   14.0967  -26.8503   -1.5878   38.9611  34.48  32.0  97.4  9     0.0000   -1.0000
labe         S    N    I S      ? 20090714 1657   31.2800 GAU  1.00e-01 -1.00e+00 -1.00e+00 -1.00e+00    1.0000 >   12.3015   -0.0465    0.9909   14.0967  -26.8503   -1.5878   38.9611  34.48  32.0  97.4  9     0.0000   -1.0000
cosa         S    N    E S      ? 20090714 1657   33.4500 GAU  1.00e-01 -1.00e+00 -1.00e+00 -1.00e+00    1.0000 >   12.7605    1.6645    0.7701   -3.5414  -32.5734   -0.3756   43.5977   9.32   9.6  98.5  8     0.0000   -1.0000
gova         S    N    E S      ? 20090714 1657   34.1900 GAU  1.00e-01 -1.00e+00 -1.00e+00 -1.00e+00    1.0000 >   15.1551    0.0098    1.1347   34.5716  -16.1186   -0.8120   48.0354  62.93  63.8  95.3  9     0.0000   -1.0000
eoro         S    N    I S      ? 20090714 1657   33.0300 GAU  1.00e-01 -1.00e+00 -1.00e+00 -1.00e+00    1.0000 >   13.9193    0.0857    0.8509   -0.3007  -23.9806   -0.2316   48.1572  19.30  20.6  96.3  9     0.0000   -1.0000
whym         S    Z    E S      ? 20090714 1657   33.7400 GAU  1.00e-01 -1.00e+00 -1.00e+00 -1.00e+00    1.0000 >   15.8680   -1.1531    1.0458   10.6125  -11.7501   -0.9047   54.3861  36.34  35.4  93.6  9     0.0000   -1.0000
END_PHASE
SCATTER Nsamples 4980
  26.6570  -63.1477   14.1049 -1.67e+02
  26.7541  -63.1735   14.1399 -1.67e+02
  26.6994  -63.0595   14.1789 -1.67e+02
  26.9174  -62.7839   14.0872 -1.67e+02
  26.8685  -62.8925   14.0953 -1.67e+02
  26.9406  -62.7684   14.1208 -1.67e+02
  26.8769  -63.1451   14.1846 -1.67e+02
  26.7391  -63.1007   14.0540 -1.67e+02
  26.7291  -63.0722   13.7786 -1.67e+02
  26.7893  -63.2413   13.8556 -1.67e+02
  26.8267  -63.0531   13.8265 -1.67e+02
  26.9051  -63.1570   13.7857 -1.67e+02
  26.8520  -63.1846   14.2090 -1.67e+02
  26.9579  -63.0960   14.0045 -1.67e+02
  26.7946  -63.0728   14.0418 -1.67e+02
  26.8369  -62.7862   13.9992 -1.67e+02
  26.8852  -62.8850   14.0843 -1.67e+02
  26.8815  -62.7521   14.2246 -1.67e+02
  26.8947  -63.2935   13.9704 -1.67e+02
  26.6808  -62.8241   13.9921 -1.67e+02
  26.7138  -62.7806   13.8676 -1.67e+02
  26.9482  -63.0662   14.0673 -1.67e+02
  26.7902  -63.1742   13.7214 -1.67e+02
  26.8184  -62.9945   14.1410 -1.67e+02
  26.7534  -62.8036   13.8926 -1.67e+02
  26.7526  -62.9598   14.2117 -1.67e+02
  26.9000  -62.9477   14.1290 -1.67e+02
  26.9328  -63.2084   14.1824 -1.67e+02
  26.8115  -63.2502   14.0028 -1.67e+02
  26.7363  -63.2649   13.7188 -1.67e+02
  26.8205  -63.1675   14.0498 -1.67e+02
  26.8141  -62.7421   14.1608 -1.67e+02
  26.9151  -62.9918   13.7113 -1.67e+02
  26.7043  -63.0586   14.2319 -1.67e+02
  26.8088  -63.1326   14.1229 -1.67e+02
  26.7024  -63.2787   13.7561 -1.67e+02
  26.7644  -63.0062   14.0727 -1.67e+02
  26.7344  -63.2385   13.9342 -1.67e+02
  26.8289  -62.8883   13.7137 -1.67e+02
  26.7930  -62.8917   14.1363 -1.67e+02
  26.9073  -63.2465   14.1061 -1.67e+02
  26.7803  -63.0294   13.8101 -1.67e+02
  26.9431  -63.1818   14.0820 -1.67e+02
  26.9386  -63.1408   14.0884 -1.67e+02
  26.9330  -62.9654   13.7407 -1.67e+02
  26.8745  -63.0502   14.1357 -1.67e+02
  26.6719  -62.9956   14.1831 -1.67e+02
  26.7439  -62.9862   13.8037 -1.67e+02
  26.8627  -63.0173   14.0456 -1.67e+02
  27.0997  -63.1408   11.6897 -1.69e+02
  27.3557  -63.5687   11.1761 -1.69e+02
  27.5443  -63.2703   12.0681 -1.69e+02
  26.9847  -63.2778   11.6426 -1.69e+02
  27.2347  -62.8848   11.3742 -1.69e+02
  27.0992  -63.8162   11.1017 -1.69e+02
  27.1883  -63.4450   11.4640 -1.69e+02
  27.3775  -63.4643   12.0832 -1.69e+02
  27.5416  -63.4637   11.7827 -1.69e+02
  27.4394  -63.3627   11.5964 -1.69e+02
  27.1526  -62.8582   11.8674 -1.69e+02
  27.3031  -63.6608   11.1004 -1.69e+02
  27.1224  -62.8519   11.4453 -1.69e+02
  27.3280  -63.6580   11.6146 -1.69e+02
  27.4882  -63.5019   11.5784 -1.69e+02
  27.0536  -62.8717   11.3472 -1.69e+02
  26.9933  -62.7763   11.9768 -1.69e+02
  27.3390  -62.8853   11.7961 -1.69e+02
  27.1629  -62.7479   11.9260 -1.69e+02
  27.3485  -62.9059   11.0924 -1.69e+02
  27.0042  -63.0614   11.4013 -1.69e+02
  27.0933  -63.5678   11.0885 -1.69e+02
  27.0967  -63.4743   12.0169 -1.69e+02
  27.1194  -63.4701   12.0110 -1.69e+02
  27.4982  -62.9320   11.6492 -1.69e+02
  27.2769  -62.9829   11.5453 -1.69e+02
  27.3157  -63.1208   11.1054 -1.69e+02
  26.9782  -63.5677   11.2631 -1.69e+02
  27.3538  -63.2181   11.5499 -1.69e+02
  27.3505  -62.8362   11.9142 -1.69e+02
  27.5348  -63.3617   11.3050 -1.69e+02
  27.1176  -62.8582   11.8794 -1.69e+02
  27.3873  -63.3579   11.5244 -1.69e+02
  27.4537  -63.6887   11.6621 -1.69e+02
  27.3665  -62.9402   11.2746 -1.69e+02
  27.1054  -62.9721   12.0285 -1.69e+02
  27.3119  -63.1695   11.8312 -1.69e+02
  27.3472  -62.8674   11.7635 -1.69e+02
  27.1440  -62.9610   11.2835 -1.69e+02
  27.1990  -63.6691   11.3772 -1.69e+02
  27.1657  -63.3429   11.4130 -1.69e+02
  27.0373  -63.7055   11.4366 -1.69e+02
  26.9625  -63.2072   11.7529 -1.69e+02
  27.0719  -63.1364   11.7257 -1.69e+02
  27.4101  -63.8361   11.6919 -1.69e+02
  27.3057  -63.8009   11.6938 -1.69e+02
  27.2759  -63.0679   11.4913 -1.69e+02
  27.2748  -63.2497   11.6184 -1.69e+02
  27.3345  -63.2512   11.0951 -1.69e+02
  27.3028  -61.8457   14.2512 -1.69e+02
  27.1299  -62.5069   14.8394 -1.69e+02
  27.3617  -62.2915   14.6323 -1.69e+02
  27.4428  -62.0611   14.3896 -1.69e+02
  27.4834  -62.4821   14.2828 -1.69e+02
  27.0612  -61.9504   15.0123 -1.69e+02
  27.0824  -62.6138   14.5072 -1.69e+02
  27.0551  -61.6676   14.5976 -1.69e+02
  27.2686  -62.2127   14.8952 -1.69e+02
  27.0209  -62.0711   14.7489 -1.69e+02
  27.5225  -62.6829   15.0009 -1.69e+02
  27.5008  -62.7173   14.4825 -1.69e+02
  27.2838  -62.3764   14.6580 -1.69e+02
  27.4621  -62.7072   14.6553 -1.69e+02
  27.1896  -62.0239   14.7884 -1.69e+02
  27.0320  -61.6924   14.9397 -1.69e+02
  27.1340  -62.1447   14.7473 -1.69e+02
  27.2513  -62.5477   15.2643 -1.69e+02
  27.2434  -62.0031   15.2440 -1.69e+02
  27.4621  -62.3577   15.1485 -1.69e+02
  27.3585  -61.7870   14.5432 -1.69e+02
  27.4920  -61.9712   15.2939 -1.69e+02
  27.1821  -62.2347   15.2221 -1.69e+02
  26.9792  -61.8392   14.3985 -1.69e+02
  27.5108  -62.5733   14.8243 -1.69e+02
  27.3218  -62.3481   14.3235 -1.69e+02
  27.2021  -62.1986   14.5444 -1.69e+02
  27.0517  -62.0359   15.1025 -1.69e+02
  27.0558  -62.3000   14.9868 -1.69e+02
  27.2597  -61.7014   15.2040 -1.69e+02
  27.2657  -62.2310   14.7427 -1.69e+02
  27.0424  -62.3930   15.2242 -1.69e+02
  27.3072  -61.7794   14.5628 -1.69e+02
  27.2991  -62.5322   14.3901 -1.69e+02
  27.4479  -62.0964   14.7397 -1.69e+02
  27.0251  -61.9174   14.9377 -1.69e+02
  27.3026  -61.6587   14.3446 -1.69e+02
  26.9753  -62.1649   15.0407 -1.69e+02
  27.1515  -61.8788   15.3195 -1.69e+02
  27.0876  -62.3667   14.5894 -1.69e+02
  27.1607  -62.1672   15.3241 -1.69e+02
  27.5488  -61.6774   15.2393 -1.69e+02
  27.3027  -62.4192   14.5616 -1.69e+02
  27.4061  -62.6620   14.5055 -1.69e+02
  27.3470  -61.8932   14.3262 -1.69e+02
  27.5233  -62.7075   15.1373 -1.69e+02
  26.8338  -62.0487   15.3447 -1.69e+02
  26.7596  -61.8104   15.3911 -1.69e+02
  26.7537  -62.5675   16.3697 -1.69e+02
  26.9393  -61.7341   16.3158 -1.69e+02
  26.8133  -62.2545   15.4824 -1.69e+02
  26.5355  -61.8408   16.1832 -1.69e+02
  26.3881  -61.8855   16.4126 -1.69e+02
  26.5433  -62.0759   16.2964 -1.69e+02
  26.5929  -61.8717   15.6454 -1.69e+02
  26.8050  -61.9945   15.9927 -1.69e+02
  26.7858  -62.0388   15.6733 -1.69e+02
  26.3554  -62.2935   15.5303 -1.69e+02
  26.5356  -61.9721   16.1043 -1.69e+02
  26.6170  -61.7546   16.0832 -1.69e+02
  26.6614  -62.4419   15.3374 -1.69e+02
  26.6046  -62.0253   15.7042 -1.69e+02
  26.5016  -62.5584   16.0248 -1.69e+02
  26.6516  -62.2655   15.5930 -1.69e+02
  26.3746  -62.1638   15.4472 -1.69e+02
  26.5427  -62.7106   16.3250 -1.69e+02
  26.7051  -61.7419   15.6433 -1.69e+02
  26.5274  -62.2209   15.4768 -1.69e+02
  26.8487  -62.4098   15.4261 -1.69e+02
  26.5669  -61.7147   15.9477 -1.69e+02
  26.8876  -62.3485   15.5638 -1.69e+02
  26.3927  -61.7388   15.9787 -1.69e+02
  26.7484  -62.6583   15.6628 -1.69e+02
  26.8528  -62.3377   15.6568 -1.69e+02
  26.6825  -61.8497   15.8103 -1.69e+02
  26.6763  -61.7841   16.2994 -1.69e+02
  26.6749  -62.2833   15.6418 -1.69e+02
  26.9145  -62.5436   15.3673 -1.69e+02
  26.7402  -61.9182   15.7167 -1.69e+02
  26.6683  -62.5664   16.3988 -1.69e+02
  26.5896  -61.7496   15.5395 -1.69e+02
  26.4356  -62.5935   16.0511 -1.69e+02
  26.5133  -61.9094   15.5287 -1.69e+02
  26.5248  -62.1967   15.5636 -1.69e+02
  26.4300  -62.3749   15.9256 -1.69e+02
  26.9558  -62.1707   15.9860 -1.69e+02
  26.5096  -61.7361   16.0951 -1.69e+02
  26.3687  -62.6664   15.9493 -1.69e+02
  26.5513  -62.0309   15.4968 -1.69e+02
  26.7708  -61.9154   16.3820 -1.69e+02
  26.3752  -61.6421   16.4123 -1.69e+02
  26.8106  -62.3443   16.0580 -1.69e+02
  27.5602  -63.4984   13.2871 -1.67e+02
  27.4564  -63.3730   13.6600 -1.67e+02
  27.2907  -63.4524   13.5623 -1.67e+02
  27.5277  -63.8430   13.6227 -1.67e+02
  27.4458  -63.6181   13.6025 -1.67e+02
  27.5231  -63.7424   13.2823 -1.67e+02
  27.3609  -63.5343   13.5214 -1.67e+02
  27.5162  -63.3364   13.4437 -1.67e+02
  27.4517  -63.6803   13.4262 -1.67e+02
  27.3486  -63.6995   13.3304 -1.67e+02
  27.3868  -63.4538   13.5545 -1.67e+02
  27.4974  -63.6552   13.6619 -1.67e+02
  27.2794  -63.4789   13.3307 -1.67e+02
  27.3040  -63.5904   13.6252 -1.67e+02
  27.4010  -63.3070   13.2995 -1.67e+02
  27.2865  -63.2940   13.2224 -1.67e+02
  27.3214  -63.7705   13.4135 -1.67e+02
  27.4101  -63.3474   13.2368 -1.67e+02
  27.2805  -63.5838   13.6890 -1.67e+02
  27.4219  -63.3589   13.7055 -1.67e+02
  27.2924  -63.8387   13.5713 -1.67e+02
  27.2901  -63.7449   13.2611 -1.67e+02
  27.3313  -63.5527   13.6340 -1.67e+02
  27.3617  -63.6675   13.6406 -1.67e+02
  27.4026  -63.4401   13.1852 -1.67e+02
  27.3751  -63.4163   13.1991 -1.67e+02
  27.3795  -63.5631   13.5305 -1.67e+02
  27.3871  -63.3467   13.4662 -1.67e+02
  27.5026  -63.8032   13.6163 -1.67e+02
  27.5486  -63.3040   13.2649 -1.67e+02
  27.3223  -63.7434   13.4632 -1.67e+02
  27.5730  -63.7441   13.4490 -1.67e+02
  27.5659  -63.5217   13.5682 -1.67e+02
  27.5009  -63.6975   13.5171 -1.67e+02
  27.4880  -63.6786   13.6329 -1.67e+02
  27.5047  -63.8267   13.3661 -1.67e+02
  27.3731  -63.7941   13.2292 -1.67e+02
  27.4701  -63.3017   13.5182 -1.67e+02
  27.3944  -63.6077   13.4430 -1.67e+02
  27.5270  -63.7765   13.6854 -1.67e+02
  27.5500  -63.6315   13.3600 -1.67e+02
  27.5731  -63.7306   13.3428 -1.67e+02
  27.3812  -63.4554   13.2542 -1.67e+02
  27.2808  -63.3225   13.6822 -1.67e+02
  26.3575  -64.1526   13.9805 -1.69e+02
  26.6118  -64.2031   13.8262 -1.69e+02
  26.5822  -64.9032   14.0402 -1.69e+02
  26.5430  -64.1858   13.9420 -1.69e+02
  26.9090  -64.2095   13.9079 -1.69e+02
  26.4241  -63.9114   13.4849 -1.69e+02
  26.5767  -64.4718   13.6241 -1.69e+02
  26.9257  -64.0560   13.9749 -1.69e+02
  26.3892  -64.5701   13.7016 -1.69e+02
  26.9199  -64.9029   13.6914 -1.69e+02
  26.4134  -63.8709   13.9923 -1.69e+02
  26.7166  -64.5578   13.5389 -1.69e+02
  26.7700  -64.7548   13.1817 -1.69e+02
  26.3579  -64.7094   13.3951 -1.69e+02
  26.6318  -64.1978   13.4721 -1.69e+02
  26.5068  -64.4436   13.7772 -1.69e+02
  26.8359  -64.1321   13.8163 -1.69e+02
  26.3888  -64.3880   13.3737 -1.69e+02
  26.4254  -64.1600   13.8190 -1.69e+02
  26.4641  -64.3497   13.3800 -1.69e+02
  26.7577  -64.2744   14.0280 -1.69e+02
  26.7475  -64.1352   14.0244 -1.69e+02
  26.6443  -64.1128   14.0254 -1.69e+02
  26.8502  -64.9144   14.2484 -1.69e+02
  26.6122  -64.4844   14.1606 -1.69e+02
  26.7584  -64.7135   13.9777 -1.69e+02
  26.9578  -64.6695   13.9218 -1.69e+02
  26.5072  -64.9083   13.6835 -1.69e+02
  26.6137  -63.9524   13.8748 -1.69e+02
  26.8490  -63.9684   13.7944 -1.69e+02
  26.6523  -63.9307   13.3722 -1.69e+02
  26.4654  -64.3411   13.9759 -1.69e+02
  26.5662  -64.1003   14.1404 -1.69e+02
  26.7723  -64.3632   13.4063 -1.69e+02
  26.7050  -64.3176   13.9844 -1.69e+02
  26.6773  -64.4087   14.0868 -1.69e+02
  26.7015  -64.2171   13.5626 -1.69e+02
  26.7086  -64.7316   13.2250 -1.69e+02
  26.5334  -64.9180   13.3169 -1.69e+02
  26.7315  -64.8299   13.9300 -1.69e+02
  26.9203  -64.2657   13.9092 -1.69e+02
  26.5758  -64.0418   13.3234 -1.69e+02
  26.8022  -63.9793   13.7246 -1.69e+02
  27.3868  -64.1375   13.7780 -1.67e+02
  27.2926  -64.2102   13.8586 -1.67e+02
  27.4931  -64.2792   14.1896 -1.67e+02
  27.4618  -63.8709   13.8647 -1.67e+02
  27.4595  -64.0759   14.2107 -1.67e+02
  27.5724  -64.0979   14.0432 -1.67e+02
  27.5130  -64.0679   13.8465 -1.67e+02
  27.3137  -64.0637   14.1019 -1.67e+02
  27.2907  -63.9427   13.8451 -1.67e+02
  27.4887  -63.9555   14.0088 -1.67e+02
  27.3177  -64.0919   13.9457 -1.67e+02
  27.4870  -64.2091   13.8136 -1.67e+02
  27.4909  -64.3320   14.0441 -1.67e+02
  27.2842  -64.3991   13.8690 -1.67e+02
  27.5016  -64.1607   13.7606 -1.67e+02
  27.4103  -64.2849   14.1279 -1.67e+02
  27.4912  -64.1772   13.8343 -1.67e+02
  27.4105  -64.0803   13.7847 -1.67e+02
  27.5341  -63.8875   14.2305 -1.67e+02
  27.5717  -64.3407   13.9343 -1.67e+02
  27.3931  -64.3281   13.7304 -1.67e+02
  27.4212  -63.8662   14.0754 -1.67e+02
  27.4679  -64.2317   14.0403 -1.67e+02
  27.5433  -63.8808   13.7568 -1.67e+02
  27.5427  -64.2104   14.1828 -1.67e+02
  27.4504  -64.1480   14.2289 -1.67e+02
  27.3519  -64.0759   13.8925 -1.67e+02
  27.2963  -64.0718   13.8901 -1.67e+02
  27.2827  -63.9195   13.9043 -1.67e+02
  27.3664  -64.1814   14.1894 -1.67e+02
  27.2695  -63.9673   13.8508 -1.67e+02
  27.4583  -64.3808   14.1131 -1.67e+02
  27.3844  -64.2776   13.7508 -1.67e+02
  27.3323  -63.8782   13.9149 -1.67e+02
  27.4154  -64.2159   13.7891 -1.67e+02
  27.4097  -64.2944   13.9604 -1.67e+02
  27.4312  -64.1559   13.9145 -1.67e+02
  27.5321  -64.3741   13.8875 -1.67e+02
  27.2997  -64.2810   14.1188 -1.67e+02
  27.3149  -64.0339   13.7668 -1.67e+02
  27.4885  -64.1650   13.7991 -1.67e+02
  27.5532  -64.3705   13.7833 -1.67e+02
  26.1158  -62.9847   15.8500 -1.69e+02
  25.9542  -63.1772   16.1693 -1.69e+02
  25.7480  -63.3500   15.6524 -1.69e+02
  25.9323  -62.8158   15.7218 -1.69e+02
  26.0668  -63.3930   15.8282 -1.69e+02
  25.9576  -63.1369   15.5223 -1.69e+02
  25.9731  -63.5684   16.1565 -1.69e+02
  25.9349  -63.4395   16.4029 -1.69e+02
  26.1358  -63.0332   15.9965 -1.69e+02
  25.9687  -63.5959   15.5746 -1.69e+02
  26.0636  -63.1281   15.5072 -1.69e+02
  26.0068  -63.6179   16.0620 -1.69e+02
  25.8750  -63.7461   16.0718 -1.69e+02
  25.8453  -63.5740   15.3378 -1.69e+02
  25.8857  -63.2447   15.4366 -1.69e+02
  25.7925  -63.2449   15.8219 -1.69e+02
  25.9305  -62.9468   15.8543 -1.69e+02
  26.0295  -63.2093   15.6147 -1.69e+02
  26.2664  -63.7359   15.7961 -1.69e+02
  25.8463  -63.1432   16.0889 -1.69e+02
  26.0453  -62.8548   16.2330 -1.69e+02
  25.9413  -63.7394   16.1409 -1.69e+02
  26.0762  -63.7454   16.3443 -1.69e+02
  26.3296  -63.5208   15.9789 -1.69e+02
  26.1389  -62.8456   15.7774 -1.69e+02
  26.3129  -62.9218   15.3373 -1.69e+02
  26.0625  -63.3470   16.3429 -1.69e+02
  25.7395  -63.6713   15.5727 -1.69e+02
  26.0141  -62.8124   15.5909 -1.69e+02
  26.0334  -63.6064   16.1883 -1.69e+02
  25.8016  -62.9386   16.3595 -1.69e+02
  25.9578  -63.2278   15.5000 -1.69e+02
  26.3210  -63.5424   15.6007 -1.69e+02
  26.1018  -63.4197   15.6093 -1.69e+02
  26.2547  -63.6087   16.2060 -1.69e+02
  25.7665  -63.5389   16.2437 -1.69e+02
  25.8575  -62.8083   15.4377 -1.69e+02
  25.7814  -63.2839   16.1644 -1.69e+02
  26.1573  -63.6336   15.8305 -1.69e+02
  25.8546  -63.0393   16.3372 -1.69e+02
  26.2004  -63.6952   15.4515 -1.69e+02
  26.1264  -62.9445   16.2565 -1.69e+02
  27.3969  -63.0732   14.0147 -1.67e+02
  27.5680  -63.1647   14.1440 -1.67e+02
  27.2750  -63.0281   14.2134 -1.67e+02
  27.4251  -63.0433   13.9362 -1.67e+02
  27.5390  -63.2492   14.1048 -1.67e+02
  27.4042  -63.1866   14.0228 -1.67e+02
  27.4108  -63.2056   13.9063 -1.67e+02
  27.3632  -62.9604   13.7122 -1.67e+02
  27.4310  -63.2787   14.2385 -1.67e+02
  27.5144  -62.8788   13.8413 -1.67e+02
  27.5750  -62.9215   13.7208 -1.67e+02
  27.3959  -62.9266   14.0297 -1.67e+02
  27.4052  -63.1892   14.2018 -1.67e+02
  27.3253  -63.0085   14.1494 -1.67e+02
  27.4990  -63.0067   13.9840 -1.67e+02
  27.2788  -63.1901   13.7950 -1.67e+02
  27.4013  -63.2602   14.0378 -1.67e+02
  27.3462  -63.1983   13.9689 -1.67e+02
  27.3377  -62.8090   13.8301 -1.67e+02
  27.3925  -63.2388   13.8023 -1.67e+02
  27.3060  -63.0998   13.9431 -1.67e+02
  27.4365  -62.9966   13.8336 -1.67e+02
  27.2976  -62.9437   13.7747 -1.67e+02
  27.2916  -62.9709   13.8066 -1.67e+02
  27.5609  -63.0410   13.8154 -1.67e+02
  27.5622  -62.8028   14.1995 -1.67e+02
  27.3283  -63.1615   14.1852 -1.67e+02
  27.2807  -63.1241   13.9637 -1.67e+02
  27.3305  -63.1558   14.0654 -1.67e+02
  27.3005  -63.0428   14.1156 -1.67e+02
  27.5315  -63.2922   13.9002 -1.67e+02
  27.5386  -62.9503   13.7993 -1.67e+02
  27.4366  -62.9688   13.8824 -1.67e+02
  27.2944  -63.0621   14.0518 -1.67e+02
  27.4864  -62.8058   13.8110 -1.67e+02
  27.3693  -62.8142   13.9871 -1.67e+02
  27.3241  -63.1967   14.1440 -1.67e+02
  27.4600  -62.8778   13.8773 -1.67e+02
  27.5742  -63.2544   13.7383 -1.67e+02
  27.5715  -63.1040   14.0752 -1.67e+02
  27.2984  -62.8887   13.9146 -1.67e+02
  27.5191  -62.8119   13.8682 -1.67e+02
  26.2088  -63.4669   14.0054 -1.69e+02
  26.0968  -63.2376   13.3591 -1.69e+02
  25.8314  -63.7007   13.4234 -1.69e+02
