NLLOC "./3D_reloc_nonlin_latlon_calum_lfe_loc/3D_reloc_nonlin_latlon_calum_lfe.20090512.151833.grid0" "LOCATED" "Location completed."
SIGNATURE "C. Boese VUW   NLLoc:v6.00.0 17May2015 09h58m43"
COMMENT "2008-2009 SAMBA"
GRID  50 90 26  -30 -95 -2  2 2 2 PROB_DENSITY
SEARCH OCTREE nInitial 19200 nEvaluated 20000 smallestNodeSide 0.306250/0.556250/0.541667 oct_tree_integral 1.238922e+01 scatter_volume 1.238922e+01
HYPOCENTER  x 17.0094 y -61.3469 z 15.0625  OT 28.8858  ix -1 iy -1 iz -1
GEOGRAPHIC  OT 2009 05 12  15 18   28.8858  Lat -43.75017696 Long 169.91820973 Depth 15.062500 
QUALITY  Pmax 7.57173e-118 MFmin 7.34412 MFmax 8.27196 RMS 0.908178 Nphs 10 Gap 265.437 Dist 25.4658 Mamp  -9.9 0 Mdur  -9.9 0
VPVSRATIO  VpVsRatio 1.51029  Npair 5  Diff 3.68
STATISTICS  ExpectX 14.6422 Y -60.2974 Z 18.944  CovXX 7.72222 XY -3.83457 XZ -11.0911 YY 2.3421 YZ 5.45022 ZZ 17.1091 EllAz1  53.4481 Dip1  18.5626 Len1  0.926139 Az2  334.789 Dip2  -30.3517 Len2  1.47937 Len3  9.637216e+00
STAT_GEOG  ExpectLat -43.7274 Long 169.912 Depth 18.944
TRANSFORM  SIMPLE LatOrig -43.301800  LongOrig 170.412000  RotCW -54.000000
QML_OriginQuality  assocPhCt 10  usedPhCt 10  assocStaCt -1  usedStaCt 5  depthPhCt -1  stdErr 0.908178  azGap 265.437  secAzGap 265.437  gtLevel -  minDist 25.4658 maxDist 50.0076 medDist 48.5183
QML_OriginUncertainty  horUnc -1  minHorUnc 0.894796  maxHorUnc 4.72729  azMaxHorUnc 117.475
FOCALMECH  Hyp  -43.7502 169.918 15.0625 Mech  0 0 0 mf  0 nObs 0
PHASE ID Ins Cmp On Pha  FM Date     HrMn   Sec     Err  ErrMag    Coda      Amp       Per  >   TTpred    Res       Weight    StaLoc(X  Y         Z)        SDist    SAzim  RAz  RDip RQual    Tcorr 
FOZ    H    E    I P      ? 20090512 1518     33.26 GAU       0.1        -1        -1        -1 >    5.0304   -0.6562    0.9797   -7.3876  -54.0466   -0.0540   25.4658 340.66 341.5 117.9  9     0.0000
FOZ    H    N    I S      ? 20090512 1518     37.44 GAU       0.1        -1        -1        -1 >    8.4510    0.1032    0.9797   -7.3876  -54.0466   -0.0540   25.4658 340.66 341.5 117.9  9     0.0000
mtfo   S    N    E P      ? 20090512 1518     35.38 GAU       0.1        -1        -1        -1 >    5.4465    1.0477    0.9734   -0.4173  -40.3886   -1.2140   27.2569  14.26  20.4 115.3  9     0.0000
mtfo   S    N    I S      ? 20090512 1518     38.57 GAU       0.1        -1        -1        -1 >    9.1501    0.5341    0.9734   -0.4173  -40.3886   -1.2140   27.2569  14.26  20.4 115.3  9     0.0000
gova   S    N    I P      ? 20090512 1518     37.19 GAU       0.1        -1        -1        -1 >    9.1018   -0.7976    1.0315   34.5716  -16.1186   -0.8120   48.5183  75.22  76.1  96.1  9     0.0000
gova   S    Z    I S      ? 20090512 1518     44.06 GAU       0.1        -1        -1        -1 >   15.2910   -0.1168    1.0315   34.5716  -16.1186   -0.8120   48.5183  75.22  76.1  96.1  9     0.0000
pocr   S    Z    I P      ? 20090512 1518     36.82 GAU       0.1        -1        -1        -1 >    8.6825   -0.7483    1.0068   -7.0189  -18.3619   -0.0950   49.2449  24.80  30.4 105.5  9     0.0000
pocr   S    E    I S      ? 20090512 1518     41.99 GAU       0.1        -1        -1        -1 >   14.5866   -1.4824    1.0068   -7.0189  -18.3619   -0.0950   49.2449  24.80  30.4 105.5  9     0.0000
whym   S    N    I P      ? 20090512 1518     39.33 GAU       0.1        -1        -1        -1 >    8.7933    1.6509    1.0086   10.6125  -11.7501   -0.9047   50.0076  46.65  45.3  99.7  9     0.0000
whym   S    E    I S      ? 20090512 1518     44.18 GAU       0.1        -1        -1        -1 >   14.7728    0.5214    1.0086   10.6125  -11.7501   -0.9047   50.0076  46.65  45.3  99.7  9     0.0000
END_PHASE
END_NLLOC

