NLLOC "./3D_reloc_nonlin_latlon_calum_lfe_loc/3D_reloc_nonlin_latlon_calum_lfe.20090714.010000.grid0" "LOCATED" "Location completed."
SIGNATURE "C. Boese VUW   NLLoc:v6.00.0 17May2015 09h58m44"
COMMENT "2008-2009 SAMBA"
GRID  50 90 26  -30 -95 -2  2 2 2 PROB_DENSITY
SEARCH OCTREE nInitial 19200 nEvaluated 20024 smallestNodeSide 0.306250/0.556250/0.541667 oct_tree_integral 1.229415e+01 scatter_volume 1.225925e+01
HYPOCENTER  x 13.0281 y -59.6781 z 19.9375  OT 55.1842  ix -1 iy -1 iz -1
GEOGRAPHIC  OT 2009 07 14  00 59   55.1842  Lat -43.71236107 Long 169.90619375 Depth 19.937500 
QUALITY  Pmax 1.13778e-11 MFmin 2.68325 MFmax 4.9309 RMS 0.335299 Nphs 7 Gap 259.105 Dist 21.1782 Mamp  -9.9 0 Mdur  -9.9 0
VPVSRATIO  VpVsRatio 1.02063  Npair 3  Diff 2.06
STATISTICS  ExpectX 13.4247 Y -59.9227 Z 19.1708  CovXX 1.85117 XY -1.11989 XZ -2.77983 YY 1.18452 YZ 1.54365 ZZ 5.26713 EllAz1  62.4973 Dip1  19.0357 Len1  0.812072 Az2  342.565 Dip2  -26.8695 Len2  1.59031 Len3  5.110812e+00
STAT_GEOG  ExpectLat -43.7165 Long 169.907 Depth 19.1708
TRANSFORM  SIMPLE LatOrig -43.301800  LongOrig 170.412000  RotCW -54.000000
QML_OriginQuality  assocPhCt 0  usedPhCt 7  assocStaCt 0  usedStaCt 0  depthPhCt 0  stdErr 0.335299  azGap 259.105  secAzGap 0  gtLevel   minDist 0 maxDist 0 medDist 0
QML_OriginUncertainty  horUnc -1  minHorUnc 0  maxHorUnc 0  azMaxHorUnc 90
FOCALMECH  Hyp  -43.7124 169.906 19.9375 Mech  0 0 0 mf  0 nObs 0
PHASE ID Ins Cmp On Pha  FM Date     HrMn   Sec     Err  ErrMag    Coda      Amp       Per       PriorWt  >   TTpred    Res       Weight    StaLoc(X  Y         Z)        SDist    SAzim  RAz  RDip RQual    Tcorr       TTerr
FOZ          S    Z    E P      ? 20090714 0100    0.0700 GAU  1.00e-01 -1.00e+00 -1.00e+00 -1.00e+00    1.0000 >    4.9349   -0.0491    1.0273   -7.3876  -54.0466   -0.0540   21.1782 339.42 341.5 134.8  9     0.0000   -1.0000
FOZ          S    E    E S      ? 20090714 0100    3.2800 GAU  1.00e-01 -1.00e+00 -1.00e+00 -1.00e+00    1.0000 >    8.2907   -0.1949    0.9746   -7.3876  -54.0466   -0.0540   21.1782 339.42 341.5 134.8  9     0.0000   -1.0000
mtfo         S    N    E S      ? 20090714 0100    4.6600 GAU  1.00e-01 -1.00e+00 -1.00e+00 -1.00e+00    1.0000 >    9.1102    0.3656    0.9292   -0.4173  -40.3886   -1.2140   23.5131  19.12  26.9 132.1  9     0.0000   -1.0000
eoro         S    N    E P      ? 20090714 0100    2.1000 GAU  1.00e-01 -1.00e+00 -1.00e+00 -1.00e+00    1.0000 >    7.1750   -0.2592    1.0273   -0.3007  -23.9806   -0.2316   38.1047  33.53  41.3 117.4  9     0.0000   -1.0000
eoro         S    N    E S      ? 20090714 0100    7.3100 GAU  1.00e-01 -1.00e+00 -1.00e+00 -1.00e+00    1.0000 >   12.0540    0.0718    0.9868   -0.3007  -23.9806   -0.2316   38.1047  33.53  41.3 117.4  9     0.0000   -1.0000
gova         S    Z    E P      ? 20090714 0100    5.0100 GAU  1.00e-01 -1.00e+00 -1.00e+00 -1.00e+00    1.0000 >    9.2642    0.5616    1.0275   34.5716  -16.1186   -0.8120   48.5958  80.32  82.5 103.9  9     0.0000   -1.0000
gova         S    E    E S      ? 20090714 0100   10.2800 GAU  1.00e-01 -1.00e+00 -1.00e+00 -1.00e+00    1.0000 >   15.5639   -0.4681    1.0275   34.5716  -16.1186   -0.8120   48.5958  80.32  82.5 103.9  9     0.0000   -1.0000
END_PHASE
SCATTER Nsamples 5000
  13.8405  -61.4742   20.5278 -2.09e+01
  13.6738  -61.2274   20.0217 -2.09e+01
  14.0078  -60.9702   19.9758 -2.09e+01
  13.6097  -60.9784   20.7097 -2.09e+01
  13.7270  -60.6212   20.5994 -2.09e+01
  13.5063  -61.5467   20.6068 -2.09e+01
  13.9571  -61.4558   19.9806 -2.09e+01
  13.7130  -60.9448   20.0164 -2.09e+01
  13.7816  -60.6948   20.1935 -2.09e+01
  13.6869  -61.6112   20.3517 -2.09e+01
  14.0509  -60.8605   20.7025 -2.09e+01
  13.6636  -61.4750   19.6892 -2.09e+01
  13.5770  -60.9253   20.6053 -2.09e+01
  14.0648  -61.4357   19.7163 -2.09e+01
  13.7676  -61.4512   19.7704 -2.09e+01
  13.6749  -60.6501   20.4171 -2.09e+01
  13.5651  -61.2177   20.0702 -2.09e+01
  13.8789  -61.5325   20.5476 -2.09e+01
  13.7405  -61.5013   19.8304 -2.09e+01
  13.8989  -61.1439   19.7064 -2.09e+01
  13.9106  -60.8830   20.2535 -2.09e+01
  13.9451  -60.5316   19.8786 -2.09e+01
  13.5057  -60.9684   19.9884 -2.09e+01
  13.5958  -61.5181   20.0243 -2.09e+01
  14.0185  -60.5247   20.5605 -2.09e+01
  13.6384  -60.7690   20.5221 -2.09e+01
  13.6666  -60.5208   20.1958 -2.09e+01
  13.8579  -60.9061   19.6847 -2.09e+01
  13.5685  -60.9712   19.9941 -2.09e+01
  13.5711  -60.9786   20.1764 -2.09e+01
  13.8092  -60.6220   19.7460 -2.09e+01
  13.9463  -60.7971   20.6217 -2.09e+01
  14.0480  -61.5189   20.6394 -2.09e+01
  13.5975  -60.9748   20.0861 -2.09e+01
  14.0595  -60.5207   20.7001 -2.09e+01
  13.8368  -60.7145   20.5553 -2.09e+01
  13.6325  -60.9595   20.2576 -2.09e+01
  13.7678  -61.1984   20.0820 -2.09e+01
  13.8065  -60.6966   19.9978 -2.09e+01
  13.9677  -60.6647   20.5854 -2.09e+01
  13.5987  -61.2350   19.9627 -2.09e+01
  13.6865  -61.3534   19.9002 -2.09e+01
  13.8647  -61.2196   20.1549 -2.09e+01
  13.5746  -60.7910   19.9382 -2.09e+01
  13.6781  -61.0823   20.3429 -2.09e+01
  13.9598  -61.3525   20.7146 -2.09e+01
  13.9058  -61.2885   20.1605 -2.09e+01
  13.7540  -60.8017   20.5543 -2.09e+01
  13.5976  -61.4645   20.5766 -2.09e+01
  13.5886  -60.9862   19.6704 -2.09e+01
  13.9232  -60.8593   20.5959 -2.09e+01
  13.9948  -61.4887   19.8089 -2.09e+01
  13.0725  -59.6409   18.2736 -2.09e+01
  13.2591  -60.2535   17.7279 -2.09e+01
  13.4221  -60.0575   18.0540 -2.09e+01
  13.2859  -59.5001   17.9911 -2.09e+01
  13.4707  -59.5908   17.9390 -2.09e+01
  13.2812  -59.9684   18.5685 -2.09e+01
  13.2673  -59.7144   17.8349 -2.09e+01
  13.4368  -59.7125   17.7390 -2.09e+01
  13.1099  -59.5492   17.8561 -2.09e+01
  13.2684  -60.0968   18.1030 -2.09e+01
  13.0342  -59.6246   17.9520 -2.09e+01
  13.0943  -60.1249   17.5124 -2.09e+01
  13.2353  -59.8238   18.4752 -2.09e+01
  13.4601  -60.1781   17.9952 -2.09e+01
  13.0592  -59.8712   17.9882 -2.09e+01
  12.8774  -59.5641   18.2950 -2.09e+01
  13.0885  -60.1339   17.7672 -2.09e+01
  13.4636  -60.2166   17.6413 -2.09e+01
  12.9461  -60.4191   18.0524 -2.09e+01
  13.0474  -60.1402   17.8390 -2.09e+01
  13.3583  -59.7527   18.4522 -2.09e+01
  13.2937  -59.9332   17.8567 -2.09e+01
  13.0251  -60.0014   17.8672 -2.09e+01
  13.4323  -59.4637   18.1704 -2.09e+01
  12.9244  -60.1030   18.3713 -2.09e+01
  13.2203  -60.2700   18.0660 -2.09e+01
  12.9613  -60.1028   17.6045 -2.09e+01
  13.4368  -59.7487   17.8422 -2.09e+01
  13.1312  -59.9185   18.3898 -2.09e+01
  13.2530  -59.9400   18.5553 -2.09e+01
  13.0996  -59.6818   17.9270 -2.09e+01
  13.2039  -59.5035   17.9999 -2.09e+01
  12.9497  -59.4754   17.5443 -2.09e+01
  13.1886  -59.7707   18.4200 -2.09e+01
  13.3111  -59.6022   17.6237 -2.09e+01
  13.0043  -59.9126   18.3651 -2.09e+01
  12.8987  -60.1123   17.8981 -2.09e+01
  13.3539  -60.2134   18.3914 -2.09e+01
  13.4603  -60.1827   17.7171 -2.09e+01
  12.9644  -60.4073   17.5708 -2.09e+01
  13.0142  -59.4568   17.9637 -2.09e+01
  13.4597  -60.1294   18.4581 -2.09e+01
  13.1082  -60.3230   18.1612 -2.09e+01
  12.8904  -59.8317   18.5290 -2.09e+01
  13.2413  -59.9826   18.3459 -2.09e+01
  13.2764  -60.4452   18.1133 -2.09e+01
  12.9252  -60.4527   18.0702 -2.09e+01
  13.2527  -60.1731   18.1523 -2.09e+01
  11.7169  -60.5087   22.0859 -2.10e+01
  11.6884  -59.4889   22.1533 -2.10e+01
  12.1330  -60.2434   22.8756 -2.10e+01
  11.9368  -59.9578   22.2737 -2.10e+01
  12.2313  -59.6679   22.8247 -2.10e+01
  11.8867  -60.2458   21.9305 -2.10e+01
  12.1859  -60.2815   22.8032 -2.10e+01
  11.6770  -60.2582   22.3603 -2.10e+01
  12.2621  -60.2484   22.4985 -2.10e+01
  12.1754  -59.9609   22.0134 -2.10e+01
  11.9884  -59.4679   22.0503 -2.10e+01
  12.1971  -60.2625   21.9205 -2.10e+01
  12.1458  -59.9295   22.8002 -2.10e+01
  12.0490  -59.8988   22.6428 -2.10e+01
  11.7050  -59.5160   21.9325 -2.10e+01
  11.7407  -60.3299   21.8539 -2.10e+01
  12.0569  -60.4262   22.6918 -2.10e+01
  12.2225  -60.2757   22.0109 -2.10e+01
  11.8547  -59.7203   22.0569 -2.10e+01
  11.8011  -59.6303   21.9763 -2.10e+01
  12.0079  -59.7073   22.3938 -2.10e+01
  11.6511  -59.8912   22.1662 -2.10e+01
  11.7746  -59.7683   22.0212 -2.10e+01
  12.1682  -59.9158   22.4780 -2.10e+01
  11.9282  -59.6982   22.3444 -2.10e+01
  11.7186  -60.3434   22.8652 -2.10e+01
  12.1697  -60.4254   21.9630 -2.10e+01
  11.8616  -59.4277   21.8923 -2.10e+01
  11.6602  -60.4314   22.7895 -2.10e+01
  11.6764  -59.9267   22.9103 -2.10e+01
  12.2171  -59.6141   22.2639 -2.10e+01
  11.9511  -59.9598   22.3280 -2.10e+01
  11.8653  -59.5835   22.3063 -2.10e+01
  11.7887  -60.4605   22.7605 -2.10e+01
  11.6590  -60.2080   21.9684 -2.10e+01
  11.9207  -60.3716   22.7795 -2.10e+01
  12.0159  -59.8938   21.8571 -2.10e+01
  12.1021  -60.0276   22.5960 -2.10e+01
  12.1305  -60.0717   21.9480 -2.10e+01
  11.8261  -59.5821   22.5563 -2.10e+01
  11.7854  -59.7264   22.8444 -2.10e+01
  12.1610  -59.7862   22.0035 -2.10e+01
  11.7661  -60.4826   22.8190 -2.10e+01
  12.0986  -60.0696   22.4663 -2.10e+01
  11.7151  -59.9880   22.7359 -2.10e+01
  11.9555  -60.0063   22.8739 -2.10e+01
  11.9006  -59.4839   22.7570 -2.10e+01
  12.5116  -60.0529   18.5921 -2.11e+01
  12.5147  -60.4978   18.6959 -2.11e+01
  12.3180  -60.3842   18.9527 -2.11e+01
  12.5190  -60.0433   19.4703 -2.11e+01
  12.7706  -59.8389   19.1245 -2.11e+01
  12.6237  -59.7547   19.5566 -2.11e+01
  12.2636  -60.3658   19.1404 -2.11e+01
  12.3856  -59.4706   18.9897 -2.11e+01
  12.3476  -59.4847   19.4207 -2.11e+01
  12.3435  -60.1113   18.8241 -2.11e+01
  12.3878  -60.3063   19.1402 -2.11e+01
  12.4538  -59.4091   19.5523 -2.11e+01
  12.3683  -59.7813   18.6940 -2.11e+01
  12.5895  -60.4885   18.6504 -2.11e+01
  12.6305  -59.9145   18.6531 -2.11e+01
  12.5329  -60.5086   18.7519 -2.11e+01
  12.6397  -59.4158   18.7833 -2.11e+01
  12.5273  -60.2432   19.5772 -2.11e+01
  12.5546  -60.4928   19.4982 -2.11e+01
  12.6887  -59.8159   18.6745 -2.11e+01
  12.5677  -60.0553   19.3984 -2.11e+01
  12.8445  -60.0848   19.6426 -2.11e+01
  12.4780  -59.5931   19.2854 -2.11e+01
  12.8178  -59.9674   18.8120 -2.11e+01
  12.5180  -59.4730   18.7798 -2.11e+01
  12.6621  -59.7811   19.4647 -2.11e+01
  12.7487  -59.9490   18.9245 -2.11e+01
  12.4729  -60.2156   19.0246 -2.11e+01
  12.5310  -59.6775   19.3607 -2.11e+01
  12.3461  -60.0486   19.0254 -2.11e+01
  12.6783  -60.3336   19.3033 -2.11e+01
  12.2877  -59.7352   18.9399 -2.11e+01
  12.5783  -60.4106   19.6243 -2.11e+01
  12.6533  -60.4864   18.8643 -2.11e+01
  12.5980  -60.0594   18.7645 -2.11e+01
  12.6563  -59.7785   19.5280 -2.11e+01
  12.4182  -59.7157   19.4417 -2.11e+01
  12.3620  -59.4044   19.3799 -2.11e+01
  12.4954  -60.4942   19.0842 -2.11e+01
  12.3241  -60.1504   19.4515 -2.11e+01
  11.4913  -57.1851   20.7777 -2.12e+01
  11.2575  -57.6868   21.2713 -2.12e+01
  11.1981  -58.2110   21.4729 -2.12e+01
  11.2493  -57.6064   21.0685 -2.12e+01
  11.4313  -57.9006   21.7906 -2.12e+01
  11.6433  -58.0950   20.9601 -2.12e+01
  11.1429  -57.8949   21.7833 -2.12e+01
  11.2366  -57.9902   21.2976 -2.12e+01
  11.3978  -57.5363   21.4924 -2.12e+01
  11.4988  -57.6498   21.7221 -2.12e+01
  11.0879  -57.3370   21.4666 -2.12e+01
  11.0556  -58.1027   20.7994 -2.12e+01
  11.3943  -57.4302   21.4291 -2.12e+01
  11.3438  -57.6379   20.7879 -2.12e+01
  11.1520  -57.3406   21.2346 -2.12e+01
  11.5355  -58.1230   21.5218 -2.12e+01
  11.2496  -58.1365   21.6362 -2.12e+01
  11.5074  -58.2345   20.8139 -2.12e+01
  11.1136  -57.8969   21.1589 -2.12e+01
  11.5149  -58.2073   21.4636 -2.12e+01
  11.0854  -58.2580   20.8861 -2.12e+01
  11.5372  -57.4193   21.2057 -2.12e+01
  11.5150  -57.6409   21.4669 -2.12e+01
  11.6241  -57.3048   20.8732 -2.12e+01
  11.5785  -57.3624   21.5149 -2.12e+01
  11.4586  -57.3252   21.7911 -2.12e+01
  11.2457  -57.9306   21.8035 -2.12e+01
  11.2031  -57.2261   21.7686 -2.12e+01
  11.5456  -57.7675   21.8207 -2.12e+01
  11.4965  -57.3837   21.8134 -2.12e+01
  11.4545  -57.7530   21.6124 -2.12e+01
  11.4296  -57.1984   21.3576 -2.12e+01
  11.5292  -58.0271   21.0750 -2.12e+01
  11.3021  -57.8200   21.8081 -2.12e+01
  11.0855  -57.8539   21.2074 -2.12e+01
  11.4709  -57.2931   21.5539 -2.12e+01
  11.5879  -57.7019   21.3907 -2.12e+01
  11.2099  -57.4139   21.5884 -2.12e+01
  15.1435  -60.1180   15.8993 -2.12e+01
  15.1487  -59.8566   15.8999 -2.12e+01
  15.3244  -60.0975   15.4852 -2.12e+01
  15.2420  -59.5944   16.1582 -2.12e+01
  14.7516  -59.7223   16.1261 -2.12e+01
  14.7889  -59.7876   16.2600 -2.12e+01
  15.2394  -59.4577   15.5056 -2.12e+01
  14.8209  -59.7509   15.6655 -2.12e+01
  15.1586  -60.5118   16.3046 -2.12e+01
  14.7680  -59.6039   15.4931 -2.12e+01
  15.1620  -59.4102   16.3628 -2.12e+01
  15.0829  -59.7441   16.4063 -2.12e+01
  14.9099  -60.3702   16.0668 -2.12e+01
  14.7487  -60.0295   16.1023 -2.12e+01
  15.2400  -60.1732   16.3346 -2.12e+01
  15.1831  -59.9089   16.0024 -2.12e+01
  14.7369  -59.6549   15.4457 -2.12e+01
  15.2338  -60.3510   16.0059 -2.12e+01
  15.2200  -59.7054   15.8038 -2.12e+01
  14.9882  -59.6096   15.8403 -2.12e+01
  14.7792  -59.6002   15.9802 -2.12e+01
  15.1811  -59.7917   15.4751 -2.12e+01
  15.2159  -59.5890   15.8831 -2.12e+01
  14.9532  -60.3940   15.5314 -2.12e+01
  15.2981  -59.5812   15.6943 -2.12e+01
  15.0079  -59.5852   15.6068 -2.12e+01
  14.7776  -60.2682   16.0557 -2.12e+01
  15.2226  -59.9048   15.5782 -2.12e+01
  14.7349  -59.9449   15.9001 -2.12e+01
  14.7474  -59.6196   15.7648 -2.12e+01
  15.3220  -59.7139   15.9646 -2.12e+01
  14.7663  -60.1377   15.3384 -2.12e+01
  15.0016  -59.6267   15.7887 -2.12e+01
  14.9289  -59.4099   16.0346 -2.12e+01
  14.8053  -60.1005   15.4679 -2.12e+01
  15.0642  -59.5404   16.1944 -2.12e+01
  14.7359  -60.0170   15.4734 -2.12e+01
  15.1737  -59.9685   15.3603 -2.12e+01
  12.9566  -59.8835   20.2015 -1.91e+01
  13.1776  -59.4340   19.9285 -1.91e+01
  13.0636  -59.5399   19.9396 -1.91e+01
  13.0072  -59.5397   19.6833 -1.91e+01
  13.1274  -59.4724   20.1098 -1.91e+01
  13.0602  -59.6656   19.8539 -1.91e+01
  13.0269  -59.8997   19.9932 -1.91e+01
  12.9431  -59.7896   19.9816 -1.91e+01
  13.1474  -59.4731   20.0462 -1.91e+01
  13.0569  -59.8782   19.6926 -1.91e+01
  12.9333  -59.4880   19.7408 -1.91e+01
  13.0565  -59.6899   19.9668 -1.91e+01
  12.9416  -59.6115   19.7968 -1.91e+01
  13.0527  -59.8089   20.0037 -1.91e+01
  13.1175  -59.5993   19.9880 -1.91e+01
  13.0048  -59.5572   20.0504 -1.91e+01
  12.8961  -59.6139   20.1683 -1.91e+01
  12.9110  -59.5771   20.0529 -1.91e+01
  12.9739  -59.6320   19.8039 -1.91e+01
  13.0436  -59.7454   19.8953 -1.91e+01
  13.1320  -59.4767   20.1313 -1.91e+01
  12.9784  -59.4801   20.0441 -1.91e+01
  13.0305  -59.6494   20.1788 -1.91e+01
  12.9583  -59.9164   19.9392 -1.91e+01
  12.9413  -59.5610   20.0319 -1.91e+01
  13.0178  -59.7775   19.9342 -1.91e+01
  13.0548  -59.9152   19.7551 -1.91e+01
  12.9337  -59.5450   19.9598 -1.91e+01
  12.9699  -59.7220   19.9916 -1.91e+01
  13.1494  -59.7382   19.7202 -1.91e+01
  13.0285  -59.6580   20.0097 -1.91e+01
  12.9657  -59.6974   19.9168 -1.91e+01
  13.1605  -59.6126   19.7194 -1.91e+01
  13.0585  -59.9494   19.6805 -1.91e+01
  13.0893  -59.6844   20.0167 -1.91e+01
  12.9193  -59.9372   20.1239 -1.91e+01
  13.1170  -59.8534   19.9451 -1.91e+01
  13.3594  -59.4744   19.1884 -1.92e+01
  13.2351  -59.7137   19.4633 -1.92e+01
  13.3617  -59.4311   19.3341 -1.92e+01
  13.3816  -59.7433   19.2706 -1.92e+01
  13.3598  -59.6844   19.2277 -1.92e+01
  13.3709  -59.5499   19.1311 -1.92e+01
  13.2541  -59.9004   19.1955 -1.92e+01
  13.4376  -59.5768   19.1708 -1.92e+01
  13.2093  -59.9144   19.3364 -1.92e+01
  13.2200  -59.6098   19.1707 -1.92e+01
  13.4803  -59.7352   19.4137 -1.92e+01
  13.3631  -59.7828   19.5735 -1.92e+01
  13.3089  -59.8579   19.3828 -1.92e+01
  13.3581  -59.4340   19.4628 -1.92e+01
  13.2145  -59.5864   19.2757 -1.92e+01
  13.4376  -59.7278   19.2127 -1.92e+01
  13.3859  -59.6605   19.4218 -1.92e+01
  13.3615  -59.8306   19.1501 -1.92e+01
  13.2187  -59.6597   19.1349 -1.92e+01
  13.2366  -59.8742   19.2617 -1.92e+01
  13.4153  -59.6339   19.5295 -1.92e+01
  13.3049  -59.4412   19.3070 -1.92e+01
  13.4140  -59.9308   19.5517 -1.92e+01
  13.3111  -59.8276   19.4322 -1.92e+01
  13.2480  -59.5063   19.2805 -1.92e+01
  13.3836  -59.6250   19.4152 -1.92e+01
  13.2106  -59.8741   19.5850 -1.92e+01
  13.2638  -59.6514   19.3782 -1.92e+01
  13.2991  -59.6132   19.2690 -1.92e+01
  13.2794  -59.8701   19.2785 -1.92e+01
  13.2044  -59.7033   19.4585 -1.92e+01
  13.3363  -59.6548   19.2116 -1.92e+01
  13.2642  -59.4217   19.2830 -1.92e+01
  13.3572  -59.5090   19.5467 -1.92e+01
  13.3040  -59.4690   19.1917 -1.92e+01
  12.6474  -59.4204   20.7132 -1.92e+01
  12.8038  -59.8510   20.6342 -1.92e+01
  12.7587  -59.6858   20.6433 -1.92e+01
  12.6322  -59.6188   20.3033 -1.92e+01
  12.6013  -59.5343   20.5132 -1.92e+01
  12.6275  -59.6765   20.4695 -1.92e+01
  12.6592  -59.9079   20.2701 -1.92e+01
  12.6995  -59.5747   20.2988 -1.92e+01
  12.8731  -59.4905   20.4937 -1.92e+01
  12.6736  -59.6313   20.3876 -1.92e+01
  12.6530  -59.6127   20.4853 -1.92e+01
  12.6664  -59.6086   20.6014 -1.92e+01
  12.8460  -59.6706   20.2754 -1.92e+01
  12.6461  -59.5635   20.6752 -1.92e+01
  12.8611  -59.5954   20.4015 -1.92e+01
  12.8621  -59.8602   20.3761 -1.92e+01
  12.6604  -59.7274   20.7464 -1.92e+01
  12.6142  -59.6069   20.3300 -1.92e+01
  12.5764  -59.5422   20.2784 -1.92e+01
  12.6248  -59.9109   20.5279 -1.92e+01
  12.8343  -59.4619   20.7142 -1.92e+01
  12.5984  -59.5103   20.6646 -1.92e+01
  12.8335  -59.4281   20.3413 -1.92e+01
  12.5939  -59.4101   20.4951 -1.92e+01
  12.6537  -59.6457   20.6299 -1.92e+01
  12.5869  -59.9266   20.4524 -1.92e+01
  12.6790  -59.7137   20.6869 -1.92e+01
  12.6124  -59.4746   20.6964 -1.92e+01
  12.5972  -59.8977   20.5240 -1.92e+01
  12.6758  -59.5243   20.3050 -1.92e+01
  12.8334  -59.5940   20.5189 -1.92e+01
  12.8019  -59.5061   20.5850 -1.92e+01
  12.6410  -59.8888   20.3401 -1.92e+01
  12.7666  -59.4819   20.4438 -1.92e+01
  12.2753  -58.9458   20.6642 -1.93e+01
  12.3915  -59.3684   20.6420 -1.93e+01
  12.3219  -58.8966   20.3471 -1.93e+01
  12.3437  -59.0745   20.6209 -1.93e+01
  12.3567  -59.1106   20.6480 -1.93e+01
  12.4366  -58.9515   20.7375 -1.93e+01
  12.5176  -58.9936   20.3117 -1.93e+01
  12.4694  -59.1490   20.4610 -1.93e+01
  12.5133  -58.9932   20.5013 -1.93e+01
  12.5441  -59.0886   20.5950 -1.93e+01
  12.3063  -59.0521   20.4658 -1.93e+01
  12.4676  -58.9523   20.4206 -1.93e+01
  12.3731  -58.9128   20.3689 -1.93e+01
  12.5567  -58.8881   20.2964 -1.93e+01
  12.4460  -58.9285   20.5926 -1.93e+01
  12.4997  -59.1230   20.3488 -1.93e+01
  12.4949  -59.0124   20.4075 -1.93e+01
  12.2690  -59.1339   20.7408 -1.93e+01
  12.3334  -58.8807   20.4358 -1.93e+01
  12.4728  -58.8798   20.5456 -1.93e+01
  12.4838  -59.0532   20.3283 -1.93e+01
  12.2886  -58.8666   20.2693 -1.93e+01
  12.3000  -58.9970   20.6490 -1.93e+01
  12.4406  -59.1124   20.7230 -1.93e+01
  12.4621  -59.2753   20.6880 -1.93e+01
  12.3127  -59.3470   20.6010 -1.93e+01
  12.3568  -59.3705   20.3305 -1.93e+01
  12.5532  -58.9026   20.2525 -1.93e+01
  12.4370  -59.2019   20.3329 -1.93e+01
  12.4540  -59.1621   20.3620 -1.93e+01
  12.2666  -59.3407   20.7486 -1.93e+01
  13.3401  -59.4228   20.0826 -1.93e+01
  13.4082  -59.5011   19.8236 -1.93e+01
  13.4028  -59.5523   19.7524 -1.93e+01
  13.2034  -59.5076   20.1608 -1.93e+01
  13.4279  -59.4446   19.8152 -1.93e+01
  13.2870  -59.7425   19.9640 -1.93e+01
  13.1865  -59.6568   19.9059 -1.93e+01
  13.4290  -59.4137   19.8854 -1.93e+01
  13.3522  -59.4464   20.2043 -1.93e+01
  13.4872  -59.6717   19.6924 -1.93e+01
  13.4229  -59.4028   20.1249 -1.93e+01
  13.4781  -59.6961   20.1894 -1.93e+01
  13.3780  -59.8691   20.0612 -1.93e+01
  13.4019  -59.5733   19.7387 -1.93e+01
  13.2852  -59.9445   19.9992 -1.93e+01
  13.3693  -59.8429   19.7574 -1.93e+01
  13.3705  -59.5344   20.1061 -1.93e+01
  13.2728  -59.8606   19.8810 -1.93e+01
