NLLOC "./3D_reloc_nonlin_latlon_calum_lfe_loc/3D_reloc_nonlin_latlon_calum_lfe.20090512.152000.grid0" "LOCATED" "Location completed."
SIGNATURE "C. Boese VUW   NLLoc:v6.00.0 17May2015 09h58m43"
COMMENT "2008-2009 SAMBA"
GRID  50 90 26  -30 -95 -2  2 2 2 PROB_DENSITY
SEARCH OCTREE nInitial 19200 nEvaluated 20008 smallestNodeSide 0.153125/0.278125/0.270833 oct_tree_integral 4.062584e+00 scatter_volume 4.062584e+00
HYPOCENTER  x 0.395313 y -47.8578 z 27.3854  OT 56.4788  ix -1 iy -1 iz -1
GEOGRAPHIC  OT 2009 05 12  15 19   56.4788  Lat -43.55784938 Long 169.93403828 Depth 27.385417 
QUALITY  Pmax 1.76014e-15 MFmin 2.60666 MFmax 5.00784 RMS 0.363764 Nphs 10 Gap 184.392 Dist 7.51326 Mamp  -9.9 0 Mdur  -9.9 0
VPVSRATIO  VpVsRatio 1.34703  Npair 5  Diff 1.82
STATISTICS  ExpectX 0.451474 Y -47.8095 Z 27.3291  CovXX 0.48243 XY -0.0673545 XZ -0.360651 YY 0.356391 YZ -0.153585 ZZ 0.900216 EllAz1  46.985 Dip1  26.7922 Len1  0.775833 Az2  323.016 Dip2  -11.7543 Len2  1.25632 Len3  1.989608e+00
STAT_GEOG  ExpectLat -43.558 Long 169.935 Depth 27.3291
TRANSFORM  SIMPLE LatOrig -43.301800  LongOrig 170.412000  RotCW -54.000000
QML_OriginQuality  assocPhCt 0  usedPhCt 10  assocStaCt 0  usedStaCt 0  depthPhCt 0  stdErr 0.363764  azGap 184.392  secAzGap 0  gtLevel   minDist 0 maxDist 0 medDist 0
QML_OriginUncertainty  horUnc -1  minHorUnc 0  maxHorUnc 0  azMaxHorUnc 90
FOCALMECH  Hyp  -43.5578 169.934 27.3854 Mech  0 0 0 mf  0 nObs 0
PHASE ID Ins Cmp On Pha  FM Date     HrMn   Sec     Err  ErrMag    Coda      Amp       Per       PriorWt  >   TTpred    Res       Weight    StaLoc(X  Y         Z)        SDist    SAzim  RAz  RDip RQual    Tcorr       TTerr
mtfo         S    N    I P      ? 20090512 1520    0.9100 GAU  1.00e-01 -1.00e+00 -1.00e+00 -1.00e+00    1.0000 >    5.0744   -0.6432    1.2580   -0.4173  -40.3886   -1.2140    7.5133  47.79 122.9 163.7  9     0.0000   -1.0000
mtfo         S    E    I S      ? 20090512 1520    5.3300 GAU  1.00e-01 -1.00e+00 -1.00e+00 -1.00e+00    1.0000 >    8.5250    0.3263    1.1939   -0.4173  -40.3886   -1.2140    7.5133  47.79 122.9 163.7  9     0.0000   -1.0000
FOZ          H    Z    E P      ? 20090512 1520    0.5800 GAU  5.00e-01 -1.00e+00 -1.00e+00 -1.00e+00    1.0000 >    5.0684   -0.9672    0.0732   -7.3876  -54.0466   -0.0540    9.9435 285.51 274.4 158.3  9     0.0000   -1.0000
FOZ          H    E    I S      ? 20090512 1520    5.0700 GAU  1.00e-01 -1.00e+00 -1.00e+00 -1.00e+00    1.0000 >    8.5150    0.0762    1.2016   -7.3876  -54.0466   -0.0540    9.9435 285.51 274.4 158.3  9     0.0000   -1.0000
pocr         S    Z    E P      ? 20090512 1520    3.8000 GAU  1.00e-01 -1.00e+00 -1.00e+00 -1.00e+00    1.0000 >    7.1700    0.1513    1.2621   -7.0189  -18.3619   -0.0950   30.4135  39.89  44.3 129.0  9     0.0000   -1.0000
pocr         S    N    I S      ? 20090512 1520    8.7600 GAU  1.00e-01 -1.00e+00 -1.00e+00 -1.00e+00    1.0000 >   12.0456    0.2357    1.2348   -7.0189  -18.3619   -0.0950   30.4135  39.89  44.3 129.0  9     0.0000   -1.0000
whym         S    Z    E P      ? 20090512 1520    3.0900 GAU  2.00e+00 -1.00e+00 -1.00e+00 -1.00e+00    1.0000 >    7.9225   -1.3113    0.0048   10.6125  -11.7501   -0.9047   37.5254  69.80  72.0 123.0  9     0.0000   -1.0000
whym         S    Z    I S      ? 20090512 1520    9.3300 GAU  1.00e-01 -1.00e+00 -1.00e+00 -1.00e+00    1.0000 >   13.3098   -0.4586    1.2370   10.6125  -11.7501   -0.9047   37.5254  69.80  72.0 123.0  9     0.0000   -1.0000
gova         S    Z    I P      ? 20090512 1520    6.4200 GAU  1.00e-01 -1.00e+00 -1.00e+00 -1.00e+00    1.0000 >    9.5135    0.4277    1.2694   34.5716  -16.1186   -0.8120   46.6412 101.12 105.7 112.7  9     0.0000   -1.0000
gova         S    N    E S      ? 20090512 1520   12.4200 GAU  1.00e-01 -1.00e+00 -1.00e+00 -1.00e+00    1.0000 >   15.9827   -0.0415    1.2651   34.5716  -16.1186   -0.8120   46.6412 101.12 105.7 112.7  9     0.0000   -1.0000
END_PHASE
SCATTER Nsamples 4993
  -0.2473  -48.1994   27.3290 -2.84e+01
  -0.0506  -48.1697   27.3479 -2.84e+01
  -0.0378  -48.0607   27.7328 -2.84e+01
  -0.1554  -47.7808   27.7616 -2.84e+01
  -0.2194  -47.8641   27.2723 -2.84e+01
  -0.0147  -47.9820   27.3462 -2.84e+01
  -0.1733  -47.7722   27.5766 -2.84e+01
  -0.1927  -48.2070   27.3684 -2.84e+01
  -0.2609  -47.9631   27.6661 -2.84e+01
  -0.1029  -47.7470   27.3291 -2.84e+01
  -0.0511  -48.0215   27.7035 -2.84e+01
  -0.2492  -47.9650   27.7712 -2.84e+01
  -0.2681  -47.8097   27.7365 -2.84e+01
  -0.1120  -47.9897   27.6957 -2.84e+01
  -0.1207  -47.7360   27.2545 -2.84e+01
  -0.0275  -48.0408   27.3073 -2.84e+01
  -0.2380  -47.8676   27.7823 -2.84e+01
  -0.0625  -47.8292   27.5913 -2.84e+01
  -0.2337  -47.7807   27.4286 -2.84e+01
  -0.2153  -48.2294   27.6480 -2.84e+01
  -0.2707  -48.2683   27.6444 -2.84e+01
  -0.0805  -47.9975   27.7633 -2.84e+01
   0.0080  -48.2718   27.7062 -2.84e+01
  -0.0286  -48.1005   27.4086 -2.84e+01
  -0.1881  -48.1105   27.7710 -2.84e+01
  -0.0826  -47.7757   27.6531 -2.84e+01
  -0.1856  -47.7423   27.4204 -2.84e+01
  -0.0847  -48.1386   27.2825 -2.84e+01
  -0.1219  -47.7265   27.7302 -2.84e+01
  -0.2418  -47.8856   27.7557 -2.84e+01
  -0.2393  -47.8706   27.4748 -2.84e+01
  -0.2561  -47.9007   27.7396 -2.84e+01
  -0.2354  -47.9824   27.5304 -2.84e+01
  -0.0040  -48.2583   27.2745 -2.84e+01
  -0.1501  -48.2013   27.3362 -2.84e+01
  -0.2725  -48.1998   27.4462 -2.84e+01
  -0.2488  -47.8895   27.6826 -2.84e+01
  -0.0033  -47.9023   27.4586 -2.84e+01
  -0.2558  -48.1451   27.4588 -2.84e+01
  -0.2817  -47.8313   27.3291 -2.84e+01
  -0.1665  -48.1472   27.7408 -2.84e+01
  -0.1940  -48.2263   27.3485 -2.84e+01
  -0.2548  -47.8969   27.5577 -2.84e+01
  -0.2572  -47.9701   27.4801 -2.84e+01
  -0.0312  -48.0797   27.5452 -2.84e+01
  -0.0981  -48.2043   27.5079 -2.84e+01
  -0.1921  -48.0166   27.3031 -2.84e+01
  -0.0460  -47.9525   27.5113 -2.84e+01
  -0.1488  -48.1169   27.5620 -2.84e+01
  -0.1273  -47.9064   27.2572 -2.84e+01
  -0.0965  -47.7698   27.6338 -2.84e+01
  -0.1907  -47.7716   27.5266 -2.84e+01
  -0.2325  -48.1443   27.5389 -2.84e+01
  -0.0608  -47.9232   27.2515 -2.84e+01
  -0.1846  -48.0404   27.2617 -2.84e+01
  -0.0237  -47.7923   27.5632 -2.84e+01
  -0.0122  -47.7523   27.7904 -2.84e+01
  -0.2129  -48.0995   27.4376 -2.84e+01
  -0.2225  -47.5013   27.9070 -2.84e+01
  -0.2244  -47.1884   27.9308 -2.84e+01
  -0.2645  -47.3707   27.9821 -2.84e+01
  -0.0405  -47.7114   27.8322 -2.84e+01
  -0.2304  -47.3813   27.8251 -2.84e+01
  -0.2354  -47.2190   27.9859 -2.84e+01
  -0.2235  -47.3566   28.1952 -2.84e+01
  -0.1209  -47.4379   27.8545 -2.84e+01
  -0.2906  -47.4854   28.0956 -2.84e+01
  -0.0159  -47.5122   28.2185 -2.84e+01
   0.0056  -47.1907   28.2895 -2.84e+01
  -0.2230  -47.5794   28.1164 -2.84e+01
  -0.0545  -47.3739   28.2926 -2.84e+01
  -0.2336  -47.2289   28.3113 -2.84e+01
  -0.2296  -47.5553   27.9893 -2.84e+01
  -0.2604  -47.2032   27.8038 -2.84e+01
  -0.2034  -47.3873   28.0519 -2.84e+01
  -0.1048  -47.6740   27.9647 -2.84e+01
  -0.1747  -47.4972   28.0285 -2.84e+01
  -0.2652  -47.3692   27.9498 -2.84e+01
  -0.2147  -47.5059   27.8218 -2.84e+01
  -0.2835  -47.5581   28.1588 -2.84e+01
  -0.0447  -47.6850   28.0406 -2.84e+01
  -0.0788  -47.4750   28.3010 -2.84e+01
  -0.0623  -47.2782   28.3170 -2.84e+01
  -0.0476  -47.3048   28.1898 -2.84e+01
  -0.2519  -47.2682   28.0457 -2.84e+01
  -0.0243  -47.2143   28.2515 -2.84e+01
  -0.1338  -47.3959   28.0070 -2.84e+01
  -0.0964  -47.6758   27.9027 -2.84e+01
  -0.1877  -47.5586   27.8667 -2.84e+01
  -0.0196  -47.5641   27.8416 -2.84e+01
  -0.2440  -47.3529   28.2701 -2.84e+01
  -0.2857  -47.5806   27.8094 -2.84e+01
  -0.1253  -47.6585   28.1128 -2.84e+01
   0.0002  -47.2432   27.9648 -2.84e+01
  -0.2927  -47.3564   28.0715 -2.84e+01
  -0.2857  -47.1970   28.0317 -2.84e+01
  -0.0032  -47.5804   27.8916 -2.84e+01
  -0.2750  -47.5636   28.2567 -2.84e+01
  -0.0859  -47.3870   27.9727 -2.84e+01
  -0.0516  -47.3563   28.1824 -2.84e+01
  -0.0372  -47.6629   28.1786 -2.84e+01
  -0.2723  -47.5280   28.1129 -2.84e+01
  -0.2155  -47.3455   27.8901 -2.84e+01
  -0.1635  -47.3877   27.9276 -2.84e+01
  -0.1654  -47.5907   27.9576 -2.84e+01
  -0.2480  -47.3284   27.8516 -2.84e+01
  -0.2469  -47.1792   27.9120 -2.84e+01
  -0.2762  -47.5240   27.9726 -2.84e+01
  -0.2471  -47.4626   27.9794 -2.84e+01
  -0.2872  -47.5986   28.0460 -2.84e+01
  -0.2530  -47.3325   27.9030 -2.84e+01
  -0.2269  -47.5019   28.0556 -2.84e+01
   0.0054  -47.5544   28.1974 -2.84e+01
  -0.0053  -47.5937   28.2829 -2.84e+01
   0.2340  -47.9635   26.7224 -2.85e+01
   0.1671  -47.8158   26.9409 -2.85e+01
   0.2375  -48.0216   26.9947 -2.85e+01
   0.1897  -47.8245   26.9103 -2.85e+01
   0.0767  -47.8633   26.8139 -2.85e+01
   0.1933  -47.9451   26.9803 -2.85e+01
   0.2897  -48.2474   27.0836 -2.85e+01
   0.1179  -47.9011   27.2120 -2.85e+01
   0.0998  -48.1978   26.8876 -2.85e+01
   0.1998  -47.8097   27.1874 -2.85e+01
   0.1886  -47.7702   26.7807 -2.85e+01
   0.2743  -48.0694   27.1549 -2.85e+01
   0.1612  -48.1252   27.2429 -2.85e+01
   0.2108  -48.1112   26.8073 -2.85e+01
   0.0415  -47.9303   26.9514 -2.85e+01
   0.3018  -48.2260   27.0708 -2.85e+01
   0.1811  -47.7624   26.8202 -2.85e+01
   0.2318  -47.7806   27.1262 -2.85e+01
   0.2247  -48.2285   27.1938 -2.85e+01
   0.1206  -48.1480   27.1105 -2.85e+01
   0.1902  -48.1485   26.7876 -2.85e+01
   0.0602  -48.0251   26.8899 -2.85e+01
   0.0855  -47.7238   26.7453 -2.85e+01
   0.2289  -47.7568   26.7511 -2.85e+01
   0.2933  -47.9728   26.9052 -2.85e+01
   0.2400  -47.7371   27.0214 -2.85e+01
   0.1217  -47.7313   27.1085 -2.85e+01
   0.3153  -48.1257   27.0837 -2.85e+01
   0.1054  -48.1926   26.8344 -2.85e+01
   0.2516  -48.2653   27.1192 -2.85e+01
   0.0883  -48.1931   27.0023 -2.85e+01
   0.1209  -48.0269   27.0687 -2.85e+01
   0.2657  -48.2242   26.9783 -2.85e+01
   0.1710  -47.8857   26.9247 -2.85e+01
   0.2640  -48.0759   26.9182 -2.85e+01
   0.0367  -47.7417   27.1558 -2.85e+01
   0.1552  -47.9775   27.2015 -2.85e+01
   0.0257  -48.1227   27.2345 -2.85e+01
   0.0391  -47.9043   27.1646 -2.85e+01
   0.1140  -47.9444   26.8675 -2.85e+01
   0.1533  -48.2559   27.0352 -2.85e+01
   0.2461  -47.9412   27.1880 -2.85e+01
   0.1897  -47.9227   26.8182 -2.85e+01
   0.2341  -47.9209   26.8169 -2.85e+01
   0.0408  -48.2598   27.0159 -2.85e+01
   0.1105  -47.7745   27.2357 -2.85e+01
   0.2044  -48.2110   26.8323 -2.85e+01
   0.2803  -47.8535   27.2401 -2.85e+01
   0.2840  -47.7226   26.7749 -2.85e+01
   0.2418  -48.2000   27.0268 -2.85e+01
   0.1465  -47.9678   27.0874 -2.85e+01
   0.2583  -48.1964   27.1978 -2.85e+01
   0.2314  -48.1796   27.2443 -2.85e+01
   0.2182  -48.2292   26.8506 -2.85e+01
   0.0382  -47.9800   26.8034 -2.85e+01
   0.2627  -47.7317   26.7720 -2.85e+01
  -0.1815  -46.3927   27.5917 -3.06e+01
  -0.1942  -46.9076   27.9551 -3.06e+01
  -0.5986  -46.2109   27.4323 -3.06e+01
  -0.1298  -46.7464   27.9314 -3.06e+01
  -0.4105  -46.9876   28.1692 -3.06e+01
  -0.1481  -46.8471   27.6594 -3.06e+01
   0.0031  -46.5195   27.9203 -3.06e+01
  -0.3371  -46.9847   27.4159 -3.06e+01
  -0.3795  -46.1607   28.2710 -3.06e+01
  -0.0049  -46.0889   27.7692 -3.06e+01
  -0.4790  -47.1071   27.9911 -3.06e+01
  -0.5280  -46.6677   27.4069 -3.06e+01
  -0.0526  -46.2142   27.5345 -3.06e+01
  -0.2938  -46.7912   27.4393 -3.06e+01
  -0.5100  -46.5211   28.2831 -3.06e+01
  -0.4661  -47.0625   27.8507 -3.06e+01
  -0.4240  -46.3032   28.0118 -3.06e+01
  -0.1638  -46.7037   27.3728 -3.06e+01
  -0.3231  -46.9039   27.5369 -3.06e+01
  -0.5786  -46.2016   28.1620 -3.06e+01
  -0.5014  -46.5410   27.2945 -3.06e+01
  -0.2746  -46.3670   27.9116 -3.06e+01
  -0.4245  -46.1568   28.0885 -3.06e+01
  -0.5223  -46.5975   28.0926 -3.06e+01
  -0.0478  -46.4611   27.6568 -3.06e+01
  -0.3027  -46.1634   27.7162 -3.06e+01
  -0.3113  -46.9723   27.5858 -3.06e+01
  -0.5165  -46.6662   28.0451 -3.06e+01
   0.0078  -46.9344   28.0931 -3.06e+01
  -0.2460  -46.4231   27.5412 -3.06e+01
  -0.1246  -46.2170   28.3043 -3.06e+01
  -0.1395  -46.0833   27.3416 -3.06e+01
  -0.0475  -46.1736   27.7463 -3.06e+01
  -0.0720  -47.1091   27.4674 -3.06e+01
  -0.1554  -46.9928   27.4580 -3.06e+01
  -0.0871  -46.9801   27.7717 -3.06e+01
  -0.5492  -46.2648   27.8768 -3.06e+01
  -0.1804  -46.7941   27.4602 -3.06e+01
  -0.0376  -46.4155   27.7192 -3.06e+01
  -0.1885  -46.3550   27.6177 -3.06e+01
   0.0059  -46.5331   28.2881 -3.06e+01
  -0.0187  -46.7613   27.9944 -3.06e+01
  -0.0617  -46.2335   27.2816 -3.06e+01
  -0.4149  -46.9344   27.7042 -3.06e+01
  -0.4948  -46.9501   27.7408 -3.06e+01
  -0.1135  -47.0945   27.5878 -3.06e+01
  -0.0098  -47.0896   27.9365 -3.06e+01
  -0.0697  -46.2025   27.7037 -3.06e+01
  -0.4573  -46.2991   28.1757 -3.06e+01
  -0.2831  -46.9073   27.9261 -3.06e+01
  -0.2676  -46.8471   28.2321 -3.06e+01
  -0.1435  -46.7229   27.5617 -3.06e+01
   0.9604  -47.9288   27.4501 -2.86e+01
   1.0414  -47.8269   27.7290 -2.86e+01
   0.9661  -47.7337   27.5462 -2.86e+01
   1.0344  -47.7678   27.4107 -2.86e+01
   1.1180  -47.9722   27.3008 -2.86e+01
   1.1022  -47.7973   27.5833 -2.86e+01
   0.9665  -47.8771   27.5188 -2.86e+01
   1.0035  -47.7614   27.2525 -2.86e+01
   0.9335  -48.1184   27.4625 -2.86e+01
   1.2092  -47.8148   27.2765 -2.86e+01
   1.0424  -48.2749   27.3237 -2.86e+01
   0.9334  -48.1892   27.7798 -2.86e+01
   1.0113  -48.1311   27.3612 -2.86e+01
   1.1873  -47.9307   27.6043 -2.86e+01
   1.1902  -48.1896   27.3931 -2.86e+01
   0.9474  -47.7738   27.3179 -2.86e+01
   1.1514  -47.9422   27.2877 -2.86e+01
   0.9718  -47.9220   27.3436 -2.86e+01
   1.1192  -48.1996   27.3975 -2.86e+01
   1.2266  -48.1634   27.3364 -2.86e+01
   1.1611  -47.7947   27.5157 -2.86e+01
   1.1222  -47.7999   27.5213 -2.86e+01
   1.0164  -47.9729   27.4502 -2.86e+01
   1.1810  -48.1764   27.7381 -2.86e+01
   1.0779  -48.1795   27.7131 -2.86e+01
   1.0724  -47.7877   27.5058 -2.86e+01
   1.1737  -47.9960   27.4134 -2.86e+01
   1.0527  -47.7352   27.5269 -2.86e+01
   1.1514  -48.1549   27.3651 -2.86e+01
   1.2041  -47.9763   27.3861 -2.86e+01
   1.2172  -47.7773   27.2582 -2.86e+01
   1.1515  -47.8788   27.4851 -2.86e+01
   0.9927  -47.8354   27.3189 -2.86e+01
   1.1007  -47.8664   27.6889 -2.86e+01
   1.2067  -48.1509   27.6914 -2.86e+01
   1.0131  -47.8186   27.3413 -2.86e+01
   1.0549  -47.8534   27.5493 -2.86e+01
   1.0043  -48.0251   27.4699 -2.86e+01
   1.0917  -47.7709   27.4785 -2.86e+01
   1.0695  -48.1914   27.4111 -2.86e+01
   0.9792  -47.7359   27.7837 -2.86e+01
   1.1977  -47.7853   27.3237 -2.86e+01
   0.9649  -47.7817   27.3900 -2.86e+01
   0.9570  -47.8179   27.2979 -2.86e+01
   1.2199  -47.9965   27.7258 -2.86e+01
   0.9901  -47.7435   27.5765 -2.86e+01
   1.1278  -47.8655   27.3324 -2.86e+01
   1.0795  -48.0667   27.7292 -2.86e+01
   1.2004  -47.8757   27.3025 -2.86e+01
  -0.2804  -47.4483   26.9526 -2.86e+01
  -0.0949  -47.4516   26.8243 -2.86e+01
  -0.1253  -47.5930   27.1182 -2.86e+01
  -0.0507  -47.6592   26.8255 -2.86e+01
  -0.2849  -47.5275   27.0448 -2.86e+01
  -0.2580  -47.4007   26.7085 -2.86e+01
  -0.1883  -47.2824   27.0609 -2.86e+01
  -0.0115  -47.4833   26.9920 -2.86e+01
  -0.1432  -47.1920   27.0698 -2.86e+01
  -0.1245  -47.6026   26.9633 -2.86e+01
  -0.2377  -47.2549   26.7198 -2.86e+01
  -0.1258  -47.6860   27.0046 -2.86e+01
  -0.1458  -47.2990   26.8119 -2.86e+01
   0.0107  -47.3097   27.1315 -2.86e+01
  -0.0167  -47.6962   26.7675 -2.86e+01
  -0.1346  -47.5795   27.1233 -2.86e+01
  -0.2470  -47.5322   26.9460 -2.86e+01
  -0.0977  -47.1737   26.7959 -2.86e+01
  -0.0489  -47.5479   26.7144 -2.86e+01
  -0.0687  -47.6688   27.0442 -2.86e+01
  -0.0251  -47.2248   26.7294 -2.86e+01
  -0.0178  -47.6696   27.1813 -2.86e+01
  -0.0390  -47.4539   27.0287 -2.86e+01
   0.0035  -47.1803   26.7104 -2.86e+01
  -0.1278  -47.5701   27.2138 -2.86e+01
  -0.2202  -47.5312   26.7606 -2.86e+01
   0.0027  -47.4789   27.0540 -2.86e+01
  -0.1217  -47.4997   26.7757 -2.86e+01
  -0.0816  -47.4002   26.9761 -2.86e+01
  -0.1860  -47.4991   27.0132 -2.86e+01
  -0.1015  -47.3743   26.7382 -2.86e+01
  -0.2176  -47.4222   26.8261 -2.86e+01
  -0.1035  -47.7038   26.7848 -2.86e+01
  -0.1089  -47.3774   27.1338 -2.86e+01
  -0.1111  -47.5011   26.9725 -2.86e+01
  -0.0070  -47.3270   27.1460 -2.86e+01
  -0.2733  -47.5862   26.8439 -2.86e+01
  -0.2593  -47.3844   26.8736 -2.86e+01
  -0.2122  -47.5883   26.9252 -2.86e+01
  -0.2464  -47.7178   26.7289 -2.86e+01
  -0.0681  -47.6531   27.1751 -2.86e+01
   0.0044  -47.5387   27.2500 -2.86e+01
  -0.1331  -47.4914   27.1588 -2.86e+01
  -0.2720  -47.3577   26.9800 -2.86e+01
   0.0074  -47.5153   27.2074 -2.86e+01
  -0.2927  -47.4586   27.0165 -2.86e+01
  -0.1032  -47.4774   27.2080 -2.86e+01
  -0.0231  -47.6862   26.7996 -2.86e+01
  -0.1337  -48.0205   28.3636 -2.86e+01
  -0.0655  -48.0661   28.4738 -2.86e+01
  -0.1387  -48.0336   28.8183 -2.86e+01
  -0.0813  -47.8514   28.6779 -2.86e+01
   0.0123  -47.8355   28.8059 -2.86e+01
  -0.1998  -47.9816   28.6199 -2.86e+01
  -0.1817  -47.9334   28.7146 -2.86e+01
  -0.2457  -48.2445   28.5851 -2.86e+01
   0.0109  -48.2332   28.4114 -2.86e+01
  -0.2645  -48.1859   28.3927 -2.86e+01
  -0.0664  -48.0042   28.3551 -2.86e+01
  -0.2736  -48.0418   28.3374 -2.86e+01
  -0.1888  -48.2479   28.6274 -2.86e+01
  -0.1070  -48.1742   28.5198 -2.86e+01
  -0.2733  -48.0265   28.5848 -2.86e+01
  -0.0638  -47.8853   28.7444 -2.86e+01
  -0.2371  -47.8157   28.5471 -2.86e+01
  -0.1478  -47.8886   28.4595 -2.86e+01
  -0.2793  -48.0524   28.6274 -2.86e+01
  -0.0126  -48.2407   28.6326 -2.86e+01
  -0.1969  -47.7859   28.5490 -2.86e+01
  -0.2681  -48.1169   28.8160 -2.86e+01
  -0.2071  -48.0781   28.5433 -2.86e+01
  -0.2133  -47.7965   28.7984 -2.86e+01
  -0.0038  -48.1566   28.4686 -2.86e+01
  -0.2645  -47.9849   28.6782 -2.86e+01
  -0.1924  -47.8737   28.6272 -2.86e+01
  -0.0451  -48.1608   28.8454 -2.86e+01
  -0.0484  -48.0403   28.8184 -2.86e+01
  -0.1040  -48.1710   28.6592 -2.86e+01
  -0.0683  -47.7963   28.5036 -2.86e+01
  -0.2101  -47.7959   28.8607 -2.86e+01
  -0.0322  -48.0168   28.4678 -2.86e+01
  -0.0147  -47.7267   28.3541 -2.86e+01
  -0.1396  -47.9363   28.8720 -2.86e+01
  -0.0414  -47.8230   28.4956 -2.86e+01
  -0.0534  -48.1759   28.5014 -2.86e+01
  -0.2465  -47.9110   28.6098 -2.86e+01
  -0.0798  -47.9421   28.6382 -2.86e+01
  -0.2163  -47.9738   28.5619 -2.86e+01
  -0.1210  -47.7282   28.3902 -2.86e+01
  -0.1420  -47.8418   28.7916 -2.86e+01
  -0.2040  -47.8336   28.8111 -2.86e+01
  -0.2903  -47.7838   28.8254 -2.86e+01
  -0.2049  -48.2711   28.3965 -2.86e+01
  -0.1094  -48.2641   28.6917 -2.86e+01
  -0.1555  -47.9181   28.8700 -2.86e+01
   0.7257  -47.3834   27.3980 -2.86e+01
   0.8257  -47.2201   27.6472 -2.86e+01
   0.7388  -47.6734   27.4591 -2.86e+01
   0.7377  -47.5537   27.6582 -2.86e+01
   0.6758  -47.3607   27.3585 -2.86e+01
   0.6670  -47.6691   27.5844 -2.86e+01
   0.7042  -47.2589   27.6619 -2.86e+01
   0.8507  -47.5859   27.4380 -2.86e+01
   0.9194  -47.2151   27.7239 -2.86e+01
   0.6254  -47.6732   27.6754 -2.86e+01
   0.8997  -47.4795   27.2570 -2.86e+01
   0.8743  -47.5036   27.7882 -2.86e+01
   0.7283  -47.1927   27.4152 -2.86e+01
   0.9248  -47.5264   27.7761 -2.86e+01
   0.6770  -47.5716   27.6175 -2.86e+01
   0.8875  -47.1849   27.4196 -2.86e+01
   0.8673  -47.2272   27.7505 -2.86e+01
   0.8147  -47.6533   27.4799 -2.86e+01
   0.7987  -47.3873   27.7898 -2.86e+01
   0.7179  -47.2063   27.6799 -2.86e+01
   0.9168  -47.5424   27.5517 -2.86e+01
   0.7434  -47.3276   27.6338 -2.86e+01
   0.6886  -47.3898   27.4108 -2.86e+01
   0.8080  -47.5268   27.4702 -2.86e+01
   0.8942  -47.5759   27.7744 -2.86e+01
   0.7377  -47.6362   27.4194 -2.86e+01
   0.9254  -47.3752   27.6766 -2.86e+01
   0.6901  -47.6758   27.5650 -2.86e+01
   0.7695  -47.5511   27.5080 -2.86e+01
   0.6775  -47.5431   27.5106 -2.86e+01
   0.6604  -47.5119   27.5737 -2.86e+01
   0.8346  -47.1811   27.5383 -2.86e+01
   0.6700  -47.3648   27.4457 -2.86e+01
   0.9278  -47.4721   27.4857 -2.86e+01
