NLLOC "./3D_reloc_nonlin_latlon_calum_lfe_loc/3D_reloc_nonlin_latlon_calum_lfe.20100831.164109.grid0" "LOCATED" "Location completed."
SIGNATURE "C. Boese VUW   NLLoc:v6.00.0 17May2015 09h58m44"
COMMENT "2008-2009 SAMBA"
GRID  50 90 26  -30 -95 -2  2 2 2 PROB_DENSITY
SEARCH OCTREE nInitial 19200 nEvaluated 20040 smallestNodeSide 0.153125/0.278125/0.270833 oct_tree_integral 8.593650e+00 scatter_volume 8.560038e+00
HYPOCENTER  x 14.0234 y -51.7516 z 14.1146  OT 6.22819  ix -1 iy -1 iz -1
GEOGRAPHIC  OT 2010 08 31  16 41   6.22819  Lat -43.67767604 Long 169.99356674 Depth 14.114583 
QUALITY  Pmax 9.20359e-43 MFmin 4.39981 MFmax 6.11609 RMS 0.607623 Nphs 10 Gap 233.911 Dist 7.46406 Mamp  -9.9 0 Mdur  -9.9 0
VPVSRATIO  VpVsRatio 0.5  Npair 2  Diff 303180
STATISTICS  ExpectX 13.4617 Y -51.5896 Z 15.0609  CovXX 0.817795 XY -0.306622 XZ -1.20708 YY 0.508691 YZ 0.11801 ZZ 3.2052 EllAz1  53.7145 Dip1  16.4685 Len1  0.727669 Az2  328.572 Dip2  -15.9845 Len2  1.52225 Len3  3.626307e+00
STAT_GEOG  ExpectLat -43.6727 Long 169.991 Depth 15.0609
TRANSFORM  SIMPLE LatOrig -43.301800  LongOrig 170.412000  RotCW -54.000000
QML_OriginQuality  assocPhCt 11  usedPhCt 10  assocStaCt -1  usedStaCt 9  depthPhCt -1  stdErr 0.607623  azGap 233.911  secAzGap 263.713  gtLevel -  minDist 7.46406 maxDist 40.6292 medDist 26.0063
QML_OriginUncertainty  horUnc -1  minHorUnc 0.857733  maxHorUnc 1.52158  azMaxHorUnc 121.625
FOCALMECH  Hyp  -43.6777 169.994 14.1146 Mech  0 0 0 mf  0 nObs 0
PHASE ID Ins Cmp On Pha  FM Date     HrMn   Sec     Err  ErrMag    Coda      Amp       Per  >   TTpred    Res       Weight    StaLoc(X  Y         Z)        SDist    SAzim  RAz  RDip RQual    Tcorr 
cova   S    Z    I P      ? 20100831 1641      9.72 GAU         1        -1        -1        -1 >    2.9754    0.5165    0.0235    6.9975  -49.2319   -1.4760    7.4641 343.73 350.4 151.6  9     0.0000
cova   S    E    E S      9 20100831 10054     13.58 GAU     1e+05        -1        -1        -1 >    4.9986 303182.3532    0.0000    6.9975  -49.2319   -1.4760    7.4641 343.73 350.4 151.6  9     0.0000
mtfo   S    E    E S      ? 20100831 1641      13.3 GAU       0.1        -1        -1        -1 >    6.9125    0.1593    1.1705   -0.4173  -40.3886   -1.2140   18.3753   2.20   4.5 128.4  9     0.0000
FOZ    H    N    E S      ? 20100831 1641     13.75 GAU       0.1        -1        -1        -1 >    7.4086    0.1132    1.4358   -7.3876  -54.0466   -0.0540   21.5337 317.88 315.7 120.6  9     0.0000
labe   S    Z    I P      ? 20100831 1641     10.54 GAU         1        -1        -1        -1 >    5.0711   -0.7593    0.0235   14.0967  -26.8503   -1.5878   24.9014  54.17  52.2 113.0  9     0.0000
labe   S    N    I S      ? 20100831 1641     14.83 GAU       0.1        -1        -1        -1 >    8.5194    0.0824    1.3581   14.0967  -26.8503   -1.5878   24.9014  54.17  52.2 113.0  9     0.0000
cosa   S    E    I S      ? 20100831 1641     14.38 GAU       0.1        -1        -1        -1 >    8.3234   -0.1716    1.0448   -3.5414  -32.5734   -0.3756   26.0063  11.51  15.6 116.4  9     0.0000
fran   S    N    E S      ? 20100831 1641     15.91 GAU       0.1        -1        -1        -1 >   10.7880   -1.1062    0.9842   -4.9003  -21.5517   -0.0310   35.6390  21.93  26.4 111.0  9     0.0000
whym   S    Z    I S      ? 20100831 1641      19.6 GAU       0.1        -1        -1        -1 >   12.1239    1.2479    1.3431   10.6125  -11.7501   -0.9047   40.1466  49.13  45.6 104.3  9     0.0000
pocr2  S    2    E S      ? 20100831 1641     17.98 GAU       0.1        -1        -1        -1 >   12.1245   -0.3727    1.1172   -4.4782  -15.5795   -0.1390   40.6292  26.91  30.9 109.5  9     0.0000
gova   S    N    E S      ? 20100831 1641     19.27 GAU       0.1        -1        -1        -1 >   13.3398   -0.2980    1.4993   34.5716  -16.1186   -0.8120   41.1331  83.97  85.0  97.0  9     0.0000
END_PHASE
END_NLLOC

