NLLOC "./3D_reloc_nonlin_latlon_calum_lfe_loc/3D_reloc_nonlin_latlon_calum_lfe.20090512.152353.grid0" "LOCATED" "Location completed."
SIGNATURE "C. Boese VUW   NLLoc:v6.00.0 17May2015 09h58m43"
COMMENT "2008-2009 SAMBA"
GRID  50 90 26  -30 -95 -2  2 2 2 PROB_DENSITY
SEARCH OCTREE nInitial 19200 nEvaluated 20000 smallestNodeSide 0.153125/0.278125/0.270833 oct_tree_integral 5.420388e+00 scatter_volume 5.410991e+00
HYPOCENTER  x 17.6984 y -47.3016 z 22.5104  OT 47.0079  ix -1 iy -1 iz -1
GEOGRAPHIC  OT 2009 05 12  15 23   47.0079  Lat -43.68089348 Long 170.06522891 Depth 22.510417 
QUALITY  Pmax 4.10028e-81 MFmin 6.80254 MFmax 8.41565 RMS 0.842988 Nphs 8 Gap 226.533 Dist 19.3899 Mamp  -9.9 0 Mdur  -9.9 0
VPVSRATIO  VpVsRatio 4.49996  Npair 3  Diff 3.89
STATISTICS  ExpectX 17.5859 Y -47.2264 Z 22.5965  CovXX 0.474681 XY -0.222854 XZ -0.490291 YY 0.413587 YZ 0.067885 ZZ 1.72064 EllAz1  51.2869 Dip1  12.2881 Len1  0.749632 Az2  324.878 Dip2  -16.0413 Len2  1.38891 Len3  2.591991e+00
STAT_GEOG  ExpectLat -43.6797 Long 170.065 Depth 22.5965
TRANSFORM  SIMPLE LatOrig -43.301800  LongOrig 170.412000  RotCW -54.000000
QML_OriginQuality  assocPhCt 0  usedPhCt 8  assocStaCt 0  usedStaCt 0  depthPhCt 0  stdErr 0.842988  azGap 226.533  secAzGap 0  gtLevel   minDist 0 maxDist 0 medDist 0
QML_OriginUncertainty  horUnc -1  minHorUnc 0  maxHorUnc 0  azMaxHorUnc 90
FOCALMECH  Hyp  -43.6809 170.065 22.5104 Mech  0 0 0 mf  0 nObs 0
PHASE ID Ins Cmp On Pha  FM Date     HrMn   Sec     Err  ErrMag    Coda      Amp       Per       PriorWt  >   TTpred    Res       Weight    StaLoc(X  Y         Z)        SDist    SAzim  RAz  RDip RQual    Tcorr       TTerr
mtfo         S    Z    E P      ? 20090512 1523   53.1600 GAU  1.00e-01 -1.00e+00 -1.00e+00 -1.00e+00    1.0000 >    5.1471    1.0050    1.0173   -0.4173  -40.3886   -1.2140   19.3899 344.89 351.8 144.3  9     0.0000   -1.0000
mtfo         S    E    E S      ? 20090512 1523   54.9200 GAU  1.00e-01 -1.00e+00 -1.00e+00 -1.00e+00    1.0000 >    8.6472   -0.7351    0.9622   -0.4173  -40.3886   -1.2140   19.3899 344.89 351.8 144.3  9     0.0000   -1.0000
FOZ          H    E    E S      ? 20090512 1523   57.0300 GAU  1.00e-01 -1.00e+00 -1.00e+00 -1.00e+00    1.0000 >    9.7020    0.3200    0.9685   -7.3876  -54.0466   -0.0540   25.9770 308.95 306.9 131.6  9     0.0000   -1.0000
gova         S    Z    E P      ? 20090512 1523   53.8900 GAU  1.00e-01 -1.00e+00 -1.00e+00 -1.00e+00    1.0000 >    7.4768   -0.5947    1.0231   34.5716  -16.1186   -0.8120   35.4553  82.42  82.1 118.3  9     0.0000   -1.0000
gova         S    N    E S      ? 20090512 1523   59.5400 GAU  1.00e-01 -1.00e+00 -1.00e+00 -1.00e+00    1.0000 >   12.5610   -0.0289    1.0196   34.5716  -16.1186   -0.8120   35.4553  82.42  82.1 118.3  9     0.0000   -1.0000
whym         S    N    E S      ? 20090512 1524    0.5800 GAU  1.00e-01 -1.00e+00 -1.00e+00 -1.00e+00    1.0000 >   12.0098    1.5622    0.9970   10.6125  -11.7501   -0.9047   36.2508  42.73  43.5 120.1  9     0.0000   -1.0000
pocr         S    Z    E P      ? 20090512 1523   53.8300 GAU  1.00e-01 -1.00e+00 -1.00e+00 -1.00e+00    1.0000 >    7.4227   -0.6006    1.0173   -7.0189  -18.3619   -0.0950   38.0585  13.50  21.0 123.2  9     0.0000   -1.0000
pocr         S    N    E S      ? 20090512 1523   58.5400 GAU  1.00e-01 -1.00e+00 -1.00e+00 -1.00e+00    1.0000 >   12.4701   -0.9380    0.9952   -7.0189  -18.3619   -0.0950   38.0585  13.50  21.0 123.2  9     0.0000   -1.0000
END_PHASE
SCATTER Nsamples 5000
  17.9182  -47.6945   22.9573 -1.79e+02
  17.8728  -47.4199   23.0384 -1.79e+02
  17.9315  -47.7104   23.0451 -1.79e+02
  17.9604  -47.2345   23.0280 -1.79e+02
  17.8509  -47.6019   23.3550 -1.79e+02
  18.0078  -47.2306   23.2697 -1.79e+02
  17.9845  -47.2845   23.1901 -1.79e+02
  17.8056  -47.3537   23.0991 -1.79e+02
  17.9196  -47.4694   23.4184 -1.79e+02
  17.9767  -47.3689   23.0825 -1.79e+02
  17.8879  -47.4726   23.1437 -1.79e+02
  17.9471  -47.5249   23.2223 -1.79e+02
  17.9091  -47.2938   23.0596 -1.79e+02
  17.9140  -47.4490   23.1731 -1.79e+02
  17.8349  -47.6244   23.0774 -1.79e+02
  17.9803  -47.5261   23.1217 -1.79e+02
  18.0670  -47.3502   23.1939 -1.79e+02
  17.8294  -47.1854   22.9429 -1.79e+02
  18.0539  -47.7179   23.3078 -1.79e+02
  17.8791  -47.3578   23.4559 -1.79e+02
  17.8102  -47.3960   23.3139 -1.79e+02
  17.9007  -47.2468   23.1278 -1.79e+02
  18.0235  -47.2529   23.1664 -1.79e+02
  17.9069  -47.4774   23.4520 -1.79e+02
  17.8928  -47.5434   23.0166 -1.79e+02
  17.8935  -47.6292   23.1967 -1.79e+02
  18.0337  -47.2590   22.9973 -1.79e+02
  18.0694  -47.6740   23.4198 -1.79e+02
  17.7849  -47.5046   23.3569 -1.79e+02
  17.9705  -47.3012   22.9603 -1.79e+02
  18.0366  -47.2767   23.4168 -1.79e+02
  17.9464  -47.5534   23.0189 -1.79e+02
  17.7806  -47.3692   22.9812 -1.79e+02
  17.8318  -47.2405   23.4098 -1.79e+02
  17.8008  -47.2606   23.0410 -1.79e+02
  17.9316  -47.4932   23.0562 -1.79e+02
  18.0342  -47.4012   23.2598 -1.79e+02
  17.8855  -47.2814   22.9371 -1.79e+02
  17.9145  -47.2599   23.2035 -1.79e+02
  17.9607  -47.5492   23.3988 -1.79e+02
  17.8366  -47.3402   23.3406 -1.79e+02
  18.0639  -47.6123   23.1817 -1.79e+02
  18.0770  -47.2919   23.1366 -1.79e+02
  17.7780  -47.1634   23.3232 -1.79e+02
  17.8841  -47.7124   23.3194 -1.79e+02
  17.9360  -47.4782   23.1951 -1.79e+02
  17.9822  -47.1841   23.2087 -1.79e+02
  17.9385  -47.3632   23.3006 -1.79e+02
  17.9189  -47.6767   23.4527 -1.79e+02
  18.0436  -47.3684   23.0048 -1.79e+02
  17.9684  -47.5788   23.0323 -1.79e+02
  17.7993  -47.3440   23.0991 -1.79e+02
  18.0748  -47.5480   23.4205 -1.79e+02
  17.7881  -47.4991   23.2690 -1.79e+02
  17.7886  -47.1995   23.2762 -1.79e+02
  18.0533  -47.3649   23.3849 -1.79e+02
  17.7169  -47.0982   23.0674 -1.79e+02
  17.6685  -46.9930   22.9829 -1.79e+02
  17.7141  -47.0683   23.0178 -1.79e+02
  17.7290  -46.8781   23.4195 -1.79e+02
  17.6939  -47.1561   23.1476 -1.79e+02
  17.4957  -46.7760   23.2499 -1.79e+02
  17.5455  -46.6151   23.4187 -1.79e+02
  17.6806  -47.0166   23.1861 -1.79e+02
  17.6007  -47.0281   23.3471 -1.79e+02
  17.5999  -46.7016   23.3832 -1.79e+02
  17.6895  -47.0575   23.3622 -1.79e+02
  17.6571  -46.7955   23.3530 -1.79e+02
  17.6146  -47.1598   23.2991 -1.79e+02
  17.5333  -46.7597   23.1412 -1.79e+02
  17.6603  -46.7233   23.2056 -1.79e+02
  17.5482  -47.0857   23.3308 -1.79e+02
  17.7352  -47.0517   23.3701 -1.79e+02
  17.7195  -46.7235   23.2422 -1.79e+02
  17.7104  -46.9089   23.0877 -1.79e+02
  17.6041  -47.1201   23.3130 -1.79e+02
  17.5178  -46.6780   22.9311 -1.79e+02
  17.5930  -46.9952   23.0275 -1.79e+02
  17.4783  -46.7581   23.2500 -1.79e+02
  17.5899  -46.9241   23.0538 -1.79e+02
  17.7645  -46.8764   23.0219 -1.79e+02
  17.5689  -46.9556   23.2509 -1.79e+02
  17.7187  -47.1547   23.3530 -1.79e+02
  17.4755  -46.7488   23.0386 -1.79e+02
  17.5735  -47.0760   23.1460 -1.79e+02
  17.7149  -46.6366   23.3486 -1.79e+02
  17.6285  -47.0332   23.3302 -1.79e+02
  17.5501  -46.7278   23.3552 -1.79e+02
  17.5040  -46.8165   23.1766 -1.79e+02
  17.5521  -46.9362   23.2561 -1.79e+02
  17.5056  -47.0388   23.0371 -1.79e+02
  17.7700  -46.8542   23.4539 -1.79e+02
  17.6931  -46.6337   23.1539 -1.79e+02
  17.5024  -47.1457   23.0800 -1.79e+02
  17.6101  -46.6999   23.2092 -1.79e+02
  17.7205  -47.0347   23.4522 -1.79e+02
  17.5605  -46.8578   23.4381 -1.79e+02
  17.5446  -46.8139   23.4325 -1.79e+02
  17.7563  -46.7515   23.2606 -1.79e+02
  17.5972  -47.0728   23.3525 -1.79e+02
  17.6568  -46.8251   23.1178 -1.79e+02
  17.4795  -46.6651   23.3845 -1.79e+02
  17.5450  -46.9703   23.2028 -1.79e+02
  17.7713  -46.6329   23.3497 -1.79e+02
  17.5331  -46.6888   23.1147 -1.79e+02
  17.5813  -47.1147   22.9555 -1.79e+02
  18.1757  -47.3446   21.6589 -1.79e+02
  18.0850  -47.3362   21.5702 -1.79e+02
  18.0873  -47.2395   21.5552 -1.79e+02
  18.2411  -47.1751   21.5911 -1.79e+02
  18.1100  -47.3836   21.3663 -1.79e+02
  18.1981  -47.6597   21.6834 -1.79e+02
  18.0913  -47.6808   21.7353 -1.79e+02
  18.1766  -47.3683   21.7639 -1.79e+02
  18.2537  -47.5132   21.4036 -1.79e+02
  18.1542  -47.2171   21.7820 -1.79e+02
  18.2070  -47.1836   21.6710 -1.79e+02
  18.1732  -47.4218   21.7450 -1.79e+02
  18.2904  -47.6217   21.4733 -1.79e+02
  18.3226  -47.2080   21.7129 -1.79e+02
  18.2356  -47.7121   21.6981 -1.79e+02
  18.2216  -47.4183   21.6606 -1.79e+02
  18.1998  -47.5959   21.3242 -1.79e+02
  18.3776  -47.1852   21.3471 -1.79e+02
  18.3283  -47.6283   21.7598 -1.79e+02
  18.1736  -47.2340   21.7044 -1.79e+02
  18.1874  -47.4355   21.6549 -1.79e+02
  18.3580  -47.5987   21.6669 -1.79e+02
  18.3446  -47.5348   21.7785 -1.79e+02
  18.3245  -47.6421   21.7026 -1.79e+02
  18.3107  -47.2321   21.4908 -1.79e+02
  18.3514  -47.4005   21.7972 -1.79e+02
  18.2317  -47.2414   21.7998 -1.79e+02
  18.1891  -47.2550   21.5193 -1.79e+02
  18.1897  -47.2096   21.5144 -1.79e+02
  18.2719  -47.3366   21.4483 -1.79e+02
  18.3014  -47.5816   21.4684 -1.79e+02
  18.1217  -47.4442   21.5661 -1.79e+02
  18.3004  -47.6651   21.5300 -1.79e+02
  18.3062  -47.6888   21.6262 -1.79e+02
  18.0828  -47.3720   21.4544 -1.79e+02
  18.2010  -47.2976   21.3869 -1.79e+02
  18.2935  -47.7186   21.6189 -1.79e+02
  18.0928  -47.5124   21.5471 -1.79e+02
  18.1213  -47.4878   21.4652 -1.79e+02
  18.2630  -47.1731   21.4324 -1.79e+02
  18.3099  -47.2575   21.5571 -1.79e+02
  18.1896  -47.5443   21.4834 -1.79e+02
  18.0836  -47.3807   21.6180 -1.79e+02
  18.2613  -47.5723   21.6218 -1.79e+02
  18.1040  -47.6869   21.5306 -1.79e+02
  18.2868  -47.1839   21.7634 -1.79e+02
  18.1106  -47.2111   21.5398 -1.79e+02
  18.1227  -47.1668   21.7935 -1.79e+02
  18.3627  -47.6585   21.6951 -1.79e+02
  17.7212  -47.5147   23.8337 -1.79e+02
  17.6115  -47.1627   23.8216 -1.79e+02
  17.6162  -47.2477   23.6370 -1.79e+02
  17.5946  -47.1685   23.9746 -1.79e+02
  17.4817  -47.2648   23.8721 -1.79e+02
  17.6867  -47.5559   23.9199 -1.79e+02
  17.5364  -47.3646   23.7204 -1.79e+02
  17.6648  -47.5448   23.4783 -1.79e+02
  17.5272  -47.2784   23.9630 -1.79e+02
  17.4960  -47.1748   23.6481 -1.79e+02
  17.5887  -47.6407   23.7544 -1.79e+02
  17.7312  -47.5340   23.9773 -1.79e+02
  17.7298  -47.2516   23.5813 -1.79e+02
  17.5613  -47.2066   23.9857 -1.79e+02
  17.5161  -47.4996   23.9456 -1.79e+02
  17.6144  -47.4191   23.6700 -1.79e+02
  17.5281  -47.5028   23.9182 -1.79e+02
  17.5679  -47.1723   23.6038 -1.79e+02
  17.6707  -47.2688   23.9782 -1.79e+02
  17.7074  -47.1949   23.9252 -1.79e+02
  17.6507  -47.4434   23.8263 -1.79e+02
  17.6994  -47.3041   23.8378 -1.79e+02
  17.5054  -47.4472   23.7818 -1.79e+02
  17.6666  -47.6089   23.9606 -1.79e+02
  17.5214  -47.1794   23.6822 -1.79e+02
  17.5736  -47.6302   23.5150 -1.79e+02
  17.7658  -47.6972   23.9941 -1.79e+02
  17.5016  -47.5230   23.8544 -1.79e+02
  17.7574  -47.7017   23.5179 -1.79e+02
  17.5914  -47.4273   23.6613 -1.79e+02
  17.6796  -47.2518   23.6261 -1.79e+02
  17.5292  -47.3952   23.4815 -1.79e+02
  17.4876  -47.3821   23.8098 -1.79e+02
  17.4725  -47.2331   23.8665 -1.79e+02
  17.7236  -47.4141   23.8047 -1.79e+02
  17.5711  -47.6778   23.8183 -1.79e+02
  17.5164  -47.2269   23.5498 -1.79e+02
  17.6854  -47.6950   23.5286 -1.79e+02
  17.4770  -47.3809   23.5126 -1.79e+02
  17.5276  -47.3201   23.8733 -1.79e+02
  17.6696  -47.6393   23.6474 -1.79e+02
  17.6622  -47.6663   23.9832 -1.79e+02
  17.7475  -47.7057   23.8738 -1.79e+02
  17.6558  -47.2549   23.8491 -1.79e+02
  17.6036  -47.2015   23.7255 -1.79e+02
  17.5477  -47.6776   23.4891 -1.79e+02
  17.7356  -47.2909   23.9316 -1.79e+02
  17.6673  -47.2276   23.8118 -1.79e+02
  17.3391  -47.0844   23.5450 -1.79e+02
  17.3189  -47.0887   23.8825 -1.79e+02
  17.1948  -46.7943   23.6638 -1.79e+02
  17.2140  -46.8396   23.8236 -1.79e+02
  17.2851  -46.6715   23.7736 -1.79e+02
  17.4684  -46.7711   23.6052 -1.79e+02
  17.4453  -46.6837   23.8413 -1.79e+02
  17.3837  -47.0697   23.7770 -1.79e+02
  17.3074  -46.7485   23.9076 -1.79e+02
  17.2596  -46.8925   23.6838 -1.79e+02
  17.2955  -46.7595   23.6541 -1.79e+02
  17.1662  -47.0797   23.9810 -1.79e+02
  17.2488  -47.0489   23.5068 -1.79e+02
  17.3198  -46.8639   23.5269 -1.79e+02
  17.1955  -46.9943   23.5315 -1.79e+02
  17.3931  -47.1006   23.6367 -1.79e+02
  17.2811  -46.7829   23.7914 -1.79e+02
  17.4021  -47.0724   23.8117 -1.79e+02
  17.2152  -46.6624   23.4723 -1.79e+02
  17.2518  -47.0421   23.5550 -1.79e+02
  17.3578  -46.7984   23.7100 -1.79e+02
  17.2977  -46.6382   23.9181 -1.79e+02
  17.3316  -46.9113   23.7750 -1.79e+02
  17.4124  -46.6762   23.7263 -1.79e+02
  17.2901  -46.9753   23.6801 -1.79e+02
  17.2136  -46.6668   23.6692 -1.79e+02
  17.2142  -46.9512   23.6544 -1.79e+02
  17.3474  -46.6129   23.6747 -1.79e+02
  17.2872  -46.6212   23.7304 -1.79e+02
  17.2249  -46.7459   23.4915 -1.79e+02
  17.1828  -46.8869   23.5094 -1.79e+02
  17.3346  -46.9928   23.5591 -1.79e+02
  17.2957  -46.9878   23.6901 -1.79e+02
  17.2239  -47.1026   23.4871 -1.79e+02
  17.4468  -46.8016   23.4805 -1.79e+02
  17.2521  -46.8188   23.6824 -1.79e+02
  17.2256  -46.7931   23.5150 -1.79e+02
  17.3097  -47.0832   23.6326 -1.79e+02
  17.1942  -46.7021   23.8970 -1.79e+02
  17.1945  -47.1568   23.6652 -1.79e+02
  17.3334  -46.9656   23.8748 -1.79e+02
  17.2560  -46.7063   23.9165 -1.79e+02
  17.3968  -46.8865   23.6543 -1.79e+02
  17.2256  -46.9213   23.9529 -1.79e+02
  17.2889  -47.0074   23.8439 -1.79e+02
  17.2170  -46.9745   23.6887 -1.79e+02
  17.3656  -46.9545   20.4071 -1.82e+02
  17.3460  -46.4131   20.7192 -1.82e+02
  17.6673  -46.7216   19.6702 -1.82e+02
  17.7154  -46.3210   20.1090 -1.82e+02
  17.4556  -46.8396   20.4216 -1.82e+02
  17.5442  -46.5070   20.1768 -1.82e+02
  17.6965  -46.8075   20.3882 -1.82e+02
  17.3879  -46.6510   20.7262 -1.82e+02
  17.7198  -46.2878   20.6154 -1.82e+02
  17.5897  -46.2960   20.0885 -1.82e+02
  17.5346  -46.1653   20.3505 -1.82e+02
  17.6114  -47.0980   20.2255 -1.82e+02
  17.2455  -46.6854   20.2832 -1.82e+02
  17.4165  -46.4027   20.6889 -1.82e+02
  17.4738  -46.4096   19.6778 -1.82e+02
  17.2223  -46.8428   20.3701 -1.82e+02
  17.2752  -47.0474   19.9667 -1.82e+02
  17.6525  -46.5483   20.2541 -1.82e+02
  17.4966  -46.2847   20.5775 -1.82e+02
  17.2469  -46.4674   20.6818 -1.82e+02
  17.4362  -46.5595   20.5116 -1.82e+02
  17.3278  -46.3144   19.9694 -1.82e+02
  17.4237  -47.1450   20.1590 -1.82e+02
  17.5712  -46.6152   20.7360 -1.82e+02
  17.3949  -46.8381   20.1753 -1.82e+02
  17.5642  -46.2179   20.0387 -1.82e+02
  17.7067  -46.1046   20.1651 -1.82e+02
  17.7249  -46.0837   19.9679 -1.82e+02
  17.2425  -46.5330   20.6390 -1.82e+02
  17.2818  -46.4560   20.2289 -1.82e+02
  17.2715  -47.1480   20.3060 -1.82e+02
  17.1643  -46.5797   20.5652 -1.82e+02
  17.5238  -46.4218   20.1653 -1.82e+02
  17.3254  -46.3291   19.8190 -1.82e+02
  17.5803  -46.9778   20.4244 -1.82e+02
  17.3893  -46.2572   20.6913 -1.82e+02
  17.6939  -46.9392   20.7222 -1.82e+02
  17.3414  -46.4813   20.2359 -1.82e+02
  17.4107  -46.9280   20.5399 -1.82e+02
  17.6259  -46.6290   20.4206 -1.82e+02
  17.3911  -46.8055   20.5005 -1.82e+02
  17.5645  -47.0521   19.7315 -1.82e+02
  17.5997  -46.1978   19.9990 -1.82e+02
  17.6141  -46.9184   19.8900 -1.82e+02
  17.3552  -46.1532   19.9542 -1.82e+02
  17.8174  -46.9793   21.4950 -1.80e+02
  18.0668  -46.9147   21.4615 -1.80e+02
  17.9355  -46.9421   21.7774 -1.80e+02
  17.9488  -47.1458   21.7141 -1.80e+02
  18.0670  -46.8473   21.3256 -1.80e+02
  18.0197  -47.0054   21.3530 -1.80e+02
  18.0564  -46.9326   21.4514 -1.80e+02
  18.0255  -46.9350   21.5350 -1.80e+02
  17.8491  -46.7447   21.4508 -1.80e+02
  17.9021  -46.8990   21.4327 -1.80e+02
  17.8781  -47.0182   21.3760 -1.80e+02
  17.8321  -46.9602   21.8072 -1.80e+02
  17.7802  -47.0658   21.4306 -1.80e+02
  17.7895  -46.7767   21.3776 -1.80e+02
  17.8982  -46.9136   21.5419 -1.80e+02
  17.9579  -46.6755   21.3824 -1.80e+02
  17.8315  -46.8301   21.3497 -1.80e+02
  17.9026  -47.0437   21.4895 -1.80e+02
  17.9928  -47.1084   21.7352 -1.80e+02
  17.8494  -47.0146   21.8191 -1.80e+02
  17.8101  -46.6089   21.3222 -1.80e+02
  18.0744  -46.6089   21.3396 -1.80e+02
  17.8316  -46.6578   21.7832 -1.80e+02
  17.8425  -46.6881   21.2917 -1.80e+02
  18.0761  -47.0994   21.3013 -1.80e+02
  17.8088  -46.9807   21.4886 -1.80e+02
  17.9695  -46.8643   21.7882 -1.80e+02
  17.7852  -47.1491   21.5189 -1.80e+02
  17.9137  -46.8537   21.7360 -1.80e+02
  17.9540  -46.7131   21.8238 -1.80e+02
  17.9113  -46.9620   21.3434 -1.80e+02
  17.9340  -46.7801   21.5304 -1.80e+02
  17.7844  -47.0026   21.7474 -1.80e+02
  17.8507  -46.8518   21.5664 -1.80e+02
  17.9338  -46.8550   21.6893 -1.80e+02
  17.9917  -46.7707   21.6810 -1.80e+02
  18.0300  -47.0258   21.4424 -1.80e+02
  18.0687  -47.0230   21.7303 -1.80e+02
  18.0752  -47.0228   21.7285 -1.80e+02
  17.8090  -46.6129   21.7088 -1.80e+02
  17.9288  -46.8689   21.4643 -1.80e+02
  18.0369  -46.8749   21.4525 -1.80e+02
  17.8106  -46.8953   21.3492 -1.80e+02
  18.0410  -47.1075   21.3883 -1.80e+02
  17.1791  -46.3933   24.2373 -1.82e+02
  17.4270  -46.7697   24.3259 -1.82e+02
  17.1648  -46.6164   24.9186 -1.82e+02
  17.1785  -46.3524   24.8622 -1.82e+02
  17.7611  -46.8427   24.0897 -1.82e+02
  17.5164  -46.8560   24.6271 -1.82e+02
  17.4711  -46.5347   24.0106 -1.82e+02
  17.6920  -46.5475   24.1957 -1.82e+02
  17.2335  -46.4140   24.4018 -1.82e+02
  17.3979  -46.9042   24.0208 -1.82e+02
  17.3717  -46.6722   24.2801 -1.82e+02
  17.6633  -46.8933   24.3443 -1.82e+02
  17.4960  -46.9294   24.6743 -1.82e+02
  17.4493  -46.4350   24.8557 -1.82e+02
  17.3705  -46.0560   24.8273 -1.82e+02
  17.2575  -46.8377   24.3773 -1.82e+02
  17.3725  -46.9358   24.6735 -1.82e+02
  17.7243  -46.5658   24.7817 -1.82e+02
  17.6437  -46.6407   24.0353 -1.82e+02
  17.7610  -47.1126   24.6027 -1.82e+02
  17.5233  -46.6573   24.7338 -1.82e+02
  17.2954  -46.1775   24.5119 -1.82e+02
  17.3958  -46.6651   24.0095 -1.82e+02
  17.2922  -46.0501   24.0624 -1.82e+02
  17.6413  -46.6446   24.8866 -1.82e+02
  17.4109  -46.6079   24.8069 -1.82e+02
  17.7627  -46.5281   24.5692 -1.82e+02
  17.3411  -46.3125   24.6331 -1.82e+02
  17.4549  -46.7843   24.4354 -1.82e+02
  17.3649  -46.3112   24.4743 -1.82e+02
  17.6333  -46.5825   24.0996 -1.82e+02
  17.3328  -47.0519   24.4462 -1.82e+02
  17.7548  -46.0890   24.5399 -1.82e+02
  17.5140  -46.9660   25.0752 -1.82e+02
  17.2810  -46.5345   24.4877 -1.82e+02
  17.4928  -46.6175   24.3200 -1.82e+02
  17.3047  -46.2983   24.3217 -1.82e+02
  17.3544  -46.4124   24.9458 -1.82e+02
  17.6932  -46.3000   24.5110 -1.82e+02
  17.4567  -46.1293   24.0122 -1.82e+02
  17.2647  -47.0251   24.5028 -1.82e+02
  17.3387  -47.1575   24.7995 -1.82e+02
  17.6495  -46.3254   25.0783 -1.82e+02
  18.3053  -47.6749   22.6650 -1.80e+02
  18.2697  -47.2065   22.6941 -1.80e+02
  18.2405  -47.5650   22.7972 -1.80e+02
  18.3369  -47.6406   22.6073 -1.80e+02
  18.3054  -47.2710   22.5381 -1.80e+02
  18.2010  -47.4354   22.5863 -1.80e+02
  18.1526  -47.3783   22.5076 -1.80e+02
  18.1783  -47.5108   22.5039 -1.80e+02
  18.2902  -47.2373   22.3803 -1.80e+02
  18.3207  -47.5132   22.9123 -1.80e+02
  18.0906  -47.2113   22.5032 -1.80e+02
  18.2601  -47.2964   22.5486 -1.80e+02
  18.3568  -47.2523   22.7457 -1.80e+02
  18.3672  -47.5421   22.7127 -1.80e+02
  18.2685  -47.2431   22.5208 -1.80e+02
  18.2826  -47.3678   22.6709 -1.80e+02
  18.2891  -47.4467   22.8543 -1.80e+02
  18.2010  -47.5346   22.4923 -1.80e+02
  18.2433  -47.5167   22.7150 -1.80e+02
  18.3785  -47.1646   22.8511 -1.80e+02
  18.3107  -47.4746   22.6921 -1.80e+02
  18.2522  -47.6461   22.8060 -1.80e+02
  18.3815  -47.2381   22.6863 -1.80e+02
  18.2812  -47.4177   22.3952 -1.80e+02
  18.1833  -47.5205   22.5440 -1.80e+02
  18.3009  -47.4548   22.3949 -1.80e+02
  18.1183  -47.1821   22.7566 -1.80e+02
  18.0879  -47.3982   22.5555 -1.80e+02
  18.1706  -47.5761   22.8678 -1.80e+02
  18.1452  -47.2805   22.5484 -1.80e+02
  18.1599  -47.4938   22.7604 -1.80e+02
