NLLOC "./3D_reloc_nonlin_latlon_calum_lfe_loc/3D_reloc_nonlin_latlon_calum_lfe.20090714.170030.grid0" "LOCATED" "Location completed."
SIGNATURE "C. Boese VUW   NLLoc:v6.00.0 17May2015 09h58m44"
COMMENT "2008-2009 SAMBA"
GRID  50 90 26  -30 -95 -2  2 2 2 PROB_DENSITY
SEARCH OCTREE nInitial 19200 nEvaluated 20024 smallestNodeSide 0.153125/0.278125/0.270833 oct_tree_integral 2.000140e+00 scatter_volume 2.000140e+00
HYPOCENTER  x 23.9766 y -55.6453 z 11.9479  OT 25.8057  ix -1 iy -1 iz -1
GEOGRAPHIC  OT 2009 07 14  17 00   25.8057  Lat -43.77074447 Long 170.02656975 Depth 11.947917 
QUALITY  Pmax 0 MFmin 13.3904 MFmax 14.0348 RMS 1.5139 Nphs 10 Gap 257.913 Dist 28.772 Mamp  -9.9 0 Mdur  -9.9 0
VPVSRATIO  VpVsRatio 0.0909156  Npair 3  Diff 1.66
STATISTICS  ExpectX 23.9148 Y -55.6804 Z 12.1907  CovXX 0.192772 XY -0.0857473 XZ -0.0488466 YY 0.249211 YZ -0.0501407 ZZ 0.85388 EllAz1  53.7609 Dip1  5.4049 Len1  0.662124 Az2  323.647 Dip2  1.20595 Len2  1.04779 Len3  1.743021e+00
STAT_GEOG  ExpectLat -43.7705 Long 170.026 Depth 12.1907
TRANSFORM  SIMPLE LatOrig -43.301800  LongOrig 170.412000  RotCW -54.000000
QML_OriginQuality  assocPhCt 0  usedPhCt 10  assocStaCt 0  usedStaCt 0  depthPhCt 0  stdErr 1.5139  azGap 257.913  secAzGap 0  gtLevel   minDist 0 maxDist 0 medDist 0
QML_OriginUncertainty  horUnc -1  minHorUnc 0  maxHorUnc 0  azMaxHorUnc 90
FOCALMECH  Hyp  -43.7707 170.027 11.9479 Mech  0 0 0 mf  0 nObs 0
PHASE ID Ins Cmp On Pha  FM Date     HrMn   Sec     Err  ErrMag    Coda      Amp       Per       PriorWt  >   TTpred    Res       Weight    StaLoc(X  Y         Z)        SDist    SAzim  RAz  RDip RQual    Tcorr       TTerr
mtfo         S    E    I S      ? 20090714 1700   34.6500 GAU  1.00e-01 -1.00e+00 -1.00e+00 -1.00e+00    1.0000 >    9.2484   -0.4041    0.8560   -0.4173  -40.3886   -1.2140   28.7720 356.02 354.6 101.9  9     0.0000   -1.0000
labe         S    N    I S      ? 20090714 1700   35.6000 GAU  1.00e-01 -1.00e+00 -1.00e+00 -1.00e+00    1.0000 >    9.9887   -0.1945    0.9752   14.0967  -26.8503   -1.5878   30.4428  35.06  32.6  98.3  9     0.0000   -1.0000
FOZ          H    Z    E P      ? 20090714 1700   30.1200 GAU  1.00e-01 -1.00e+00 -1.00e+00 -1.00e+00    1.0000 >    5.7294   -1.4152    1.1159   -7.3876  -54.0466   -0.0540   31.4049 326.92 327.0 102.0  9     0.0000   -1.0000
FOZ          H    N    I S      ? 20090714 1700   34.6500 GAU  1.00e-01 -1.00e+00 -1.00e+00 -1.00e+00    1.0000 >    9.6254   -0.7812    1.0702   -7.3876  -54.0466   -0.0540   31.4049 326.92 327.0 102.0  9     0.0000   -1.0000
cosa         S    Z    E P      ? 20090714 1700   34.7500 GAU  1.00e-01 -1.00e+00 -1.00e+00 -1.00e+00    1.0000 >    6.3646    2.5797    1.1159   -3.5414  -32.5734   -0.3756   35.9103   3.98   1.8  98.2  9     0.0000   -1.0000
cosa         S    N    I S      ? 20090714 1700   39.7400 GAU  1.00e-01 -1.00e+00 -1.00e+00 -1.00e+00    1.0000 >   10.6926    3.2417    0.7579   -3.5414  -32.5734   -0.3756   35.9103   3.98   1.8  98.2  9     0.0000   -1.0000
eoro         S    E    I S      ? 20090714 1700   35.8800 GAU  1.00e-01 -1.00e+00 -1.00e+00 -1.00e+00    1.0000 >   11.6841   -1.6098    0.8374   -0.3007  -23.9806   -0.2316   39.9003  16.52  17.9  95.3  9     0.0000   -1.0000
gova         S    Z    E P      ? 20090714 1700   33.4300 GAU  1.00e-01 -1.00e+00 -1.00e+00 -1.00e+00    1.0000 >    7.8833   -0.2590    1.1256   34.5716  -16.1186   -0.8120   40.9221  69.01  67.9  91.7  9     0.0000   -1.0000
gova         S    N    I S      ? 20090714 1700   39.6200 GAU  1.00e-01 -1.00e+00 -1.00e+00 -1.00e+00    1.0000 >   13.2439    0.5704    1.1167   34.5716  -16.1186   -0.8120   40.9221  69.01  67.9  91.7  9     0.0000   -1.0000
whym         S    E    I S      ? 20090714 1700   38.0700 GAU  1.00e-01 -1.00e+00 -1.00e+00 -1.00e+00    1.0000 >   13.6070   -1.3427    1.0292   10.6125  -11.7501   -0.9047   45.8845  37.07  36.9  90.2  9     0.0000   -1.0000
END_PHASE
SCATTER Nsamples 4987
  23.6147  -55.5645   13.6133 -8.92e+02
  23.8385  -55.8830   13.2447 -8.92e+02
  23.7930  -55.6141   13.2236 -8.92e+02
  23.8336  -55.6606   13.5334 -8.92e+02
  23.6493  -55.6551   13.4559 -8.92e+02
  23.8370  -55.8863   13.3795 -8.92e+02
  23.6005  -55.5908   13.5038 -8.92e+02
  23.6443  -55.8141   13.2584 -8.92e+02
  23.7612  -55.6870   13.3968 -8.92e+02
  23.7147  -55.6110   13.4246 -8.92e+02
  23.8086  -55.5236   13.4133 -8.92e+02
  23.5978  -55.7013   13.3085 -8.92e+02
  23.7571  -55.5779   13.4729 -8.92e+02
  23.6090  -55.5477   13.2399 -8.92e+02
  23.6203  -55.9274   13.3118 -8.92e+02
  23.7388  -55.6725   13.5970 -8.92e+02
  23.7393  -55.9216   13.6994 -8.92e+02
  23.7510  -55.6006   13.3172 -8.92e+02
  23.8212  -55.9348   13.4568 -8.92e+02
  23.8463  -56.0096   13.6226 -8.92e+02
  23.7676  -55.5464   13.6438 -8.92e+02
  23.6228  -55.9352   13.3883 -8.92e+02
  23.6224  -55.8144   13.5518 -8.92e+02
  23.8019  -55.6878   13.3820 -8.92e+02
  23.7039  -56.0012   13.5263 -8.92e+02
  23.8927  -55.9936   13.2613 -8.92e+02
  23.7373  -55.9070   13.6423 -8.92e+02
  23.8759  -55.9503   13.5033 -8.92e+02
  23.8831  -55.9149   13.5772 -8.92e+02
  23.6348  -55.8784   13.2966 -8.92e+02
  23.7690  -55.8934   13.6153 -8.92e+02
  23.8949  -55.9683   13.2222 -8.92e+02
  23.6303  -55.5590   13.1709 -8.92e+02
  23.8108  -55.6245   13.4387 -8.92e+02
  23.8421  -55.6287   13.5283 -8.92e+02
  23.7348  -55.5927   13.5385 -8.92e+02
  23.8341  -55.7300   13.4669 -8.92e+02
  23.7524  -55.8267   13.6021 -8.92e+02
  23.6835  -56.0080   13.6870 -8.92e+02
  23.8595  -55.7586   13.5952 -8.92e+02
  23.7757  -55.9340   13.6577 -8.92e+02
  23.8327  -55.7985   13.6127 -8.92e+02
  23.8354  -55.9042   13.2074 -8.92e+02
  23.5940  -55.9350   13.2853 -8.92e+02
  23.7734  -55.9312   13.3374 -8.92e+02
  23.6417  -55.9909   13.4769 -8.92e+02
  23.7302  -55.8014   13.2967 -8.92e+02
  23.7844  -55.8001   13.2745 -8.92e+02
  23.5987  -55.5784   13.4742 -8.92e+02
  23.5168  -55.6956   12.9803 -8.92e+02
  23.5627  -55.7306   12.9261 -8.92e+02
  23.4910  -55.6645   12.6493 -8.92e+02
  23.4506  -56.0625   12.8653 -8.92e+02
  23.4768  -55.8300   12.6948 -8.92e+02
  23.3002  -55.5840   12.7407 -8.92e+02
  23.5905  -55.8621   13.0036 -8.92e+02
  23.3320  -55.5574   12.6494 -8.92e+02
  23.5294  -55.7160   13.0299 -8.92e+02
  23.4862  -55.9578   12.9811 -8.92e+02
  23.5710  -55.6130   13.1593 -8.92e+02
  23.4666  -55.8116   12.8436 -8.92e+02
  23.5917  -55.5350   12.8169 -8.92e+02
  23.2980  -55.9673   13.0705 -8.92e+02
  23.5772  -55.9953   12.6610 -8.92e+02
  23.3993  -55.6135   12.9799 -8.92e+02
  23.5631  -55.7199   12.8599 -8.92e+02
  23.4170  -55.7971   12.8863 -8.92e+02
  23.3749  -55.8607   12.9087 -8.92e+02
  23.3897  -55.6344   12.6564 -8.92e+02
  23.4641  -55.8404   13.0401 -8.92e+02
  23.4233  -55.6051   13.1464 -8.92e+02
  23.5104  -55.5083   13.0285 -8.92e+02
  23.4144  -55.7553   12.7757 -8.92e+02
  23.5717  -55.5386   12.6768 -8.92e+02
  23.4082  -55.9674   12.8806 -8.92e+02
  23.4576  -55.6188   12.8394 -8.92e+02
  23.5861  -55.8597   12.6696 -8.92e+02
  23.4071  -55.6371   12.9824 -8.92e+02
  23.3444  -55.7352   12.9794 -8.92e+02
  23.4967  -55.7550   12.8677 -8.92e+02
  23.5849  -55.5974   13.0473 -8.92e+02
  23.3659  -55.7763   13.0265 -8.92e+02
  23.4188  -55.5847   12.7684 -8.92e+02
  23.2908  -55.8191   12.7436 -8.92e+02
  23.3961  -55.9041   12.6546 -8.92e+02
  23.4884  -55.7788   12.8769 -8.92e+02
  23.4556  -55.6869   12.8158 -8.92e+02
  23.4659  -55.8261   12.9144 -8.92e+02
  23.2939  -55.7568   13.0980 -8.92e+02
  23.5755  -55.6515   13.1463 -8.92e+02
  23.4450  -56.0612   12.6807 -8.92e+02
  23.4421  -55.8597   13.0365 -8.92e+02
  23.5686  -55.6653   13.0636 -8.92e+02
  23.4501  -55.9809   12.7074 -8.92e+02
  23.3697  -55.5186   13.0527 -8.92e+02
  23.4133  -55.9112   12.6644 -8.92e+02
  24.5044  -54.9963   11.6160 -8.92e+02
  24.4243  -55.3910   11.6774 -8.92e+02
  24.4678  -55.3644   11.6661 -8.92e+02
  24.5004  -55.4115   11.9319 -8.92e+02
  24.2639  -55.0297   11.5684 -8.92e+02
  24.3705  -55.1087   11.6152 -8.92e+02
  24.3317  -55.0337   11.6976 -8.92e+02
  24.4246  -55.3160   11.9889 -8.92e+02
  24.3090  -54.9920   12.0781 -8.92e+02
  24.3248  -55.4811   11.9119 -8.92e+02
  24.4478  -55.4169   11.6051 -8.92e+02
  24.4378  -55.2219   11.7286 -8.92e+02
  24.4530  -55.4192   11.6971 -8.92e+02
  24.3436  -55.0181   11.6793 -8.92e+02
  24.3612  -55.4202   11.6103 -8.92e+02
  24.2503  -55.0605   12.0617 -8.92e+02
  24.3448  -55.1751   11.8526 -8.92e+02
  24.2776  -55.2239   11.9490 -8.92e+02
  24.3504  -55.1012   11.5994 -8.92e+02
  24.4509  -55.4545   11.6851 -8.92e+02
  24.3471  -55.4015   11.9621 -8.92e+02
  24.4293  -55.1353   11.6076 -8.92e+02
  24.2132  -55.0334   11.6225 -8.92e+02
  24.3212  -55.3264   11.9524 -8.92e+02
  24.3716  -55.4532   11.8119 -8.92e+02
  24.4422  -55.2969   11.5873 -8.92e+02
  24.2292  -55.3050   11.9532 -8.92e+02
  24.2448  -55.3401   11.6345 -8.92e+02
  24.2451  -55.4480   11.7650 -8.92e+02
  24.4731  -55.1249   11.9581 -8.92e+02
  24.4050  -55.2168   11.8757 -8.92e+02
  24.4665  -55.3800   12.0598 -8.92e+02
  24.2863  -55.1281   11.8799 -8.92e+02
  24.3287  -55.1704   11.6803 -8.92e+02
  24.3684  -55.1496   11.5760 -8.92e+02
  24.4246  -55.3148   11.8704 -8.92e+02
  24.3108  -55.1393   11.5831 -8.92e+02
  24.4312  -55.2887   11.8817 -8.92e+02
  24.2488  -55.1190   11.9314 -8.92e+02
  24.4080  -55.1934   11.7259 -8.92e+02
  24.4577  -54.9652   12.0480 -8.92e+02
  24.3829  -55.1958   11.8538 -8.92e+02
  24.3403  -55.1603   11.9319 -8.92e+02
  24.4599  -55.2254   11.9597 -8.92e+02
  24.5123  -55.4204   11.7949 -8.92e+02
  23.2794  -55.2634   11.8775 -8.92e+02
  23.1946  -55.2065   11.6676 -8.92e+02
  23.1000  -55.4592   11.5642 -8.92e+02
  23.0834  -55.1190   11.8774 -8.92e+02
  23.0357  -55.0138   11.8920 -8.92e+02
  23.2623  -55.0312   11.6543 -8.92e+02
  23.0439  -54.9539   12.0720 -8.92e+02
  23.1800  -55.0527   12.0823 -8.92e+02
  23.0493  -55.2179   11.7159 -8.92e+02
  22.9820  -55.4957   11.6824 -8.92e+02
  23.0515  -55.2401   11.5722 -8.92e+02
  23.2227  -55.3189   11.5488 -8.92e+02
  23.1848  -55.0143   11.7338 -8.92e+02
  23.1793  -55.1209   11.8613 -8.92e+02
  23.0181  -55.2911   11.9707 -8.92e+02
  23.1790  -55.2992   11.7446 -8.92e+02
  22.9870  -55.3097   11.8335 -8.92e+02
  23.2502  -55.2739   12.0748 -8.92e+02
  22.9823  -55.1332   11.9066 -8.92e+02
  23.0458  -55.0673   11.7512 -8.92e+02
  23.2684  -55.1829   11.7847 -8.92e+02
  23.0453  -55.2127   11.9904 -8.92e+02
  23.0431  -55.0940   11.9662 -8.92e+02
  23.0802  -55.0180   11.6936 -8.92e+02
  23.0128  -55.4119   12.0645 -8.92e+02
  23.1045  -55.4232   11.6628 -8.92e+02
  23.2157  -55.2844   11.8830 -8.92e+02
  23.2640  -55.3969   11.7743 -8.92e+02
  23.0388  -55.4581   12.0802 -8.92e+02
  23.0709  -55.3582   11.9846 -8.92e+02
  23.2400  -55.2842   11.8258 -8.92e+02
  23.2705  -55.2447   11.6575 -8.92e+02
  23.0496  -55.0243   11.8045 -8.92e+02
  23.2113  -55.0919   11.5421 -8.92e+02
  23.1685  -55.1346   11.7684 -8.92e+02
  22.9840  -55.1219   11.9285 -8.92e+02
  23.1824  -54.9922   11.5490 -8.92e+02
  23.1923  -55.0705   12.0532 -8.92e+02
  23.1226  -55.1497   11.8952 -8.92e+02
  23.0843  -55.1925   11.6928 -8.92e+02
  23.1710  -55.3247   11.8272 -8.92e+02
  23.2139  -55.3158   11.9153 -8.92e+02
  23.2773  -55.0241   11.9905 -8.92e+02
  23.7158  -56.1825   11.8943 -8.92e+02
  23.8280  -56.5158   11.8131 -8.92e+02
  23.6526  -56.0934   11.9248 -8.92e+02
  23.5974  -56.2230   11.8831 -8.92e+02
  23.7998  -56.1925   11.8392 -8.92e+02
  23.7638  -56.5158   11.7094 -8.92e+02
  23.8774  -56.1126   11.6765 -8.92e+02
  23.7459  -56.1152   11.5546 -8.92e+02
  23.6888  -56.5385   12.0648 -8.92e+02
  23.7132  -56.5395   11.6442 -8.92e+02
  23.7486  -56.4413   11.5692 -8.92e+02
  23.6966  -56.0929   11.8544 -8.92e+02
  23.7343  -56.5910   11.8628 -8.92e+02
  23.6490  -56.0897   11.7800 -8.92e+02
  23.6026  -56.3226   11.6197 -8.92e+02
  23.6243  -56.5655   11.5419 -8.92e+02
  23.8215  -56.1496   11.7626 -8.92e+02
  23.5957  -56.4089   11.7595 -8.92e+02
  23.8721  -56.1013   11.9856 -8.92e+02
  23.5987  -56.5115   12.0579 -8.92e+02
  23.7178  -56.2658   11.9683 -8.92e+02
  23.8806  -56.4948   11.8484 -8.92e+02
  23.5947  -56.1494   12.0421 -8.92e+02
  23.6271  -56.6014   11.9180 -8.92e+02
  23.6409  -56.3287   11.8190 -8.92e+02
  23.6923  -56.3173   11.7995 -8.92e+02
  23.7935  -56.5038   12.0395 -8.92e+02
  23.6395  -56.2377   11.8605 -8.92e+02
  23.6336  -56.3722   11.8609 -8.92e+02
  23.8631  -56.6069   11.9690 -8.92e+02
  23.6798  -56.5391   11.6428 -8.92e+02
  23.7371  -56.2879   12.0073 -8.92e+02
  23.6525  -56.1144   11.7613 -8.92e+02
  23.6830  -56.6070   11.9843 -8.92e+02
  23.7176  -56.2685   11.6361 -8.92e+02
  23.8799  -56.4366   11.8086 -8.92e+02
  23.6116  -56.4314   12.0576 -8.92e+02
  23.5984  -56.1051   11.7024 -8.92e+02
  23.6502  -56.2178   12.0696 -8.92e+02
  24.6245  -56.0157   11.7414 -8.92e+02
  24.8095  -55.7887   11.6922 -8.92e+02
  24.6033  -55.8058   11.9117 -8.92e+02
  24.6133  -55.8769   11.6443 -8.92e+02
  24.5786  -55.6270   12.0754 -8.92e+02
  24.6942  -55.5928   11.6806 -8.92e+02
  24.5355  -55.6414   12.0521 -8.92e+02
  24.6945  -55.8463   12.0244 -8.92e+02
  24.5200  -55.5836   11.6279 -8.92e+02
  24.6505  -55.7103   11.7059 -8.92e+02
  24.7640  -56.0004   11.7253 -8.92e+02
  24.7915  -55.6898   11.9376 -8.92e+02
  24.7522  -55.5657   11.7171 -8.92e+02
  24.5780  -55.6540   11.6077 -8.92e+02
  24.5374  -55.6067   11.9549 -8.92e+02
  24.7054  -55.8625   11.9173 -8.92e+02
  24.7351  -55.5873   11.8460 -8.92e+02
  24.7143  -55.6172   11.5753 -8.92e+02
  24.7196  -55.7521   11.7831 -8.92e+02
  24.8020  -55.9962   12.0778 -8.92e+02
  24.6303  -55.9545   12.0204 -8.92e+02
  24.6239  -55.5938   11.6596 -8.92e+02
  24.6326  -55.9341   11.7550 -8.92e+02
  24.6014  -55.7853   11.8490 -8.92e+02
  24.6396  -55.7969   11.9810 -8.92e+02
  24.7085  -56.0218   11.5874 -8.92e+02
  24.6839  -56.0536   12.0478 -8.92e+02
  24.8017  -55.7852   11.9706 -8.92e+02
  24.7915  -55.7183   12.0718 -8.92e+02
  24.6308  -55.9294   11.7711 -8.92e+02
  24.6482  -55.7102   11.8626 -8.92e+02
  24.5139  -55.9579   11.8077 -8.92e+02
  24.7334  -56.0126   12.0234 -8.92e+02
  24.6520  -55.6875   11.8071 -8.92e+02
  24.7684  -56.0058   11.8961 -8.92e+02
  24.6609  -55.7709   11.8946 -8.92e+02
  24.5689  -55.9534   11.7472 -8.92e+02
  24.5087  -56.1869   12.9688 -8.92e+02
  24.3151  -56.5073   13.0163 -8.92e+02
  24.2439  -56.6111   12.9309 -8.92e+02
  24.2985  -56.3907   12.7034 -8.92e+02
  24.4213  -56.4064   12.6771 -8.92e+02
  24.4778  -56.4350   13.0495 -8.92e+02
  24.3421  -56.1408   13.0638 -8.92e+02
  24.2367  -56.1457   12.8373 -8.92e+02
  24.3506  -56.1204   13.1177 -8.92e+02
  24.2937  -56.4227   12.7708 -8.92e+02
  24.3724  -56.2200   12.8003 -8.92e+02
  24.2690  -56.0625   12.7905 -8.92e+02
  24.2485  -56.1232   12.6720 -8.92e+02
  24.4379  -56.5054   13.1649 -8.92e+02
  24.2724  -56.2085   12.8034 -8.92e+02
  24.3971  -56.5024   12.9721 -8.92e+02
  24.4471  -56.4642   12.9802 -8.92e+02
  24.3981  -56.3374   12.7194 -8.92e+02
  24.2790  -56.5348   12.6979 -8.92e+02
  24.3162  -56.3667   12.7492 -8.92e+02
  24.2487  -56.0842   12.9023 -8.92e+02
  24.2583  -56.1136   12.9912 -8.92e+02
  24.2862  -56.3538   13.1235 -8.92e+02
  24.4094  -56.5774   13.0013 -8.92e+02
  24.4785  -56.2011   12.9490 -8.92e+02
  24.4680  -56.0738   13.0600 -8.92e+02
  24.3219  -56.3788   13.0362 -8.92e+02
  24.2981  -56.2666   12.9018 -8.92e+02
  24.3786  -56.4194   13.1461 -8.92e+02
  24.4208  -56.3352   12.9147 -8.92e+02
  24.3890  -56.0634   13.0615 -8.92e+02
  24.4623  -56.3299   12.8614 -8.92e+02
  24.3342  -56.2048   12.7449 -8.92e+02
  24.4975  -56.1112   13.0419 -8.92e+02
  24.2078  -56.3679   12.7211 -8.92e+02
  23.6922  -55.4847   10.9855 -8.92e+02
  23.8577  -55.4092   10.8758 -8.92e+02
  23.8888  -55.2083   10.9482 -8.92e+02
  23.8043  -55.1272   10.4782 -8.92e+02
  23.8960  -55.1779   10.9185 -8.92e+02
  23.7702  -55.2661   10.9132 -8.92e+02
  23.6765  -54.9578   10.6363 -8.92e+02
  23.7086  -55.4570   10.5504 -8.92e+02
  23.6492  -54.9748   10.9932 -8.92e+02
  23.6901  -55.1355   10.5035 -8.92e+02
  23.8275  -54.9831   10.6624 -8.92e+02
  23.8146  -54.9603   10.5099 -8.92e+02
  23.8867  -55.1245   10.9880 -8.92e+02
  23.7122  -55.0821   10.5817 -8.92e+02
  23.8607  -55.3876   10.9905 -8.92e+02
  23.7628  -55.3292   10.7285 -8.92e+02
  23.7325  -55.4241   10.9849 -8.92e+02
  23.8716  -55.2448   10.5312 -8.92e+02
  23.6558  -55.1261   10.9057 -8.92e+02
  23.8559  -55.0872   10.7949 -8.92e+02
  23.7449  -55.5013   10.8205 -8.92e+02
  23.7896  -55.0723   10.8090 -8.92e+02
  23.5986  -55.3189   10.7306 -8.92e+02
  23.7995  -55.2546   10.9700 -8.92e+02
  23.7570  -54.9798   10.9000 -8.92e+02
  23.8018  -55.1783   10.9352 -8.92e+02
  23.7486  -55.5036   10.6238 -8.92e+02
  23.8600  -55.4881   10.7139 -8.92e+02
  23.6009  -55.1725   10.6256 -8.92e+02
  23.8015  -54.9610   10.8760 -8.92e+02
  23.8776  -55.2575   10.9418 -8.92e+02
  23.8118  -55.4513   10.7951 -8.92e+02
  23.8755  -55.1911   10.9312 -8.92e+02
  23.8679  -54.9949   10.7412 -8.92e+02
  23.7180  -55.3538   10.8971 -8.92e+02
  23.8610  -55.2538   10.6758 -8.92e+02
  24.1749  -55.6918   10.8682 -8.92e+02
  24.0349  -55.8114   10.8655 -8.92e+02
  24.0455  -55.9468   10.7050 -8.92e+02
  24.0168  -55.5940   10.4639 -8.92e+02
  23.9539  -55.7201   10.9719 -8.92e+02
  23.9647  -55.7432   10.7983 -8.92e+02
  24.0154  -55.7914   10.5025 -8.92e+02
  23.9722  -55.7033   10.5632 -8.92e+02
  24.0492  -56.0235   10.9646 -8.92e+02
  24.1852  -55.9361   10.9523 -8.92e+02
  23.9571  -55.8383   10.8271 -8.92e+02
  23.9644  -55.6931   10.5723 -8.92e+02
  24.1870  -56.0196   10.4896 -8.92e+02
  24.1221  -56.0560   10.9377 -8.92e+02
  24.0480  -55.5289   10.6696 -8.92e+02
  24.1177  -55.7150   10.7923 -8.92e+02
  24.1088  -55.9009   10.6495 -8.92e+02
  23.9094  -55.7748   10.5919 -8.92e+02
  24.1809  -55.9045   10.6524 -8.92e+02
  24.1113  -55.8711   10.6902 -8.92e+02
  24.0457  -56.0349   10.8322 -8.92e+02
  24.1253  -55.5698   10.6506 -8.92e+02
  24.1778  -55.8353   10.7937 -8.92e+02
  24.1795  -55.8444   10.6246 -8.92e+02
  24.0981  -55.8435   10.8295 -8.92e+02
  24.1796  -55.9540   10.4644 -8.92e+02
  23.9926  -55.8594   10.6073 -8.92e+02
  24.0486  -55.6622   10.8031 -8.92e+02
  24.1184  -55.8792   10.6549 -8.92e+02
  23.9523  -55.9046   10.6040 -8.92e+02
  23.9848  -55.5355   10.9218 -8.92e+02
  23.9640  -55.7254   10.9807 -8.92e+02
  23.5223  -55.2156   13.4467 -8.92e+02
  23.3351  -55.2770   13.6406 -8.92e+02
  23.4637  -55.0337   13.2822 -8.92e+02
  23.5474  -55.2425   13.6383 -8.92e+02
  23.3520  -55.3447   13.5934 -8.92e+02
  23.4237  -55.3096   13.5205 -8.92e+02
  23.4787  -55.3537   13.3009 -8.92e+02
  23.3616  -55.4646   13.3136 -8.92e+02
  23.5655  -54.9712   13.3155 -8.92e+02
  23.3049  -55.0051   13.3816 -8.92e+02
  23.4159  -55.1196   13.2050 -8.92e+02
  23.3654  -55.2791   13.3922 -8.92e+02
  23.5818  -55.3391   13.3153 -8.92e+02
  23.5013  -55.4137   13.2382 -8.92e+02
  23.4563  -55.0290   13.3554 -8.92e+02
  23.5281  -55.4640   13.1811 -8.92e+02
  23.5604  -55.4799   13.3108 -8.92e+02
  23.4189  -55.1047   13.6725 -8.92e+02
  23.3079  -55.4746   13.3785 -8.92e+02
  23.4536  -55.1733   13.6141 -8.92e+02
  23.4553  -55.0980   13.3480 -8.92e+02
  23.5368  -55.4259   13.5427 -8.92e+02
  23.4464  -55.3267   13.6983 -8.92e+02
  23.3446  -55.0709   13.2642 -8.92e+02
  23.4567  -55.3465   13.2042 -8.92e+02
  23.3898  -55.0804   13.4633 -8.92e+02
  23.5503  -55.4582   13.4386 -8.92e+02
  23.3805  -55.0399   13.7043 -8.92e+02
  23.3985  -55.4270   13.3941 -8.92e+02
  23.4563  -55.4337   13.2953 -8.92e+02
  23.4777  -55.0846   13.2412 -8.92e+02
  24.5480  -56.4139   12.4645 -8.92e+02
  24.7059  -56.4551   12.5817 -8.92e+02
  24.5771  -56.4713   12.6137 -8.92e+02
  24.6777  -56.1334   12.2567 -8.92e+02
  24.7198  -56.0755   12.3892 -8.92e+02
  24.7971  -56.2387   12.2602 -8.92e+02
  24.5772  -56.5293   12.1456 -8.92e+02
