NLLOC "./3D_reloc_nonlin_latlon_calum_lfe_loc/3D_reloc_nonlin_latlon_calum_lfe.20090714.082719.grid0" "LOCATED" "Location completed."
SIGNATURE "C. Boese VUW   NLLoc:v6.00.0 17May2015 09h58m43"
COMMENT "2008-2009 SAMBA"
GRID  50 90 26  -30 -95 -2  2 2 2 PROB_DENSITY
SEARCH OCTREE nInitial 19200 nEvaluated 20008 smallestNodeSide 0.153125/0.278125/0.270833 oct_tree_integral 4.096192e+00 scatter_volume 4.091036e+00
HYPOCENTER  x 24.1297 y -43.1297 z 29.0104  OT 13.1553  ix -1 iy -1 iz -1
GEOGRAPHIC  OT 2009 07 14  08 27   13.1553  Lat -43.70565089 Long 170.15416844 Depth 29.010417 
QUALITY  Pmax 3.55765e-116 MFmin 6.65621 MFmax 7.50455 RMS 0.854466 Nphs 12 Gap 229.759 Dist 19.1228 Mamp  -9.9 0 Mdur  -9.9 0
VPVSRATIO  VpVsRatio 0.635261  Npair 4  Diff 1.78
STATISTICS  ExpectX 24.1722 Y -43.1021 Z 28.8844  CovXX 0.32618 XY -0.163515 XZ -0.156631 YY 0.390282 YZ 0.0672216 ZZ 0.842902 EllAz1  53.8627 Dip1  7.47915 Len1  0.800032 Az2  326.71 Dip2  -20.7271 Len2  1.28424 Len3  1.793103e+00
STAT_GEOG  ExpectLat -43.7058 Long 170.155 Depth 28.8844
TRANSFORM  SIMPLE LatOrig -43.301800  LongOrig 170.412000  RotCW -54.000000
QML_OriginQuality  assocPhCt 0  usedPhCt 12  assocStaCt 0  usedStaCt 0  depthPhCt 0  stdErr 0.854466  azGap 229.759  secAzGap 0  gtLevel   minDist 0 maxDist 0 medDist 0
QML_OriginUncertainty  horUnc -1  minHorUnc 0  maxHorUnc 0  azMaxHorUnc 90
FOCALMECH  Hyp  -43.7057 170.154 29.0104 Mech  0 0 0 mf  0 nObs 0
PHASE ID Ins Cmp On Pha  FM Date     HrMn   Sec     Err  ErrMag    Coda      Amp       Per       PriorWt  >   TTpred    Res       Weight    StaLoc(X  Y         Z)        SDist    SAzim  RAz  RDip RQual    Tcorr       TTerr
labe         S    Z    I P      ? 20090714 0827   19.8700 GAU  1.00e-01 -1.00e+00 -1.00e+00 -1.00e+00    1.0000 >    6.0614    0.6533    1.0726   14.0967  -26.8503   -1.5878   19.1228  22.35  20.0 147.6  9     0.0000   -1.0000
labe         S    N    E S      ? 20090714 0827   24.5200 GAU  1.00e-01 -1.00e+00 -1.00e+00 -1.00e+00    1.0000 >   10.1832    1.1815    1.0179   14.0967  -26.8503   -1.5878   19.1228  22.35  20.0 147.6  9     0.0000   -1.0000
mtfo         S    Z    I P      ? 20090714 0827   19.7600 GAU  1.00e-01 -1.00e+00 -1.00e+00 -1.00e+00    1.0000 >    6.4107    0.1940    1.1029   -0.4173  -40.3886   -1.2140   24.6996 330.37 335.3 144.1  9     0.0000   -1.0000
mtfo         S    N    I S      ? 20090714 0827   24.2600 GAU  1.00e-01 -1.00e+00 -1.00e+00 -1.00e+00    1.0000 >   10.7699    0.3348    0.8959   -0.4173  -40.3886   -1.2140   24.6996 330.37 335.3 144.1  9     0.0000   -1.0000
gova         S    Z    I P      ? 20090714 0827   21.0100 GAU  1.00e-01 -1.00e+00 -1.00e+00 -1.00e+00    1.0000 >    7.2391    0.6156    1.1604   34.5716  -16.1186   -0.8120   28.9592  75.14  77.6 132.3  9     0.0000   -1.0000
gova         S    N    I S      ? 20090714 0827   24.0700 GAU  1.00e-01 -1.00e+00 -1.00e+00 -1.00e+00    1.0000 >   12.1618   -1.2471    1.1570   34.5716  -16.1186   -0.8120   28.9592  75.14  77.6 132.3  9     0.0000   -1.0000
cosa         S    E    I S      ? 20090714 0827   25.0400 GAU  1.00e-01 -1.00e+00 -1.00e+00 -1.00e+00    1.0000 >   11.4888    0.3959    0.7531   -3.5414  -32.5734   -0.3756   29.6163 344.88 345.6 138.8  9     0.0000   -1.0000
eoro         S    E    I P      ? 20090714 0827   20.6400 GAU  1.00e-01 -1.00e+00 -1.00e+00 -1.00e+00    1.0000 >    6.9400    0.5447    1.0475   -0.3007  -23.9806   -0.2316   31.0408   2.09   2.1 137.8  9     0.0000   -1.0000
eoro         S    E    I S      ? 20090714 0827   25.4800 GAU  1.00e-01 -1.00e+00 -1.00e+00 -1.00e+00    1.0000 >   11.6592    0.6655    0.6866   -0.3007  -23.9806   -0.2316   31.0408   2.09   2.1 137.8  9     0.0000   -1.0000
FOZ          H    E    I S      ? 20090714 0827   23.9700 GAU  1.00e-01 -1.00e+00 -1.00e+00 -1.00e+00    1.0000 >   12.3004   -1.4857    1.1087   -7.3876  -54.0466   -0.0540   33.3544 304.90 302.3 131.5  9     0.0000   -1.0000
whym         S    N    I S      ? 20090714 0827   24.5600 GAU  1.00e-01 -1.00e+00 -1.00e+00 -1.00e+00    1.0000 >   12.5054   -1.1007    1.0528   10.6125  -11.7501   -0.9047   34.1671  30.70  32.0 129.0  9     0.0000   -1.0000
pocr         S    N    I S      ? 20090714 0827   26.7000 GAU  1.00e-01 -1.00e+00 -1.00e+00 -1.00e+00    1.0000 >   13.7654   -0.2207    0.9446   -7.0189  -18.3619   -0.0950   39.7954   2.49   2.3 128.0  9     0.0000   -1.0000
END_PHASE
SCATTER Nsamples 5000
  24.1739  -43.6439   28.4450 -2.60e+02
  24.0625  -43.2864   28.8721 -2.60e+02
  23.9273  -43.4343   28.8298 -2.60e+02
  24.1921  -43.5043   28.6840 -2.60e+02
  23.9688  -43.2847   28.7255 -2.60e+02
  23.9021  -43.7676   28.4181 -2.60e+02
  24.1543  -43.8201   28.8504 -2.60e+02
  24.0997  -43.7490   28.8331 -2.60e+02
  24.0184  -43.3958   28.5495 -2.60e+02
  23.9201  -43.5097   28.8542 -2.60e+02
  24.1130  -43.5378   28.4919 -2.60e+02
  24.0755  -43.6198   28.4738 -2.60e+02
  24.1645  -43.7009   28.4620 -2.60e+02
  24.0259  -43.5169   28.6035 -2.60e+02
  24.0981  -43.8237   28.8272 -2.60e+02
  24.0756  -43.6743   28.5544 -2.60e+02
  24.1476  -43.8114   28.7359 -2.60e+02
  23.9857  -43.6679   28.8302 -2.60e+02
  24.1342  -43.7841   28.7484 -2.60e+02
  24.1485  -43.7356   28.4699 -2.60e+02
  24.1215  -43.3918   28.6080 -2.60e+02
  24.1707  -43.5266   28.6285 -2.60e+02
  23.9548  -43.6722   28.5392 -2.60e+02
  24.1444  -43.6836   28.7360 -2.60e+02
  23.9789  -43.3242   28.6457 -2.60e+02
  23.9238  -43.4858   28.8349 -2.60e+02
  24.0078  -43.3418   28.6867 -2.60e+02
  24.1569  -43.7914   28.7982 -2.60e+02
  24.1320  -43.5047   28.3543 -2.60e+02
  24.0972  -43.5665   28.6867 -2.60e+02
  24.0664  -43.7434   28.3342 -2.60e+02
  24.1274  -43.6772   28.5212 -2.60e+02
  24.1948  -43.6741   28.4147 -2.60e+02
  24.1613  -43.5258   28.5102 -2.60e+02
  24.0198  -43.5549   28.3691 -2.60e+02
  23.9681  -43.7844   28.5909 -2.60e+02
  24.0536  -43.8234   28.8153 -2.60e+02
  24.1060  -43.3272   28.6930 -2.60e+02
  24.2022  -43.3268   28.7300 -2.60e+02
  23.9720  -43.5077   28.3596 -2.60e+02
  24.1099  -43.3883   28.5708 -2.60e+02
  24.0933  -43.7412   28.4705 -2.60e+02
  24.0113  -43.8083   28.4558 -2.60e+02
  24.1582  -43.6744   28.6821 -2.60e+02
  23.9881  -43.4560   28.7074 -2.60e+02
  23.9296  -43.4736   28.6858 -2.60e+02
  24.1742  -43.4641   28.3648 -2.60e+02
  24.0218  -43.8169   28.4857 -2.60e+02
  23.9281  -43.4212   28.6742 -2.60e+02
  24.0474  -43.5105   28.4349 -2.60e+02
  24.1376  -43.4109   28.3503 -2.60e+02
  24.0664  -43.2993   28.3860 -2.60e+02
  24.0385  -43.3466   28.4791 -2.60e+02
  24.0052  -43.5414   28.5623 -2.60e+02
  23.9828  -43.3060   28.3938 -2.60e+02
  23.9090  -43.5312   28.5572 -2.60e+02
  24.1918  -43.6093   28.5869 -2.60e+02
  24.0090  -43.5137   28.4085 -2.60e+02
  24.0751  -43.3594   28.6276 -2.60e+02
  24.1979  -43.2792   28.7426 -2.60e+02
  23.9483  -43.5864   28.3775 -2.60e+02
  24.0263  -43.5440   28.6016 -2.60e+02
  24.0921  -43.5064   28.5933 -2.60e+02
  24.0336  -43.6996   28.7644 -2.60e+02
  24.2566  -43.2596   29.6897 -2.60e+02
  24.2064  -42.7331   29.5737 -2.60e+02
  24.3018  -42.7249   29.6739 -2.60e+02
  24.4060  -42.7798   29.8771 -2.60e+02
  24.2456  -42.9868   29.6426 -2.60e+02
  24.3260  -43.0667   29.5028 -2.60e+02
  24.4910  -42.9794   29.6394 -2.60e+02
  24.2366  -43.1365   29.8724 -2.60e+02
  24.4640  -43.0421   29.6251 -2.60e+02
  24.2333  -43.1814   29.8280 -2.60e+02
  24.3706  -43.2191   29.5675 -2.60e+02
  24.3429  -43.0029   29.8607 -2.60e+02
  24.3359  -43.1059   29.6600 -2.60e+02
  24.2949  -42.9266   29.7380 -2.60e+02
  24.2420  -43.2134   29.9552 -2.60e+02
  24.3628  -43.1541   29.4269 -2.60e+02
  24.3017  -43.0296   29.9549 -2.60e+02
  24.3689  -43.0011   29.7788 -2.60e+02
  24.2139  -43.0957   29.6609 -2.60e+02
  24.3344  -42.8733   29.6019 -2.60e+02
  24.3439  -43.1325   29.6918 -2.60e+02
  24.2863  -43.0844   29.6935 -2.60e+02
  24.4045  -42.8602   29.4315 -2.60e+02
  24.4506  -42.7773   29.4537 -2.60e+02
  24.2748  -42.8296   29.6051 -2.60e+02
  24.2579  -42.7984   29.9509 -2.60e+02
  24.3160  -43.0546   29.8146 -2.60e+02
  24.3066  -42.8938   29.6014 -2.60e+02
  24.4089  -43.0243   29.6121 -2.60e+02
  24.4485  -43.2386   29.6121 -2.60e+02
  24.5068  -43.2183   29.8626 -2.60e+02
  24.2455  -42.9472   29.6017 -2.60e+02
  24.3617  -42.8242   29.9193 -2.60e+02
  24.4315  -42.9344   29.8104 -2.60e+02
  24.4327  -43.1952   29.4542 -2.60e+02
  24.4718  -42.7485   29.4491 -2.60e+02
  24.4103  -42.8659   29.6430 -2.60e+02
  24.3326  -42.8150   29.9012 -2.60e+02
  24.3758  -43.0273   29.8575 -2.60e+02
  24.4636  -43.1537   29.8936 -2.60e+02
  24.3624  -42.8775   29.6435 -2.60e+02
  24.2772  -43.1117   29.4571 -2.60e+02
  24.4599  -42.9284   29.8809 -2.60e+02
  24.3094  -42.8966   29.4320 -2.60e+02
  24.2120  -43.1502   29.6403 -2.60e+02
  24.2102  -42.7589   29.8292 -2.60e+02
  24.3281  -43.0967   29.7547 -2.60e+02
  24.3191  -43.1108   29.8182 -2.60e+02
  24.2111  -43.0677   29.8809 -2.60e+02
  24.2730  -43.0844   29.6104 -2.60e+02
  24.5048  -43.0344   29.6820 -2.60e+02
  24.3460  -42.8867   29.8067 -2.60e+02
  24.5108  -42.9864   29.9405 -2.60e+02
  24.4918  -43.0693   29.7631 -2.60e+02
  24.4500  -43.2375   29.5468 -2.60e+02
  24.5122  -43.2513   29.6189 -2.60e+02
  24.3331  -43.2006   29.5788 -2.60e+02
  24.4137  -43.2448   29.8834 -2.60e+02
  24.4250  -42.9201   29.7701 -2.60e+02
  24.2626  -42.7751   29.5220 -2.60e+02
  24.4993  -42.9237   29.8651 -2.60e+02
  24.3864  -43.2529   29.7847 -2.60e+02
  24.3519  -43.0896   29.8794 -2.60e+02
  24.5176  -43.0110   28.1804 -2.60e+02
  24.7923  -43.0570   28.2300 -2.60e+02
  24.7614  -42.7400   28.2108 -2.60e+02
  24.5769  -42.8698   27.8294 -2.60e+02
  24.7009  -42.7330   27.8814 -2.60e+02
  24.7768  -42.9581   28.2551 -2.60e+02
  24.6331  -43.1421   27.9170 -2.60e+02
  24.7095  -42.8945   28.1959 -2.60e+02
  24.6857  -43.1682   28.0898 -2.60e+02
  24.5724  -43.1605   28.1004 -2.60e+02
  24.8165  -42.7307   27.9549 -2.60e+02
  24.5932  -43.2373   28.0644 -2.60e+02
  24.5871  -42.9545   28.3073 -2.60e+02
  24.6335  -42.7637   28.1928 -2.60e+02
  24.6229  -43.1501   27.8796 -2.60e+02
  24.7297  -42.8633   27.9528 -2.60e+02
  24.7577  -43.0034   27.8423 -2.60e+02
  24.6000  -43.1275   27.9012 -2.60e+02
  24.6985  -43.1868   28.0930 -2.60e+02
  24.7607  -43.2142   27.9289 -2.60e+02
  24.5220  -42.8692   28.2426 -2.60e+02
  24.5555  -43.1935   28.1800 -2.60e+02
  24.5665  -43.1209   28.0928 -2.60e+02
  24.6438  -42.8106   27.8333 -2.60e+02
  24.7724  -42.8101   28.2196 -2.60e+02
  24.7169  -42.7242   28.1508 -2.60e+02
  24.8036  -42.8502   28.0402 -2.60e+02
  24.5935  -42.7364   28.2372 -2.60e+02
  24.7017  -42.8186   28.1298 -2.60e+02
  24.6467  -43.2590   27.9392 -2.60e+02
  24.5844  -42.7994   28.2226 -2.60e+02
  24.5953  -42.7761   28.2033 -2.60e+02
  24.7645  -42.9728   28.2539 -2.60e+02
  24.5445  -42.8975   27.9543 -2.60e+02
  24.6082  -43.0589   28.1805 -2.60e+02
  24.5816  -43.1894   27.8676 -2.60e+02
  24.5344  -42.8450   28.2694 -2.60e+02
  24.5900  -42.9325   27.8187 -2.60e+02
  24.8181  -43.1020   28.1839 -2.60e+02
  24.6316  -43.2323   28.1905 -2.60e+02
  24.6510  -43.1862   28.3143 -2.60e+02
  24.7661  -43.0903   28.2381 -2.60e+02
  24.5680  -43.0215   27.7924 -2.60e+02
  24.7357  -43.0253   27.9898 -2.60e+02
  24.5180  -42.9066   28.2228 -2.60e+02
  24.7045  -43.0120   27.8404 -2.60e+02
  24.7793  -43.2518   27.9769 -2.60e+02
  24.7623  -43.1972   28.0540 -2.60e+02
  24.5547  -42.8538   28.0263 -2.60e+02
  24.6834  -42.7655   28.2816 -2.60e+02
  24.7098  -42.8077   27.8753 -2.60e+02
  24.6055  -43.0919   27.9246 -2.60e+02
  24.8168  -42.8601   27.9948 -2.60e+02
  24.6927  -43.2191   28.3244 -2.60e+02
  24.6025  -42.9902   27.8557 -2.60e+02
  24.5776  -42.7636   28.1246 -2.60e+02
  24.6636  -42.7756   28.1655 -2.60e+02
  24.6139  -42.9878   28.3125 -2.60e+02
  24.7048  -43.2360   28.3123 -2.60e+02
  24.6565  -43.1997   28.1088 -2.60e+02
  23.8043  -42.5261   29.3445 -2.60e+02
  23.8853  -42.3441   28.9963 -2.60e+02
  23.7862  -42.2863   29.1058 -2.60e+02
  23.7824  -42.6862   28.9639 -2.60e+02
  23.6497  -42.4601   29.3738 -2.60e+02
  23.7228  -42.2546   29.3181 -2.60e+02
  23.7747  -42.4870   29.0503 -2.60e+02
  23.8677  -42.4545   29.0249 -2.60e+02
  23.7439  -42.6121   28.9239 -2.60e+02
  23.7428  -42.4944   29.3000 -2.60e+02
  23.7576  -42.2499   29.1542 -2.60e+02
  23.8178  -42.5920   29.3149 -2.60e+02
  23.8690  -42.5229   28.9032 -2.60e+02
  23.8899  -42.2797   28.9172 -2.60e+02
  23.8085  -42.1621   29.3547 -2.60e+02
  23.6093  -42.1869   29.3420 -2.60e+02
  23.7377  -42.6248   29.2887 -2.60e+02
  23.6790  -42.2928   29.3739 -2.60e+02
  23.7737  -42.3600   29.1938 -2.60e+02
  23.6871  -42.4990   29.0300 -2.60e+02
  23.8998  -42.6244   29.3675 -2.60e+02
  23.8204  -42.5756   28.8851 -2.60e+02
  23.8995  -42.6267   29.0594 -2.60e+02
  23.8569  -42.2187   29.1784 -2.60e+02
  23.8540  -42.5813   28.8926 -2.60e+02
  23.6180  -42.2966   28.9845 -2.60e+02
  23.8399  -42.3940   29.2699 -2.60e+02
  23.7994  -42.6369   29.2500 -2.60e+02
  23.7508  -42.2197   29.4056 -2.60e+02
  23.7193  -42.1596   29.3906 -2.60e+02
  23.7035  -42.6199   29.2124 -2.60e+02
  23.8616  -42.2531   29.4127 -2.60e+02
  23.8434  -42.3398   28.8759 -2.60e+02
  23.5967  -42.4925   29.0785 -2.60e+02
  23.8616  -42.3191   29.2155 -2.60e+02
  23.7331  -42.3148   29.3115 -2.60e+02
  23.6956  -42.6354   29.0980 -2.60e+02
  23.8183  -42.2001   29.2123 -2.60e+02
  23.6340  -42.2141   29.2056 -2.60e+02
  23.6441  -42.2574   29.2814 -2.60e+02
  23.7741  -42.3371   29.3425 -2.60e+02
  23.8457  -42.2299   29.2935 -2.60e+02
  23.7069  -42.3650   28.9893 -2.60e+02
  23.7556  -42.5200   29.3927 -2.60e+02
  23.8998  -42.6254   28.9155 -2.60e+02
  23.8213  -42.5558   29.2150 -2.60e+02
  23.7644  -42.5029   28.8915 -2.60e+02
  23.8560  -42.3390   29.2806 -2.60e+02
  23.8389  -42.3359   28.9396 -2.60e+02
  23.7998  -42.2235   28.9277 -2.60e+02
  23.6446  -42.3594   28.9861 -2.60e+02
  23.8319  -42.2318   28.9894 -2.60e+02
  23.7806  -42.3038   29.1159 -2.60e+02
  23.6106  -42.6642   29.1258 -2.60e+02
  23.7083  -42.1603   29.4140 -2.60e+02
  23.7756  -42.4836   29.4048 -2.60e+02
  23.7280  -42.3534   28.9520 -2.60e+02
  23.7363  -42.6298   29.2107 -2.60e+02
  23.8096  -42.1856   28.9265 -2.60e+02
  23.9546  -43.4598   29.4793 -2.60e+02
  23.9570  -43.3815   29.5675 -2.60e+02
  24.1133  -43.7325   29.4211 -2.60e+02
  24.1402  -43.4349   29.5332 -2.60e+02
  24.1445  -43.5491   29.6923 -2.60e+02
  24.1314  -43.4409   29.7240 -2.60e+02
  24.0264  -43.6845   29.4656 -2.60e+02
  23.9698  -43.2966   29.8864 -2.60e+02
  24.1888  -43.7346   29.6259 -2.60e+02
  24.1101  -43.5595   29.4824 -2.60e+02
  24.1012  -43.7398   29.8229 -2.60e+02
  23.9590  -43.3049   29.7669 -2.60e+02
  24.0796  -43.7776   29.9542 -2.60e+02
  24.1663  -43.3012   29.8199 -2.60e+02
  24.0176  -43.2866   29.8584 -2.60e+02
  23.9874  -43.6585   29.5948 -2.60e+02
  24.1622  -43.7167   29.6245 -2.60e+02
  23.9117  -43.3734   29.6055 -2.60e+02
  24.0028  -43.4866   29.6838 -2.60e+02
  24.1460  -43.3469   29.8206 -2.60e+02
  24.1230  -43.7092   29.4695 -2.60e+02
  23.9215  -43.3207   29.5295 -2.60e+02
  24.1375  -43.4382   29.7733 -2.60e+02
  23.9745  -43.4525   29.8441 -2.60e+02
  24.1881  -43.5962   29.6397 -2.60e+02
  24.0921  -43.4777   29.9274 -2.60e+02
  24.0653  -43.8174   29.8589 -2.60e+02
  24.1011  -43.6065   29.7755 -2.60e+02
  23.9192  -43.5117   29.4433 -2.60e+02
  24.1998  -43.6194   29.6536 -2.60e+02
  24.1777  -43.2743   29.4335 -2.60e+02
  24.0807  -43.3752   29.7001 -2.60e+02
  24.0740  -43.4301   29.6023 -2.60e+02
  24.1116  -43.6594   29.6346 -2.60e+02
  24.1311  -43.7123   29.4216 -2.60e+02
  23.9477  -43.3147   29.5739 -2.60e+02
  23.9138  -43.7764   29.9164 -2.60e+02
  24.1434  -43.8119   29.7482 -2.60e+02
  23.9322  -43.4520   29.7942 -2.60e+02
  24.0809  -43.4446   29.6205 -2.60e+02
  24.1512  -43.2903   29.7251 -2.60e+02
  24.1388  -43.5732   29.7737 -2.60e+02
  23.9614  -43.2834   29.5312 -2.60e+02
  23.9673  -43.2817   29.7106 -2.60e+02
  24.0109  -43.7407   29.4177 -2.60e+02
  23.9039  -43.3253   29.7526 -2.60e+02
  24.1244  -43.7878   29.8143 -2.60e+02
  23.9868  -43.7322   29.8510 -2.60e+02
  24.0272  -43.7304   29.6205 -2.60e+02
  24.0619  -43.7838   29.5670 -2.60e+02
  24.0154  -43.4207   29.8300 -2.60e+02
  24.1023  -43.6660   29.5196 -2.60e+02
  23.9986  -43.7762   29.8596 -2.60e+02
  24.0905  -43.6706   29.5968 -2.60e+02
  24.0067  -43.7367   29.8276 -2.60e+02
  23.9032  -42.6889   28.6622 -2.60e+02
  24.0009  -42.4152   28.8094 -2.60e+02
  23.9662  -42.7112   28.4568 -2.60e+02
  24.0217  -42.3272   28.5164 -2.60e+02
  24.1694  -42.2308   28.5714 -2.60e+02
  24.1299  -42.4322   28.5212 -2.60e+02
  24.0172  -42.6049   28.7775 -2.60e+02
  23.9369  -42.2923   28.3988 -2.60e+02
  24.0134  -42.5372   28.7027 -2.60e+02
  24.0615  -42.6733   28.5553 -2.60e+02
  24.1903  -42.6009   28.4208 -2.60e+02
  24.1201  -42.3840   28.4897 -2.60e+02
  23.9518  -42.6112   28.6945 -2.60e+02
  24.0655  -42.5719   28.5059 -2.60e+02
  24.0463  -42.2300   28.4779 -2.60e+02
  24.1065  -42.3178   28.6685 -2.60e+02
  24.1014  -42.4601   28.7448 -2.60e+02
  24.0910  -42.4842   28.7927 -2.60e+02
  23.9657  -42.3185   28.3365 -2.60e+02
  24.1309  -42.6911   28.5315 -2.60e+02
  24.2016  -42.3482   28.5163 -2.60e+02
  23.9230  -42.6746   28.5576 -2.60e+02
  23.9993  -42.2709   28.4817 -2.60e+02
  24.1946  -42.3011   28.5382 -2.60e+02
  24.0562  -42.6360   28.4216 -2.60e+02
  23.9226  -42.2148   28.4189 -2.60e+02
  24.0099  -42.5315   28.3744 -2.60e+02
  24.0815  -42.3773   28.7608 -2.60e+02
  23.9853  -42.3934   28.6023 -2.60e+02
  24.1200  -42.4642   28.5149 -2.60e+02
  24.1595  -42.3372   28.7984 -2.60e+02
  24.0364  -42.4355   28.3775 -2.60e+02
  24.0226  -42.6484   28.4729 -2.60e+02
  24.0129  -42.6695   28.4734 -2.60e+02
  24.0136  -42.4972   28.8701 -2.60e+02
  24.0656  -42.4126   28.4770 -2.60e+02
  24.0396  -42.3604   28.7733 -2.60e+02
  24.0963  -42.4667   28.8214 -2.60e+02
  24.1092  -42.6206   28.4664 -2.60e+02
  24.1570  -42.5453   28.5875 -2.60e+02
  23.9211  -42.6866   28.6361 -2.60e+02
  24.1663  -42.5212   28.4197 -2.60e+02
  24.0127  -42.5400   28.5691 -2.60e+02
  24.0634  -42.2496   28.3430 -2.60e+02
  23.9188  -42.3291   28.8626 -2.60e+02
  24.1467  -42.6460   28.7040 -2.60e+02
  24.1011  -42.5604   28.5464 -2.60e+02
  23.9179  -42.2981   28.3644 -2.60e+02
  24.0818  -42.5523   28.3773 -2.60e+02
  23.9188  -42.2122   28.3669 -2.60e+02
  24.0110  -42.3101   28.6069 -2.60e+02
  24.1018  -42.2198   28.3951 -2.60e+02
  24.0798  -42.6079   28.6035 -2.60e+02
  24.0315  -42.3339   28.3360 -2.60e+02
  25.6006  -43.2501   27.6936 -2.62e+02
  25.6921  -42.8551   27.3997 -2.62e+02
  25.3776  -42.7889   27.7274 -2.62e+02
  25.2420  -43.4377   27.6862 -2.62e+02
  25.3536  -43.2871   27.4165 -2.62e+02
  25.3900  -43.7075   28.0824 -2.62e+02
  25.6615  -43.3080   27.8384 -2.62e+02
  25.6519  -43.5325   27.7418 -2.62e+02
  25.2450  -43.5459   27.7028 -2.62e+02
  25.6519  -43.7602   27.4315 -2.62e+02
  25.5483  -43.2265   27.7191 -2.62e+02
  25.6960  -43.4279   27.3601 -2.62e+02
  25.2194  -43.0683   27.7635 -2.62e+02
  25.2511  -43.6675   28.1324 -2.62e+02
  25.5606  -43.6167   28.0822 -2.62e+02
  25.1757  -43.5696   27.7642 -2.62e+02
  25.3910  -43.0467   27.8712 -2.62e+02
  25.4408  -42.8855   27.6735 -2.62e+02
  25.2044  -43.6459   28.2667 -2.62e+02
  25.7151  -42.8916   28.2724 -2.62e+02
  25.2268  -43.4172   28.1586 -2.62e+02
  25.6577  -42.9600   27.8181 -2.62e+02
  25.4465  -43.6198   27.4491 -2.62e+02
  25.3799  -43.0906   28.2112 -2.62e+02
  25.4827  -43.0225   27.9267 -2.62e+02
  25.6451  -43.2510   28.0121 -2.62e+02
  25.3587  -43.3964   27.6722 -2.62e+02
  25.6557  -42.8287   27.9437 -2.62e+02
  25.4037  -42.7756   27.9376 -2.62e+02
  25.4350  -43.6496   27.3203 -2.62e+02
  25.7186  -43.6575   28.1306 -2.62e+02
  25.7235  -43.2860   28.1088 -2.62e+02
  25.6896  -43.2264   28.3200 -2.62e+02
  25.3309  -43.1028   27.3064 -2.62e+02
