NLLOC "./3D_reloc_nonlin_latlon_calum_lfe_loc/3D_reloc_nonlin_latlon_calum_lfe.20100831.163926.grid0" "LOCATED" "Location completed."
SIGNATURE "C. Boese VUW   NLLoc:v6.00.0 17May2015 09h58m44"
COMMENT "2008-2009 SAMBA"
GRID  50 90 26  -30 -95 -2  2 2 2 PROB_DENSITY
SEARCH OCTREE nInitial 19200 nEvaluated 20000 smallestNodeSide 0.306250/0.556250/0.541667 oct_tree_integral 2.190365e+01 scatter_volume 2.190365e+01
HYPOCENTER  x 11.4969 y -57.4531 z 32.9375  OT 19.7573  ix -1 iy -1 iz -1
GEOGRAPHIC  OT 2010 08 31  16 39   19.7573  Lat -43.68944140 Long 169.91758914 Depth 32.937500 
QUALITY  Pmax 1.11586e-23 MFmin 3.25115 MFmax 4.54317 RMS 0.391526 Nphs 10 Gap 251.053 Dist 9.37193 Mamp  -9.9 0 Mdur  -9.9 0
VPVSRATIO  VpVsRatio -0.0474278  Npair 2  Diff 0
STATISTICS  ExpectX 11.6326 Y -57.6622 Z 32.8799  CovXX 0.792007 XY -0.268494 XZ -0.693351 YY 2.32533 YZ -2.56216 ZZ 5.82244 EllAz1  55.0782 Dip1  20.2082 Len1  1.0175 Az2  318.119 Dip2  18.2197 Len2  2.24936 Len3  5.046035e+00
STAT_GEOG  ExpectLat -43.6915 Long 169.916 Depth 32.8799
TRANSFORM  SIMPLE LatOrig -43.301800  LongOrig 170.412000  RotCW -54.000000
QML_OriginQuality  assocPhCt 11  usedPhCt 10  assocStaCt -1  usedStaCt 9  depthPhCt -1  stdErr 0.391526  azGap 251.053  secAzGap 295.906  gtLevel -  minDist 9.37193 maxDist 45.7116 medDist 30.7131
QML_OriginUncertainty  horUnc -1  minHorUnc 1.31019  maxHorUnc 2.33522  azMaxHorUnc 170.35
FOCALMECH  Hyp  -43.6894 169.918 32.9375 Mech  0 0 0 mf  0 nObs 0
PHASE ID Ins Cmp On Pha  FM Date     HrMn   Sec     Err  ErrMag    Coda      Amp       Per  >   TTpred    Res       Weight    StaLoc(X  Y         Z)        SDist    SAzim  RAz  RDip RQual    Tcorr 
cova   S    Z    I P      ? 20100831 1639     26.71 GAU         1        -1        -1        -1 >    5.9265    1.0262    0.0236    6.9975  -49.2319   -1.4760    9.3719  25.31  28.1 161.7  9     0.0000
cova   S    N    E S      ? 20100831 1639     29.73 GAU     1e+05        -1        -1        -1 >    9.9565    0.0162    0.0000    6.9975  -49.2319   -1.4760    9.3719  25.31  28.1 161.7  9     0.0000
FOZ    H    E    E S      ? 20100831 1639     30.55 GAU       0.1        -1        -1        -1 >   10.7596    0.0331    1.4433   -7.3876  -54.0466   -0.0540   19.1892 334.23 336.8 148.4  9     0.0000
mtfo   S    E    E S      ? 20100831 1639     30.74 GAU       0.1        -1        -1        -1 >   11.3758   -0.3931    1.1796   -0.4173  -40.3886   -1.2140   20.8121  19.08  21.1 146.7  9     0.0000
cosa   S    E    E S      ? 20100831 1639     32.23 GAU       0.1        -1        -1        -1 >   12.4045    0.0681    1.0233   -3.5414  -32.5734   -0.3756   29.0715  22.85  25.1 139.2  9     0.0000
labe   S    E    E S      ? 20100831 1639     33.05 GAU       0.1        -1        -1        -1 >   12.7509    0.5417    1.3677   14.0967  -26.8503   -1.5878   30.7131  58.86  67.2 135.1  9     0.0000
fran   S    Z    I P      ? 20100831 1639     30.64 GAU         1        -1        -1        -1 >    8.6013    2.2814    0.0236   -4.9003  -21.5517   -0.0310   39.4687  29.45  33.5 125.7  9     0.0000
fran   S    N    E S      ? 20100831 1639     33.66 GAU       0.1        -1        -1        -1 >   14.4502   -0.5476    0.9441   -4.9003  -21.5517   -0.0310   39.4687  29.45  33.5 125.7  9     0.0000
pocr   S    2    E S      ? 20100831 1639     35.85 GAU       0.1        -1        -1        -1 >   15.5016    0.5911    1.1008   -7.0189  -18.3619   -0.0950   43.2546  28.66  33.8 121.2  9     0.0000
whym   S    E    E S      ? 20100831 1639     35.19 GAU       0.1        -1        -1        -1 >   15.6305   -0.1978    1.3871   10.6125  -11.7501   -0.9047   45.7116  52.89  58.3 119.0  9     0.0000
gova   S    N    E S      ? 20100831 1639     36.18 GAU       0.1        -1        -1        -1 >   16.6431   -0.2204    1.5070   34.5716  -16.1186   -0.8120   47.3391  83.17  83.8 117.1  9     0.0000
END_PHASE
END_NLLOC

