NLLOC "./3D_reloc_nonlin_latlon_calum_lfe_loc/3D_reloc_nonlin_latlon_calum_lfe.20090714.165504.grid0" "LOCATED" "Location completed."
SIGNATURE "C. Boese VUW   NLLoc:v6.00.0 17May2015 09h58m44"
COMMENT "2008-2009 SAMBA"
GRID  50 90 26  -30 -95 -2  2 2 2 PROB_DENSITY
SEARCH OCTREE nInitial 19200 nEvaluated 20024 smallestNodeSide 0.153125/0.278125/0.270833 oct_tree_integral 5.308436e+00 scatter_volume 5.308436e+00
HYPOCENTER  x 10.9609 y -50.3609 z 22.5104  OT 59.3759  ix -1 iy -1 iz -1
GEOGRAPHIC  OT 2009 07 14  16 54   59.3759  Lat -43.64802101 Long 169.98537712 Depth 22.510417 
QUALITY  Pmax 6.50658e-49 MFmin 4.49148 MFmax 6.4256 RMS 0.540966 Nphs 11 Gap 224.055 Dist 15.1298 Mamp  -9.9 0 Mdur  -9.9 0
VPVSRATIO  VpVsRatio 2.39759  Npair 3  Diff 1.16
STATISTICS  ExpectX 11.1593 Y -50.516 Z 22.222  CovXX 0.81631 XY -0.400361 XZ -0.860789 YY 0.418539 YZ 0.360859 ZZ 1.85964 EllAz1  42.2699 Dip1  10.3012 Len1  0.711123 Az2  318.616 Dip2  -31.3075 Len2  1.30005 Len3  2.954273e+00
STAT_GEOG  ExpectLat -43.6503 Long 169.985 Depth 22.222
TRANSFORM  SIMPLE LatOrig -43.301800  LongOrig 170.412000  RotCW -54.000000
QML_OriginQuality  assocPhCt 0  usedPhCt 11  assocStaCt 0  usedStaCt 0  depthPhCt 0  stdErr 0.540966  azGap 224.055  secAzGap 0  gtLevel   minDist 0 maxDist 0 medDist 0
QML_OriginUncertainty  horUnc -1  minHorUnc 0  maxHorUnc 0  azMaxHorUnc 90
FOCALMECH  Hyp  -43.648 169.985 22.5104 Mech  0 0 0 mf  0 nObs 0
PHASE ID Ins Cmp On Pha  FM Date     HrMn   Sec     Err  ErrMag    Coda      Amp       Per       PriorWt  >   TTpred    Res       Weight    StaLoc(X  Y         Z)        SDist    SAzim  RAz  RDip RQual    Tcorr       TTerr
mtfo         S    N    I P      ? 20090714 1655    4.4000 GAU  1.00e-01 -1.00e+00 -1.00e+00 -1.00e+00    1.0000 >    4.8632    0.1609    0.9380   -0.4173  -40.3886   -1.2140   15.1298   5.23  12.5 149.6  9     0.0000   -1.0000
mtfo         S    E    I S      ? 20090714 1655    7.2900 GAU  1.00e-01 -1.00e+00 -1.00e+00 -1.00e+00    1.0000 >    8.1702   -0.2561    0.9299   -0.4173  -40.3886   -1.2140   15.1298   5.23  12.5 149.6  9     0.0000   -1.0000
FOZ          H    N    I P      ? 20090714 1655    4.5100 GAU  1.00e-01 -1.00e+00 -1.00e+00 -1.00e+00    1.0000 >    4.9983    0.1358    1.1486   -7.3876  -54.0466   -0.0540   18.7150 312.64 307.7 143.8  9     0.0000   -1.0000
FOZ          H    N    I S      ? 20090714 1655    7.3500 GAU  1.00e-01 -1.00e+00 -1.00e+00 -1.00e+00    1.0000 >    8.3971   -0.4230    1.1508   -7.3876  -54.0466   -0.0540   18.7150 312.64 307.7 143.8  9     0.0000   -1.0000
cosa         S    Z    I P      ? 20090714 1655    5.3400 GAU  1.00e-01 -1.00e+00 -1.00e+00 -1.00e+00    1.0000 >    5.4684    0.4957    1.0075   -3.5414  -32.5734   -0.3756   22.9503  14.81  20.4 140.8  9     0.0000   -1.0000
cosa         S    N    E S      ? 20090714 1655    9.3400 GAU  1.00e-01 -1.00e+00 -1.00e+00 -1.00e+00    1.0000 >    9.1869    0.7772    0.7817   -3.5414  -32.5734   -0.3756   22.9503  14.81  20.4 140.8  9     0.0000   -1.0000
labe         S    Z    I S      ? 20090714 1655    9.1800 GAU  1.00e-01 -1.00e+00 -1.00e+00 -1.00e+00    1.0000 >    9.5467    0.2573    1.0565   14.0967  -26.8503   -1.5878   23.7189  61.60  70.2 132.5  9     0.0000   -1.0000
eoro         S    N    I S      ? 20090714 1655    9.7000 GAU  1.00e-01 -1.00e+00 -1.00e+00 -1.00e+00    1.0000 >   10.2761    0.0480    0.7127   -0.3007  -23.9806   -0.2316   28.6835  30.88  38.1 129.1  9     0.0000   -1.0000
pocr         S    E    I S      ? 20090714 1655   10.7200 GAU  1.00e-01 -1.00e+00 -1.00e+00 -1.00e+00    1.0000 >   12.4474   -1.1033    0.9805   -7.0189  -18.3619   -0.0950   36.7044  24.67  33.8 123.8  9     0.0000   -1.0000
whym         S    N    I S      ? 20090714 1655   12.7000 GAU  1.00e-01 -1.00e+00 -1.00e+00 -1.00e+00    1.0000 >   12.6228    0.7012    1.0928   10.6125  -11.7501   -0.9047   38.6124  53.48  60.0 119.1  9     0.0000   -1.0000
gova         S    E    E S      ? 20090714 1655   12.8700 GAU  1.00e-01 -1.00e+00 -1.00e+00 -1.00e+00    1.0000 >   14.0599   -0.5658    1.2009   34.5716  -16.1186   -0.8120   41.5933  88.59  91.4 112.0  9     0.0000   -1.0000
END_PHASE
SCATTER Nsamples 4992
  11.9022  -50.9149   21.7565 -1.05e+02
  11.7915  -50.7927   21.7125 -1.05e+02
  11.9380  -50.7628   21.4467 -1.05e+02
  11.9194  -50.8053   21.3877 -1.05e+02
  11.7976  -50.9919   21.5463 -1.05e+02
  11.6522  -51.0366   21.6139 -1.05e+02
  11.7129  -51.0248   21.7544 -1.05e+02
  11.6950  -50.5892   21.6300 -1.05e+02
  11.8815  -50.7074   21.7993 -1.05e+02
  11.6645  -51.0546   21.4466 -1.05e+02
  11.7325  -50.9759   21.7314 -1.05e+02
  11.7433  -50.5947   21.5095 -1.05e+02
  11.8816  -50.6643   21.5391 -1.05e+02
  11.7875  -50.6330   21.2981 -1.05e+02
  11.9311  -50.7611   21.3789 -1.05e+02
  11.6943  -50.8976   21.5814 -1.05e+02
  11.8318  -50.6177   21.5155 -1.05e+02
  11.9291  -50.8519   21.4858 -1.05e+02
  11.8461  -50.5693   21.7623 -1.05e+02
  11.7868  -50.9025   21.6214 -1.05e+02
  11.8109  -50.5702   21.7448 -1.05e+02
  11.8093  -50.8134   21.4316 -1.05e+02
  11.8662  -50.6785   21.4393 -1.05e+02
  11.8629  -50.5109   21.7241 -1.05e+02
  11.8736  -50.5400   21.3708 -1.05e+02
  11.7213  -50.8064   21.3424 -1.05e+02
  11.7827  -50.5201   21.5533 -1.05e+02
  11.8203  -51.0508   21.4688 -1.05e+02
  11.8743  -50.5361   21.7403 -1.05e+02
  11.9081  -50.9680   21.6304 -1.05e+02
  11.7614  -50.8668   21.4027 -1.05e+02
  11.8773  -50.9389   21.6922 -1.05e+02
  11.9519  -50.9891   21.3923 -1.05e+02
  11.8945  -50.5637   21.7033 -1.05e+02
  11.6796  -50.8165   21.6474 -1.05e+02
  11.9378  -50.6160   21.6172 -1.05e+02
  11.8634  -50.9220   21.6637 -1.05e+02
  11.6983  -50.7110   21.6090 -1.05e+02
  11.8119  -50.9775   21.3630 -1.05e+02
  11.9502  -50.7635   21.7154 -1.05e+02
  11.6528  -50.9001   21.3682 -1.05e+02
  11.7018  -50.6342   21.4575 -1.05e+02
  11.8057  -50.7897   21.4444 -1.05e+02
  11.6988  -50.5148   21.7735 -1.05e+02
  11.7436  -51.0402   21.5945 -1.05e+02
  11.7819  -50.7532   21.3390 -1.05e+02
  11.8067  -51.0441   21.4441 -1.05e+02
  11.7334  -50.9630   21.4644 -1.05e+02
  11.8196  -50.7193   21.4497 -1.05e+02
  11.7817  -50.6272   21.6673 -1.05e+02
  11.7395  -50.7869   21.7899 -1.05e+02
  11.6937  -50.5527   21.4706 -1.05e+02
  11.6779  -50.5699   21.3630 -1.05e+02
  11.7567  -50.7683   21.3389 -1.05e+02
  11.7994  -50.7349   21.3409 -1.05e+02
  11.8719  -50.5667   21.3412 -1.05e+02
  11.8012  -50.6291   21.7681 -1.05e+02
  11.6897  -50.9661   21.6033 -1.05e+02
  10.6043  -50.2657   21.9209 -1.05e+02
  10.6207  -50.0200   22.1031 -1.05e+02
  10.4306  -50.0799   22.1073 -1.05e+02
  10.6653  -50.4326   22.2781 -1.05e+02
  10.5026  -50.3547   22.2781 -1.05e+02
  10.4346  -50.1112   22.0863 -1.05e+02
  10.4251  -50.4879   21.9105 -1.05e+02
  10.4622  -50.4156   22.2930 -1.05e+02
  10.5739  -50.4637   22.0201 -1.05e+02
  10.6730  -50.4964   21.8453 -1.05e+02
  10.5909  -50.4281   22.3322 -1.05e+02
  10.7153  -50.4826   22.2192 -1.05e+02
  10.6192  -50.2335   21.9907 -1.05e+02
  10.4479  -50.3107   21.9969 -1.05e+02
  10.6413  -50.4457   22.2203 -1.05e+02
  10.6597  -50.0526   21.9676 -1.05e+02
  10.6383  -50.2466   22.3461 -1.05e+02
  10.6537  -49.9462   21.9674 -1.05e+02
  10.4680  -50.3388   22.1471 -1.05e+02
  10.5077  -50.3549   22.3642 -1.05e+02
  10.5461  -50.4079   22.3022 -1.05e+02
  10.6680  -50.1900   22.0353 -1.05e+02
  10.4365  -50.2430   22.3334 -1.05e+02
  10.6075  -50.1949   21.8959 -1.05e+02
  10.5433  -50.0723   22.2120 -1.05e+02
  10.7233  -50.0543   21.8690 -1.05e+02
  10.4957  -50.2594   22.2138 -1.05e+02
  10.7088  -50.0589   22.0110 -1.05e+02
  10.5428  -50.1207   22.0497 -1.05e+02
  10.6076  -50.4673   22.0700 -1.05e+02
  10.6102  -50.3085   21.9378 -1.05e+02
  10.5731  -50.3874   22.0347 -1.05e+02
  10.4281  -50.1646   21.8762 -1.05e+02
  10.6122  -50.4332   22.0170 -1.05e+02
  10.6571  -50.0651   22.0543 -1.05e+02
  10.5304  -50.1126   22.1361 -1.05e+02
  10.5598  -50.2211   22.2130 -1.05e+02
  10.5941  -50.4907   22.3051 -1.05e+02
  10.6917  -49.9471   22.3408 -1.05e+02
  10.5650  -50.1689   22.0305 -1.05e+02
  10.5231  -49.9708   22.1631 -1.05e+02
  10.4791  -50.3005   21.9215 -1.05e+02
  10.5303  -50.1658   22.0908 -1.05e+02
  10.4510  -49.9576   21.8543 -1.05e+02
  10.6222  -50.2147   22.1557 -1.05e+02
  10.5610  -50.1325   22.2430 -1.05e+02
  10.4979  -50.0850   22.2294 -1.05e+02
  10.7077  -50.2942   22.1933 -1.05e+02
  10.6435  -50.4147   22.1121 -1.05e+02
  10.5665  -50.1688   22.0269 -1.05e+02
  10.5920  -50.0793   22.1547 -1.05e+02
  10.5422  -50.0003   22.2061 -1.05e+02
  10.5156  -49.9518   22.0542 -1.05e+02
  10.5422  -50.2164   22.2967 -1.05e+02
  10.5836  -50.0838   22.1396 -1.05e+02
  10.4672  -50.2418   22.1793 -1.05e+02
  10.7768  -50.0038   21.7233 -1.05e+02
  10.7374  -50.3228   21.7507 -1.05e+02
  10.7379  -50.2859   21.3253 -1.05e+02
  10.8240  -50.3531   21.4585 -1.05e+02
  10.9418  -50.1224   21.6518 -1.05e+02
  10.7640  -50.3951   21.4182 -1.05e+02
  10.8360  -50.0841   21.5327 -1.05e+02
  10.8851  -50.3581   21.7822 -1.05e+02
  10.9987  -50.1793   21.7503 -1.05e+02
  10.9164  -50.0814   21.3542 -1.05e+02
  10.9550  -50.0082   21.7207 -1.05e+02
  10.9377  -50.0886   21.3749 -1.05e+02
  10.8133  -50.2292   21.6240 -1.05e+02
  10.9600  -50.3305   21.7996 -1.05e+02
  10.7782  -50.0710   21.3602 -1.05e+02
  10.9529  -50.3184   21.5979 -1.05e+02
  10.8954  -50.1987   21.6222 -1.05e+02
  10.8924  -50.0782   21.4657 -1.05e+02
  11.0073  -50.0206   21.5853 -1.05e+02
  10.9273  -50.3423   21.5804 -1.05e+02
  10.9874  -50.4922   21.3944 -1.05e+02
  11.0006  -50.2782   21.3149 -1.05e+02
  10.7614  -49.9451   21.3050 -1.05e+02
  10.9022  -50.3650   21.7612 -1.05e+02
  10.8043  -50.1790   21.7042 -1.05e+02
  11.0220  -49.9876   21.7164 -1.05e+02
  10.9858  -50.0017   21.8062 -1.05e+02
  10.8001  -50.3936   21.4913 -1.05e+02
  10.8895  -50.2606   21.6957 -1.05e+02
  10.9141  -50.3778   21.4767 -1.05e+02
  10.8421  -50.2745   21.5241 -1.05e+02
  11.0052  -50.2592   21.3134 -1.05e+02
  11.0316  -50.2619   21.8243 -1.05e+02
  10.8197  -50.4616   21.7232 -1.05e+02
  10.8073  -50.3919   21.5027 -1.05e+02
  10.7776  -50.2165   21.6940 -1.05e+02
  10.7481  -49.9888   21.5645 -1.05e+02
  11.0066  -50.0926   21.4089 -1.05e+02
  10.8668  -50.4773   21.6846 -1.05e+02
  10.9551  -50.3160   21.4132 -1.05e+02
  10.8782  -50.3436   21.4643 -1.05e+02
  10.7388  -50.3912   21.7119 -1.05e+02
  10.7709  -50.1315   21.6520 -1.05e+02
  10.7584  -49.9550   21.8042 -1.05e+02
  10.8877  -50.3324   21.4264 -1.05e+02
  10.8477  -50.4869   21.7480 -1.05e+02
  10.7833  -50.2312   21.4675 -1.05e+02
  10.9836  -50.4927   21.5557 -1.05e+02
  10.9724  -50.2882   21.4859 -1.05e+02
  10.9325  -50.2602   21.5273 -1.05e+02
  10.8686  -50.0077   21.5129 -1.05e+02
  10.7442  -50.4421   21.3480 -1.05e+02
  11.2497  -50.6411   21.3049 -1.05e+02
  11.2328  -50.7168   21.4473 -1.05e+02
  11.3156  -50.8911   21.4084 -1.05e+02
  11.1646  -50.7179   21.5935 -1.05e+02
  11.2647  -50.6570   21.3085 -1.05e+02
  11.1483  -50.5288   21.7078 -1.05e+02
  11.0627  -50.9846   21.4754 -1.05e+02
  11.1836  -50.5435   21.4307 -1.05e+02
  11.0642  -50.8041   21.4061 -1.05e+02
  11.0627  -50.7014   21.4732 -1.05e+02
  11.0555  -50.7801   21.8206 -1.05e+02
  11.1323  -50.9170   21.3111 -1.05e+02
  11.2885  -50.6388   21.3376 -1.05e+02
  11.1066  -51.0154   21.4751 -1.05e+02
  11.0519  -50.9139   21.8108 -1.05e+02
  11.3413  -50.5942   21.4036 -1.05e+02
  11.2349  -50.8459   21.6162 -1.05e+02
  11.0794  -50.8450   21.3510 -1.05e+02
  11.2378  -50.9095   21.3295 -1.05e+02
  11.2523  -50.8387   21.8240 -1.05e+02
  11.2898  -50.7639   21.4661 -1.05e+02
  11.2705  -50.5277   21.5660 -1.05e+02
  11.3387  -51.0386   21.6737 -1.05e+02
  11.2828  -50.9352   21.4573 -1.05e+02
  11.0945  -50.7309   21.6834 -1.05e+02
  11.2220  -50.7819   21.3273 -1.05e+02
  11.2874  -50.6407   21.6538 -1.05e+02
  11.0945  -51.0018   21.7291 -1.05e+02
  11.0455  -50.5931   21.5825 -1.05e+02
  11.2664  -50.8517   21.3035 -1.05e+02
  11.3009  -51.0211   21.5359 -1.05e+02
  11.3275  -50.8034   21.3871 -1.05e+02
  11.0968  -51.0289   21.2932 -1.05e+02
  11.1171  -50.8998   21.3115 -1.05e+02
  11.0602  -50.6478   21.5578 -1.05e+02
  11.3394  -50.9212   21.7001 -1.05e+02
  11.1232  -51.0396   21.7735 -1.05e+02
  11.3158  -50.6309   21.7715 -1.05e+02
  11.2349  -50.7765   21.4521 -1.05e+02
  11.2655  -50.7604   21.6863 -1.05e+02
  11.1322  -50.5137   21.3696 -1.05e+02
  11.1967  -50.6980   21.4368 -1.05e+02
  11.3209  -50.7238   21.7087 -1.05e+02
  11.2485  -50.7100   21.3275 -1.05e+02
  11.0530  -50.9064   21.7797 -1.05e+02
  11.2379  -50.7274   21.3664 -1.05e+02
  11.1493  -50.9046   21.5227 -1.05e+02
  11.0557  -50.6118   21.4187 -1.05e+02
  11.0520  -51.0087   21.3752 -1.05e+02
  11.0598  -50.9404   21.3536 -1.05e+02
  11.2985  -51.0198   21.7979 -1.05e+02
  11.0490  -51.0477   21.6640 -1.05e+02
  10.9519  -50.0613   25.0719 -1.07e+02
  10.5550  -49.7371   24.8442 -1.07e+02
  10.9022  -49.5657   25.0670 -1.07e+02
  10.6201  -49.8775   24.3799 -1.07e+02
  10.8845  -50.4349   24.4617 -1.07e+02
  10.9481  -50.4477   24.4798 -1.07e+02
  10.9823  -49.5416   24.4619 -1.07e+02
  10.6469  -49.7642   24.9843 -1.07e+02
  10.6994  -49.6047   24.2463 -1.07e+02
  10.8419  -49.5117   24.3434 -1.07e+02
  10.5414  -49.5304   24.0472 -1.07e+02
  10.9291  -50.2188   24.9051 -1.07e+02
  10.4779  -49.4713   24.2610 -1.07e+02
  11.0096  -50.0869   24.4743 -1.07e+02
  10.7912  -49.9734   24.9702 -1.07e+02
  10.6987  -49.5526   24.4890 -1.07e+02
  10.4285  -50.4788   25.0170 -1.07e+02
  11.0052  -50.1574   24.3472 -1.07e+02
  10.7921  -49.8159   24.6686 -1.07e+02
  11.0266  -49.5331   24.1078 -1.07e+02
  10.8434  -49.8348   24.8601 -1.07e+02
  10.8861  -49.7747   24.6068 -1.07e+02
  10.9729  -49.8401   24.6921 -1.07e+02
  10.8924  -50.1499   24.9732 -1.07e+02
  10.8082  -49.5170   24.9804 -1.07e+02
  11.0096  -49.9749   24.0574 -1.07e+02
  10.5382  -50.3398   24.1673 -1.07e+02
  10.8471  -49.5303   24.9139 -1.07e+02
  10.4888  -50.2354   24.8130 -1.07e+02
  10.9434  -50.0301   24.8476 -1.07e+02
  10.7996  -50.0614   24.5298 -1.07e+02
  10.4515  -50.4930   24.2646 -1.07e+02
  10.6783  -50.3403   24.2444 -1.07e+02
  11.0024  -49.4732   24.8742 -1.07e+02
  10.5674  -50.3477   24.0761 -1.07e+02
  11.0035  -49.9703   24.1648 -1.07e+02
  10.6393  -49.7344   24.9444 -1.07e+02
  10.7703  -49.9564   24.1381 -1.07e+02
  10.6975  -50.2935   24.6733 -1.07e+02
  10.6590  -49.7875   24.9569 -1.07e+02
  10.7256  -49.4872   24.3936 -1.07e+02
  10.6780  -49.8994   24.1181 -1.07e+02
  10.6943  -49.6033   24.7645 -1.07e+02
  10.5259  -49.7543   24.5138 -1.07e+02
  10.9127  -49.9182   25.0113 -1.07e+02
  10.5968  -49.8927   24.5260 -1.07e+02
  10.5072  -50.2567   24.9473 -1.07e+02
  10.7650  -50.2505   24.9769 -1.07e+02
  10.5878  -50.1091   24.1974 -1.07e+02
  10.5725  -49.4267   24.3746 -1.07e+02
  10.4581  -49.9096   24.8229 -1.07e+02
  11.6537  -50.5543   21.0422 -1.05e+02
  11.7886  -50.9148   21.0620 -1.05e+02
  11.8413  -51.0116   21.2840 -1.05e+02
  11.7329  -50.7104   21.1842 -1.05e+02
  11.8507  -50.9157   21.2622 -1.05e+02
  11.9145  -50.7012   21.0031 -1.05e+02
  11.9221  -50.9414   21.0550 -1.05e+02
  11.7976  -50.9340   20.9247 -1.05e+02
  11.7198  -51.0364   20.9696 -1.05e+02
  11.7720  -50.7186   21.2200 -1.05e+02
  11.9388  -50.6410   21.1355 -1.05e+02
  11.8324  -50.5310   21.2149 -1.05e+02
  11.9427  -50.7375   21.2622 -1.05e+02
  11.8100  -50.9155   21.2298 -1.05e+02
  11.8871  -50.5780   20.7609 -1.05e+02
  11.6647  -50.6049   21.0252 -1.05e+02
  11.9319  -50.9818   20.9867 -1.05e+02
  11.8551  -50.9749   20.9827 -1.05e+02
  11.8518  -50.8882   20.9095 -1.05e+02
  11.6999  -50.7493   20.7903 -1.05e+02
  11.7413  -50.6090   20.8814 -1.05e+02
  11.7207  -50.8875   20.8839 -1.05e+02
  11.9162  -50.9985   20.8665 -1.05e+02
  11.9270  -50.9952   20.8004 -1.05e+02
  11.7822  -50.6876   20.9072 -1.05e+02
  11.7051  -50.9019   21.2829 -1.05e+02
  11.8825  -50.6572   20.9757 -1.05e+02
  11.6834  -50.8134   20.8828 -1.05e+02
  11.6958  -50.6122   21.1014 -1.05e+02
  11.7234  -50.9794   20.9845 -1.05e+02
  11.6743  -50.5720   20.8504 -1.05e+02
  11.6886  -50.7487   21.1832 -1.05e+02
  11.6863  -50.5534   20.9160 -1.05e+02
  11.8882  -50.5487   20.7821 -1.05e+02
  11.6952  -50.8073   20.9536 -1.05e+02
  11.7722  -50.5505   20.7982 -1.05e+02
  11.9058  -51.0296   20.9639 -1.05e+02
  11.8855  -50.9535   21.1381 -1.05e+02
  11.7447  -50.5783   21.1967 -1.05e+02
  11.8746  -50.8006   21.1851 -1.05e+02
  11.8862  -50.9259   20.8604 -1.05e+02
  11.7673  -51.0334   20.9619 -1.05e+02
  11.7013  -50.9048   20.9044 -1.05e+02
  11.7687  -50.5320   20.9367 -1.05e+02
  11.7247  -50.6876   21.0693 -1.05e+02
  11.7510  -51.0212   20.9241 -1.05e+02
  11.7686  -50.9328   21.0663 -1.05e+02
  11.7891  -50.6526   21.0740 -1.05e+02
  11.7655  -50.5946   21.2742 -1.05e+02
  11.6912  -50.9042   20.8804 -1.05e+02
  11.6720  -51.0391   21.1762 -1.05e+02
  10.7707  -51.0537   23.3522 -1.05e+02
  10.9843  -50.8125   23.2181 -1.05e+02
  11.0057  -50.8269   23.3012 -1.05e+02
  10.8027  -50.7660   23.0198 -1.05e+02
  11.0121  -50.6938   23.1067 -1.05e+02
  10.8576  -50.5882   23.3821 -1.05e+02
  10.8448  -50.7434   23.3797 -1.05e+02
  10.9807  -50.8578   23.3138 -1.05e+02
  10.8626  -51.0145   23.0105 -1.05e+02
  10.8521  -50.7601   22.9211 -1.05e+02
  10.7607  -50.6696   23.4395 -1.05e+02
  10.7945  -50.7346   23.2145 -1.05e+02
  11.0143  -50.9473   23.3394 -1.05e+02
  10.7973  -50.5326   23.1889 -1.05e+02
  11.0089  -50.9400   22.9944 -1.05e+02
  11.0257  -50.5094   23.2787 -1.05e+02
  10.7576  -50.7094   23.0477 -1.05e+02
  11.0169  -50.8282   23.4155 -1.05e+02
  10.9736  -50.9888   23.3136 -1.05e+02
  10.7575  -50.8080   23.3336 -1.05e+02
  11.0108  -50.5235   23.0694 -1.05e+02
  10.9205  -50.5342   22.9676 -1.05e+02
  10.8808  -50.9279   22.9522 -1.05e+02
  11.0141  -50.9377   22.9695 -1.05e+02
  10.7989  -50.7746   23.3521 -1.05e+02
  10.9625  -50.8739   23.3372 -1.05e+02
  10.7787  -50.8767   23.1074 -1.05e+02
  10.8710  -50.9395   23.1386 -1.05e+02
  10.7451  -50.8916   22.9782 -1.05e+02
  10.8778  -51.0242   22.9384 -1.05e+02
  10.8262  -50.7532   23.2660 -1.05e+02
  10.9728  -50.9676   22.9423 -1.05e+02
  10.9298  -50.6973   23.3618 -1.05e+02
  10.9405  -50.8231   23.2701 -1.05e+02
  10.8442  -50.5693   23.4384 -1.05e+02
  10.9131  -50.8960   23.3150 -1.05e+02
  11.0095  -50.7676   23.0582 -1.05e+02
  10.7429  -50.8403   23.0488 -1.05e+02
  10.9192  -50.5956   23.0662 -1.05e+02
  10.8504  -50.7478   23.3149 -1.05e+02
  10.7934  -50.6246   23.4019 -1.05e+02
  10.7864  -50.7096   22.9801 -1.05e+02
  11.0084  -51.0124   23.0499 -1.05e+02
  10.8450  -51.0162   23.3085 -1.05e+02
  10.8200  -50.8423   23.3927 -1.05e+02
  10.7935  -50.7289   23.2864 -1.05e+02
  10.7525  -50.9254   23.2128 -1.05e+02
  10.9652  -50.8182   23.0052 -1.05e+02
  10.1347  -50.3944   23.9430 -1.05e+02
  10.3722  -50.3258   23.5489 -1.05e+02
  10.2193  -49.9806   23.7475 -1.05e+02
  10.3546  -50.2402   23.9795 -1.05e+02
  10.1551  -50.4300   23.5224 -1.05e+02
  10.3444  -50.3072   23.9094 -1.05e+02
  10.4197  -50.2052   23.5963 -1.05e+02
  10.2640  -50.0964   23.8601 -1.05e+02
  10.4055  -50.1752   23.9733 -1.05e+02
  10.1777  -49.9939   23.7819 -1.05e+02
  10.3540  -50.1347   23.8795 -1.05e+02
  10.3681  -50.0071   23.9119 -1.05e+02
  10.4238  -50.3789   23.8037 -1.05e+02
  10.2099  -50.0954   23.7649 -1.05e+02
  10.1359  -50.4722   23.5185 -1.05e+02
  10.2886  -50.2917   23.8517 -1.05e+02
  10.1692  -50.4953   23.5422 -1.05e+02
  10.2176  -49.9618   23.9634 -1.05e+02
  10.3899  -50.1680   23.5259 -1.05e+02
  10.1240  -50.2108   23.4890 -1.05e+02
  10.2549  -50.0586   23.6233 -1.05e+02
  10.2311  -50.3417   23.7161 -1.05e+02
  10.2000  -50.0195   23.9007 -1.05e+02
  10.1883  -50.1510   23.9157 -1.05e+02
  10.1519  -50.1063   23.6995 -1.05e+02
  10.3319  -50.1656   23.7238 -1.05e+02
  10.2078  -50.4438   23.6601 -1.05e+02
