NLLOC "./3D_reloc_nonlin_latlon_calum_lfe_loc/3D_reloc_nonlin_latlon_calum_lfe.20100705.174441.grid0" "LOCATED" "Location completed."
SIGNATURE "C. Boese VUW   NLLoc:v6.00.0 17May2015 09h58m44"
COMMENT "2008-2009 SAMBA"
GRID  50 90 26  -30 -95 -2  2 2 2 PROB_DENSITY
SEARCH OCTREE nInitial 19200 nEvaluated 20000 smallestNodeSide 0.306250/0.556250/0.541667 oct_tree_integral 1.946430e+01 scatter_volume 1.946430e+01
HYPOCENTER  x 9.35313 y -58.0094 z 32.9375  OT 32.5251  ix -1 iy -1 iz -1
GEOGRAPHIC  OT 2010 07 05  17 44   32.5251  Lat -43.67677503 Long 169.89641348 Depth 32.937500 
QUALITY  Pmax 2.0807e-46 MFmin 5.12802 MFmax 6.29546 RMS 0.631503 Nphs 8 Gap 252.269 Dist 17.2033 Mamp  -9.9 0 Mdur  -9.9 0
VPVSRATIO  VpVsRatio -1  Npair 0  Diff -2e+30
STATISTICS  ExpectX 9.54054 Y -58.4173 Z 33.1184  CovXX 0.715163 XY -0.284574 XZ -0.390174 YY 2.56964 YZ -2.47552 ZZ 4.2523 EllAz1  54.0384 Dip1  24.0827 Len1  1.01742 Az2  312.336 Dip2  24.4083 Len2  2.07009 Len3  4.613625e+00
STAT_GEOG  ExpectLat -43.6803 Long 169.894 Depth 33.1184
TRANSFORM  SIMPLE LatOrig -43.301800  LongOrig 170.412000  RotCW -54.000000
QML_OriginQuality  assocPhCt 10  usedPhCt 8  assocStaCt -1  usedStaCt 8  depthPhCt -1  stdErr 0.631503  azGap 252.269  secAzGap 299.944  gtLevel -  minDist 17.2033 maxDist 46.2764 medDist 35.3315
QML_OriginUncertainty  horUnc -1  minHorUnc 1.24366  maxHorUnc 2.45119  azMaxHorUnc 171.469
FOCALMECH  Hyp  -43.6768 169.896 32.9375 Mech  0 0 0 mf  0 nObs 0
PHASE ID Ins Cmp On Pha  FM Date     HrMn   Sec     Err  ErrMag    Coda      Amp       Per  >   TTpred    Res       Weight    StaLoc(X  Y         Z)        SDist    SAzim  RAz  RDip RQual    Tcorr 
cova   S    N    E S      ? 20100705 1744     41.91 GAU     1e+05        -1        -1        -1 >    9.9350   -0.5501    0.0000    6.9975  -49.2319   -1.4760    9.0881  38.98  37.8 161.7  9     0.0000
FOZ    H    E    E S      ? 20100705 1744     43.14 GAU       0.1        -1        -1        -1 >   10.5128    0.1021    1.1602   -7.3876  -54.0466   -0.0540   17.2033 337.32 339.5 150.9  9     0.0000
mtfo   S    E    E S      ? 20100705 1744     44.19 GAU       0.1        -1        -1        -1 >   11.2868    0.3781    0.9481   -0.4173  -40.3886   -1.2140   20.1483  24.99  24.0 146.8  9     0.0000
cosa   S    E    E S      ? 20100705 1744     44.76 GAU       0.1        -1        -1        -1 >   12.3222   -0.0873    0.8225   -3.5414  -32.5734   -0.3756   28.5177  27.12  27.7 139.2  9     0.0000
labe   S    N    E S      ? 20100705 1744     45.15 GAU       0.1        -1        -1        -1 >   12.9503   -0.3254    1.0993   14.0967  -26.8503   -1.5878   31.5181  62.66  71.2 133.4  9     0.0000
fran   S    E    E S      ? 20100705 1744     45.93 GAU       0.1        -1        -1        -1 >   14.4097   -1.0048    0.7588   -4.9003  -21.5517   -0.0310   39.1449  32.65  35.2 125.2  9     0.0000
pocr   S    2    E S      ? 20100705 1744     47.78 GAU       0.1        -1        -1        -1 >   15.4617   -0.2068    0.8848   -7.0189  -18.3619   -0.0950   42.8948  31.56  35.6 120.7  9     0.0000
whym   S    N    E S      ? 20100705 1744     49.63 GAU       0.1        -1        -1        -1 >   15.8098    1.2951    1.1149   10.6125  -11.7501   -0.9047   46.2764  55.56  62.4 118.0  9     0.0000
gova   S    E    E S      ? 20100705 1744     49.07 GAU       0.1        -1        -1        -1 >   16.9956   -0.4507    1.2113   34.5716  -16.1186   -0.8120   48.8959  85.05  85.4 115.8  9     0.0000
gova   S    Z    I P      ? 20100705 1744     45.57 GAU     1e+05        -1        -1        -1 >   10.1164    2.9285    0.0000   34.5716  -16.1186   -0.8120   48.8959  85.05  85.4 115.8  9     0.0000
END_PHASE
END_NLLOC

