 2013  9 1 0411 16.0 L -43.352 170.388  6.0  VUW  9 0.2 0.8LVUW                1
 GAP=100        0.41       1.2     1.4  4.1  0.3512E+00  0.1332E+01  0.2199E+01E
 ACTION:NEW 15- 7-15  2: 5 OP:CALU STATUS:               ID:20130901041117     I
 2013-09-01-0410-36.DFDPC_027_00                                               6
 STAT SP IPHASW D HRMM SECON CODA AMPLIT PERI AZIMU VELO AIN AR TRES W  DIS CAZ7
 GCSZ SZ IP   3    411 17.43                             126    0.00 2    6 309 
 GCSZ S2 IS        411 18.34                             126   -0.0310    6 309 
 GCSZ EZ  IAML     411 18.47         1.8 0.08                             6 309 
 WV03 SZ IP   1    411 17.19                             124   -0.26 7    6  13 
 WV03 SZ  IAML     411 20.56        10.90.232                             6  13 
 WZ02 EN IS        411 18.73                             121    0.0210    7  87 
 WHYM SZ IP   1    411 18.21                             118    0.17 7   10 188 
 WHYM SN IS   3    411 19.88                             118    0.49 2   10 188 
 WHYM SZ  IAML     411 20.51         3.1 0.14                            10 188 
 WZ04 HZ IP        411 18.11                             113    0.0810   10 332 
 WZ04 HZ  IAML     411 20.35        16.1 0.36                            10 332 
 EORO SN IS   2    411 21.53                             103   -0.47 5   19 245 
 LABE SE IS   2    411 23.33                             104   -0.19 5   24 208 
                                                                                
