 2010  9 3 1430 28.1 L -43.227 170.838 16.2  VUW  9 0.2 2.7LVUW                1
 GAP=188        0.53       1.6     2.2  2.7  0.9385E+00  0.2244E+01  0.2345E+01E
 ACTION:UPD 12-10-08 16:44 OP:CARO STATUS:               ID:20100903143028     I
 10-246-14-30-00.mseed                                                         6
 2010  9 3 1422 33.6 L                                                         1
 10-246-14-30-01.mseed                                                         6
 STAT SP IPHASW D HRMM SECON CODA AMPLIT PERI AZIMU VELO AIN AR TRES W  DIS CAZ7
 WVZ  HZ IP     D 1430 32.50                             128    0.2410 18.7 334 
 WVZ  HE IS       1430 34.96                             128   -0.1210 18.7 334 
 WVZ  HE  IAML    1430 34.99        43.4 0.13                          18.7 334 
 WHYM SZ IP       1430 35.99                             108   -0.3710 44.7 238 
 WHYM SN  IAML    1430 44.15         8.5 0.09                          44.7 238 
 POCR2SZ EP   2   1430 37.62                             104    0.13 5 51.7 254 
 POCR2S2 ES       1430 43.89                             104    0.0310 51.7 254 
 GOVA SZ IP     C 1430 37.46                             105   -0.3110 53.2 211 
 GOVA SE  IAML    1430 45.06         1.8 0.10                          53.2 211 
 RPZ  H2 ES       1430 45.58                             103    0.1910 57.1 162 
 RPZ  H2  IAML    1430 46.28         7.3 0.34                          57.1 162 
 FRAN SZ EP       1430 38.49                             103    0.0310 57.5 253 
 FRAN S1 ES       1430 45.52                             103    0.0310 57.5 253 
 FRAN S1  IAML    1430 46.51         2.0 0.10                          57.5 253 
 COSA SN ES       1430 48.64                             101    0.2310 67.7 248 
 COSA SE  IAML    1430 49.79         3.3 0.14                          67.7 248 
 MTFO SZ EP       1430 41.34                              67   -0.0210 74.7 245 
 MTFO SN ES       1430 50.41                              67    0.0310 74.7 245 
 MTFO SE  IAML    1430 55.25        10.1 0.11                          74.7 245 
 FOZ  HE  IAML    1430 58.00         5.0 0.14                          89.6 247 
                                                                                
