 2010  9 3 2022  3.5 L -43.682 169.858 10.4  VUW  8 0.1 3.6LVUW                1
 GAP=263        0.34       1.3     1.8  2.0  0.3075E+00 -0.5177E+00  0.5137E+00E
 ACTION:UPD 12-10-08 16:44 OP:CARO STATUS:               ID:20100903202203     I
 10-246-20-15-01.mseed                                                         6
 STAT SP IPHASW D HRMM SECON CODA AMPLIT PERI AZIMU VELO AIN AR TRES W  DIS CAZ7
 COVA SZ EP     C 2022  6.18                             130   -0.0710 11.7  50 
 COVA SE ES       2022  8.12                             130    0.0210 11.7  50 
 COVA SE  IAML    2022  8.43       505.9 0.05                          11.7  50 
 FOZ  HZ IP     C 2022  6.86                             116    0.0110 16.8 348 
 MTFO SZ IP     C 2022  7.87                             112    0.0810 22.2  32 
 MTFO SE ES       2022 10.61                             112   -0.0810 22.2  32 
 MTFO SE  IAML    2022 10.93       159.3 0.08                          22.2  32 
 COSA SZ EP   3   2022  9.29                             104    0.17 2 30.6  32 
 COSA SN ES       2022 13.11                             104    0.1810 30.6  32 
 COSA SE  IAML    2022 14.66       126.1 0.27                          30.6  32 
 FRAN SZ IP     C 2022 10.84                              98   -0.1110 41.5  36 
 FRAN S2 ES       2022 15.90                              98   -0.1110 41.5  36 
 FRAN S2  IAML    2022 16.96        22.9 0.17                          41.5  36 
 POCR2SZ EP       2022 11.99                              97    0.0710 47.1  39 
 POCR2S2 ES       2022 17.76                              97    0.1310 47.1  39 
 POCR2S2  IAML    2022 18.27        31.7 0.13                          47.1  39 
 WHYM SZ EP       2022 12.21                              97   -0.1210 49.3  57 
 WHYM SE ES       2022 18.15                              97   -0.1810 49.3  57 
 WHYM SE  IAML    2022 18.34        95.3 0.13                          49.3  57 
 GOVA SZ IP       2022 12.88                              96    0.0610 52.2  85 
 GOVA SE ES       2022 19.25                              96    0.1010 52.2  85 
                                                                                
