 2013  9 1 2040 51.9 L -43.302 170.529 10.5  VUW 15 .20 0.9LVUW                1
 GAP=127       0.560       1.4     1.7  2.2 -0.1227E+01  0.1479E+00 -0.3981E+00E
 SPEC WHYMSH Z MO 10.1 ST  0.0 OM      f0 7.02 R 0.192 AL 0.00 WI 1.90 MW  0.7 3
 SPEC WHYMSH Z T204058 K 0.020 GD2.200 VS 3.64 DE 2.79 Q0400.0 QA 0.70 VS 3.64 3
 SPEC EOROSH Z MO 10.2 ST  0.0 OM      f0 6.06 R 0.222 AL 0.00 WI 1.20 MW  0.7 3
 SPEC EOROSH Z T2041 1 K 0.020 GD3.300 VS 3.64 DE 2.79 Q0400.0 QA 0.70 VS 3.64 3
 SPEC GCSZEH Z MO 10.2 ST  0.0 OM      f0 4.83 R 0.279 AL 0.00 WI 1.60 MW  0.7 3
 SPEC GCSZEH Z T204057 K 0.020 GD1.900 VS 3.64 DE 2.79 Q0400.0 QA 0.70 VS 3.64 3
 2013-09-01-2040-11.DFDPC_039_00                                               6
 OLDACT:REG 14-01-30 15:02 OP:SWIN STATUS:               ID:20130901195959     3
 ACTION:UP  15-07-03 05:18 OP:CALU STATUS:               ID:20130901204051     I
 STAT SP IPHASW D HRMM SECON CODA AMPLIT PERI AZIMU VELO AIN AR TRES W  DIS CAZ7
 WZ16 EN IS       2040 55.22                             147   0.090105.840 176 
 WZ02 EE IS       2040 55.02                             144   -.180106.390 215 
 WV04 S2 IP     D 2040 54.51                             133   0.290 59.480 270 
 WV04 S2 IS       2040 55.79                             133   0.020 59.480 270 
 WV04 S1  IAML    2040 56.27         3.6 0.11                         9.480 270 
 WV04 S2  IAML    2040 56.32         4.0 0.10                         9.480 270 
 WV02 S2 IS       2040 55.68                             132   -.110 59.560 282 
 WV02 S1  IAML    2040 56.13         5.9 0.63                         9.560 282 
 WV02 S2  IAML    2040 56.14         3.9 0.11                         9.560 282 
 WZ11 HZ EP       2040 54.50                             132   0.260109.700 273 
 WV03 SZ IP   1   2040 54.56                             131   0.280 510.00 275 
 WV03 S2 IS       2040 55.71                             131   -.1801010.00 275 
 WZ20 EZ IP       2040 54.51                             134   0.0801010.10  13 
 WV01 SZ IP   9 C 2040 59.65                             128    5.22 011.10 282 
 WV01 S1 IS   9   2041  1.12                                   -.230 011.10 282 
 WZ10 HN IS       2040 56.26                             126   -.0701011.90 357 
 WHAT2S1 IP     C 2040 55.10                             122   0.290 713.80 280 
 WHAT2S3 IS       2040 56.77                             122   -.010 713.80 280 
 GCSZ E2 IS       2040 57.49                             117   0.0101016.50 264 
 WHYM _N IS       2040 58.59                             114   0.080 520.10 219 
 WHYM _N  IAML    2040 59.00         2.9 0.33                         20.10 219 
 WHYM _E  IAML    2040 59.06         3.6 0.43                         20.10 219 
 WZ14 EZ IP       2040 57.97                             105   0.1701031.80  48 
 WZ14 EE IS       2041  1.32                             105   -.4701031.80  48 
 EORO _E IS       2041  1.30                             103   -.510 732.30 244 
 EORO _N  IAML    2041  1.52         2.1 0.21                         32.30 244 
 EORO _E  IAML    2041  1.61         1.4 0.16                         32.30 244 
 LABE _Z IP     C 2040 58.74                             103   0.300 235.60 220 
 LABE _N IS       2041  2.60                             103   -.270 535.60 220 
 LABE _E  IAML    2041  3.21         1.7 0.49                         35.60 220 
 LABE _N  IAML    2041  5.16         2.7 0.29                         35.60 220 
 MTFO _E ES       2041  6.17                              98   -.3701048.60 241 
 GCSZ EZ IP       2040 55.52                             117   0.2901016.50 264 
 WV02 SZ IP       2040 54.41                             132   0.180 59.560 282 
 WZ02 EZ IP       2040 54.02                             144   0.150106.390 215 
 EORO SZ IP   1   2040 58.04                             103   0.230 732.30 244 
 WHYM SZ IP   1   2040 56.12                             114   0.270 520.10 219 
                                                                                
