 2009 1114 0614  5.8 L -41.234 174.859 24.3  TES 23 8.2                        1
 GAP=109       22.48      31.2    73.7 44.2  0.3449E+03 -0.1903E+04 -0.3790E+03E
 ACTION:ARG 16-03-14 10:41 OP:DOMI STATUS:               ID:20091114061405 L   I
 2009-11-14T06-14-09.018400Z.MSEED                                             6
 STAT SP IPHASW D HRMM SECON CODA AMPLIT PERI AZIMU VELO AIN AR TRES W  DIS CAZ7
 S029 EZ  P        614  9.49                             169   -2.2010 3.55 343 
 S029 EN  S        614 15.24                                           3.55 343 
 S029 EE  S        614 15.24                             169   -0.6910 3.55 343 
 WEL  HZ  P        614  8.96                             152   -2.9610 9.40 234 
 WEL  HE  S        614 13.94                             152   -2.3710 9.40 234 
 WEL  HN  S        614 13.94                                           9.40 234 
 S026 EN  S        614 17.10                                           10.7 109 
 S027 EZ  P        614 10.54                             149   -1.4610 10.7 131 
 S027 EE  S        614 16.57                             149    0.1110 10.7 131 
 S027 EN  S        614 16.57                                           10.7 131 
 S026 EZ  P        614 10.82                             149   -1.1810 10.7 109 
 S026 EE  S        614 17.10                             149    0.6410 10.7 109 
 S030 EZ  P        614 10.58                             145   -1.5410 12.1  22 
 S030 EE  S        614 16.70                             145    0.0410 12.1  22 
 S030 EN  S        614 16.70                                           12.1  22 
 S031 EZ  P        614 11.19                             130   -1.6110 18.9  22 
 S031 EN  S        614 17.68                                           18.9  22 
 S031 EE  S        614 17.68                             130   -0.1510 18.9  22 
 BHW  EZ  P        614 10.05                             130   -2.8110 19.4 177 
 BHW  EE  S        614 15.80                             130   -2.1310 19.4 177 
 BHW  EN  S        614 15.80                                           19.4 177 
 CAW  EZ  P        614 12.16                             124   -1.1410 22.4  51 
 CAW  EN  S        614 19.75                                           22.4  51 
 CAW  EE  S        614 19.75                             124    1.0510 22.4  51 
 LTW1 EZ  P        614 12.81                             111   -1.8310 32.7  24 
 LTW1 EN  S        614 20.72                                           32.7  24 
 LTW1 EE  S        614 20.72                             111   -0.2810 32.7  24 
 MSWZ EZ  P        614 13.81                             106   -1.7510 38.4 122 
 MSWZ EN  S        614 24.01                                           38.4 122 
 MSWZ EE  S        614 24.01                             106    1.4410 38.4 122 
 KIW  EZ  P        614 13.04                             104   -2.9710 41.6   6 
 KIW  EN  S        614 20.86                                           41.6   6 
 KIW  EE  S        614 20.86                             104   -2.5010 41.6   6 
 WAIK EZ  P        614 35.23                             103   18.9810 44.4  19 
 WAIK EE  S        614 40.16                             103   16.3910 44.4  19 
 WAIK EN  S        614 40.16                                           44.4  19 
 PLWZ EZ  P        614 14.37                             100   -2.9710 49.8 138 
 PLWZ EE  S        614 24.96                             100   -0.6710 49.8 138 
 PLWZ EN  S        614 24.96                                           49.8 138 
 PAWZ EZ  P        614 15.24                             100   -2.1410 50.3 109 
 PAWZ EN  S        614 25.35                                           50.3 109 
 PAWZ EE  S        614 25.35                             100   -0.3610 50.3 109 
 OGWZ EZ  P        614 15.59                              99   -2.0610 53.2  30 
 OGWZ EE  S        614 25.53                              99   -0.6410 53.2  30 
 OGWZ EN  S        614 25.53                                           53.2  30 
 MTW  EZ  P        614 16.20                              99   -1.7010 54.6  81 
 MTW  EE  S        614 26.99                              99    0.3910 54.6  81 
 MTW  EN  S        614 26.99                                           54.6  81 
 HOWZ EZ  P        614 17.57                              73   -2.1610 66.6  56 
 HOWZ EN  S        614 23.56                                           66.6  56 
 HOWZ EE  S        614 23.56                              73   -6.1910 66.6  56 
 TRWZ EZ  P        615  2.22                              73   41.7910 71.8 105 
 TMWZ EZ  P        614 20.05                              73   -2.7510 87.7  81 
 MRZ  HZ  P        614 20.07                              73   -2.6510 87.9  44 
 MRZ  HE  S        614 30.23                              73   -4.6710 87.9  44 
 MRZ  HN  S        614 30.23                                           87.9  44 
 TIWZ EZ  P        614 17.41                              63   -7.1210  100  60 
 TIWZ EE  S        614 22.13                              63   -15.910  100  60 
 TIWZ EN  S        614 22.13                                            100  60 
 CPWZ EZ  P        614 24.53                              59   -2.2910  118  73 
 BFZ  HZ  P        614 32.95                              59    4.3410  132  63 
 BFZ  HE  S        614 43.69                              59   -1.3410  132  63 
 BFZ  HN  S        614 43.69                                            132  63 
                                                                                
