# 2012  1 30  1 45 43.25 -43.1690  170.6460  -0.2880 0.00  0.00  0.00  0.00       58820
WZ20   -0.061 1.000 P
WZ06   1.572 1.000 P
WZ14   0.000 1.000 P
WZ15   0.345 1.000 P
WVZ    -0.521 1.000 P
WZ01   -0.532 1.000 P
WZ18   -1.250 1.000 P
WZ03   0.354 1.000 P
WZ13   -0.680 1.000 P
WZ10   0.246 1.000 P
WZ12   -1.288 1.000 P
WZ08   2.267 1.000 P
WZ09   1.479 1.000 P
WZ17   2.212 1.000 P
WZ02   2.104 1.000 P
WZ11   2.236 1.000 P
# 2012  1 30  6 48 43.07 -43.1690  170.6460  -0.2880 0.00  0.00  0.00  0.00       58870
WZ18   0.000 1.000 P
WZ04   23.716 1.000 P
FRAN   7.238 1.000 P
POCR2  6.451 1.000 P
WZ17   3.484 1.000 P
WZ08   3.337 1.000 P
WZ02   3.364 1.000 P
WZ13   0.567 1.000 P
WZ10   1.506 1.000 P
WZ20   1.208 1.000 P
WZ19   1.248 1.000 P
WZ03   1.548 1.000 P
WZ01   0.691 1.000 P
WZ12   -0.044 1.000 P
WZ14   1.244 1.000 P
WZ06   2.848 1.000 P
WZ09   2.832 1.000 P
WHAT2  3.751 1.000 P
WZ11   3.540 1.000 P
WZ15   1.552 1.000 P
